Clinic Name,Address,State,Email,Google_Full_Address,Latitude,Longitude,Extracted_Pincode,Mapped_District,Brand_name,Clinic_Type
A4 FERTILITY CENTRE,"NO:31, GST ROAD, IRUMBULIYUR, WEST TAMBARAM",TAMIL NADU,admintamb@a4fertility.com,"31, Grand Southern Trunk Rd, West Tambaram, Irumbuliyur, Chennai, Tamil Nadu 600045",12.9197562,80.0897935,600045,Chennai,A4,Chained
A4 FERTILITY CENTRE,"NO:788, THIRUVOTTIYUR HIGH ROAD, OLD WASHERMANPET",TAMIL NADU,adminwashermanpet@a4fertility.com,"Thiruvottiyur High Rd, opposite to Sir Thiyagaraja College, Korukkupet, Old Washermanpet, Chennai, Tamil Nadu 600021",13.1167636,80.2631508,600021,Chennai,A4,Chained
A4 Fertility Centre,"87, Arcot Road, Virugambakkam, chennai",TAMIL NADU,admin@a4fertility.com,"87, Arcot Rd, AVM Avenue, Virugambakkam, Chennai, Tamil Nadu 600092",13.0466983,80.1686399,600092,Chennai,A4,Chained
A4 HOSPITALS AND FERTILITY CENTRE PRIVATE LIMITED,"PLOT NO 10,11,12, VADIVELAN NAGAR, TAMBARAM MAIN ROAD , VELACHERY",TAMIL NADU,ohvelachery@a4hospital.com,"100 feet road, 10, opposite Hotel Ambika Empire, Vadapalani, Chennai, Tamil Nadu 600026",12.9944065,79.9314249,600026,Chennai,A4,Chained
Aadhuram Hospital,"No. 316/1, Konnur High Road, Ayanavaram, Chennai",TAMIL NADU,aadhuramhospitalchennai@gmail.com,"172/1(old no. 316/1, Konnur High Rd, Vasantha nagar, Chinna Chembarambakkam, Ayanavaram, Chennai, Tamil Nadu 600023",13.0986116,80.2145972,600023,Chennai,AADHURAM,Independent
AADITYA FERTILITY & WOMEN CARE CENTRE,"AAKASH HOSPITAL ,393/1, THIRUVOTTIYUR HIGH ROAD , CHENNAI",TAMIL NADU,aadityafertility@gmail.com,"403, Thiruvottiyur High Rd, Bharathi Nagar, Tiruvottiyur Bharathi Nagar, Tiruvottiyur Chennai, Tamil Nadu 600019, 600019",13.1692982,80.2839074,600019,Chennai,AADITYA,Independent
AAKASH HOSPITAL,"NO.3, P.S. SIVASAMY SALAI , MYLAPORE",TAMIL NADU,aakashfertilitymylapore@gmail.com,"No3, PS Siva Swamy Rd, Kattukoil Garden, Mylapore, Chennai, Tamil Nadu 600004",13.0441818,80.243093,600004,Chennai,AAKASH,Independent
"ABHI""S FERTILITY CLINICS A UNIT OF ABHI S.K HOSPITAL P .Ltd",": No: 153, Sathy Main Road, Karrattadai Palayam, Post, Nallagoundenpalayam, Gobichettipalayam, Tamil Nadu 638453",TAMIL NADU,drkavi345@gmail.com,"No: 153, Sathy Main Road, Karrattadai Palayam, Post, Nallagoundenpalayam, Gobichettipalayam, Tamil Nadu 638453",11.4572273,77.3918816,638453,Erode,ABHI,Independent
Abirami maternity center,"27/33, Narsimmapuram south, Karur",TAMIL NADU,manopuri85@yahoo.com,"27, Narasimapuram, South, Kovai Main Rd, Karur, Tamil Nadu 639001",10.9560425,78.0783129,639001,Karur,ABIRAMI,Independent
ABITHA FERTILITY CLINIC,"71 ANNA SALAI, THIYAGARAJAPURAM, VELLORE",TAMIL NADU,CONTACT@ABITHAFERTILITYCLINIC.COM,"2nd Floor, 71, Anna Salai, Thiyagarajapuram Rd, Vellore, Tamil Nadu 632001",12.9033615,79.1113833,632001,Vellore,ABITHA,Independent
Accumed Speciality Clinic and Scans,"No.24,Chowdhry Nagar Main road,Opposite Vasanthi Dental Hospital, Majestic Colony, Valasaravakkam",TAMIL NADU,ashwinmuralidharan88@gmail.com,"24, Chowdry Nagar Main Rd, opp. Vasanthi Dental Hospital, Majestic Colony, Valasaravakkam, Chennai, Tamil Nadu 600087",13.0401299,80.1600225,600087,Chennai,ACCUMED,Independent
ADHITHYA INFERTILITY CENTRE,"ADHITHYA NURSING HOME,15 SENDHAMANGALAM ROAD, NAMAKKAL",TAMIL NADU,ADHITHYANURSINGHOMENAMAKKAL@GMAIL.COM,"Thangam Complex, 1/A-3, Senthamangalam Rd, Namakkal, Tamil Nadu 637001",11.2233396,78.1572331,637001,Namakkal,ADHITHYA,Independent
AK FERTILITY & WOMENS CLINIC,"Plot no 4, SHIVALAYA COMPLEX , ANNAI VELAKANNI NAGAR PHASE II, MUGALIVAKKAM, CHENNAI",TAMIL NADU,drkanikarthik@gmail.com,"Vaigai Street, Ramakrishna Nagar Extension, Mugalivakkam, Chennai, Tamil Nadu 600125",13.020713,80.1385378,600125,Chennai,AK,Independent
AKBAR ALI HOSPITAL,"106, North Street, Thirukovilur",TAMIL NADU,akbaralihospital2012@gmail.com,"Sevalai Road, near Municipality, Thirukoilure, Tamil Nadu 605757",11.9646003,79.1872078,605757,Viluppuram,AKBAR,Independent
Akshara Fertility Center and Research Institute,"Plot No: 5107, First Floor, H2, 2nd Avenue, Anna Nagar, Chennai, Tamilnadu",TAMIL NADU,aksharafertility@gmail.com,"No.5107 H2, 2nd Ave, Ranganathan Garden, Anna Nagar, Chennai, Tamil Nadu 600040",13.0856015,80.1810873,600040,Chennai,AKSHARA,Independent
AKSHARA HOSPITAL,"No.7,EASWARI NAGAR, 3rd STREET,GOWRIVAKKAM,CHENNAI",TAMIL NADU,chellambbs@gmail.com,"7, Easwari Nagar, 3rd Street, Gowriwakkam, Sembakkam, Chennai, Tamil Nadu 600073",12.9226135,80.1436229,600073,Chennai,AKSHARA,Independent
AKSHAYA FERTILITY CENTRE,"7-A,RAMAKKAPETTAI,THIRUMAGAL THEATRE ROAD,NITHEESHWAR COMPLEX,1ST FLOOR,TIRUPPATUR",TAMIL NADU,akshayafertilitytpt@gmail.com,"7A, Ramakkapettai, Tirupathur, Tamil Nadu 635601",12.4903614,78.5615149,635601,Tirupathur,AKSHAYA,Independent
AKSHAYA FERTILITY CENTRE,"SHANKAR NURSING COMPLEX,15,GANDHI ROAD, SALEM -636007",TAMIL NADU,akshayafertilitycentre@gmail.com,"Shankar Nursing Home Campus, 15, Gandhi Rd, Hasthampatti, Salem, Tamil Nadu 636007",11.67289,78.1319668,636007,Salem,AKSHAYA,Independent
ALPHA BREAST CARE,"1ST FLOOR, ARUNAGIRI ENT NURSING HOME, 24/131, ALAGAPURAM MAIN ROAD, ALAGAPURAM, SALEM",TAMIL NADU,drselvabharathy@gmail.com,"210/2, SH 188, SBI Colony, SIDCO Industrial Estate, Swarnapuri, Salem, Tamil Nadu 636016",11.668109,78.0535049,636016,Salem,ALPHA,Independent
AMMA FERTILITY  CENTRE,"AMMA HOSPITAL,FOUR ROAD,PERAMBALUR",TAMIL NADU,ammahospital1977@gmail.com,"Amma hospital 4 road junction, po, Thuraimangalam, Perambalur, Tamil Nadu 621220",11.2412948,78.8386521,621220,Perambalur,AMMA,Independent
AMMAIYAPPA HOSPITAL,32 GOWRIPURAM WEST,TAMIL NADU,ammaiyappakarur1999@gmail.com,"26, Gowripuram W St, Gowripuram, Karur, Tamil Nadu 639002",10.959045,78.0518589,639002,Karur,AMMAIYAPPA,Independent
Amrita fertility care,"Senthil Nursing home,9953/2,Thirumayam road, Pudukkottai",TAMIL NADU,suganyakannanog@gmail.com,"9953/2, OPP TO COURT, THIRUMAYAM ROAD SENTHIL NURSING HOME, Pudukkottai, Tamil Nadu 622001",10.3761846,78.7992314,622001,Pudukkottai,AMRITA,Independent
Ananya Fertility Centre,"13/1,Sannathi Street,Thiruthuraipoondi",TAMIL NADU,sarungeorge63@gmail.com,"13, 1st Floor, Sannathi St, Thruthuraipoondi, Tamil Nadu 614713",10.5326072,79.6188886,614713,Thanjavur,ANANYA,Independent
ANBHU RAM TEST TUBE BABY CENTRE,"40, SILAMBANI SANNATHI STREET, DEVAKOTTAI",TAMIL NADU,porselviperumal79@gmail.com,"No: 40, Silambani Sannathi St, Devakottai, Tamil Nadu 630302",9.948218,78.7980746,630302,Sivaganga,ANBHU,Independent
ANBU FERTILITY CENTER,"100, Railway feeder Road,  Palani",TAMIL NADU,anbufertility@gmail.com,"100, R.F.ROAD, near railway station, Anna Nagar, Palani, Tamil Nadu 624601",10.4569926,77.4986578,624601,Dindigul,ANBU,Independent
Anitha Hospital,"5279,9th Street,Ram Nagar North Extension, Puzhuthivakkam",TAMIL NADU,anithahospital@hotmail.com,"5279, 9th St, Puzhuthivakkam, Srinivasa Nagar, Ram Nagar, Madipakkam, Chennai, Tamil Nadu 600091",12.9703537,80.191406,600091,Chennai,ANITHA,Independent
Ankitha M,3 392 C SK NAGAR SEELANAICKENPATTI SALEM,TAMIL NADU,drankitha1011@gmail.com,"J4GW+CWQ, No.3, 392-c, S K Nagar, P M Nagar, Seelanaickenpatti, Salem, Tamil Nadu 636201",11.6644696,78.0469168,636201,Salem,ANKITHA,Independent
ANNAI HOSPITAL,"5-82/1, KURUMPANAI ROAD, KARUNGAL",TAMIL NADU,annaihospital2022@gmail.com,"66MV+M5M, New Junction Karungal ,Kurumpanai Turning, Karungal, Tamil Nadu 629157",8.2342642,77.2223235,629157,Kanyakumari,ANNAI,Chained
Annai Hospital Sri Test Tube Baby Center,351 DSP Nagar main road Ponmeni,TAMIL NADU,annaihospital20@gmail.com,"351, Dinamalar Ave, Ponmeni, Madurai, Tamil Nadu 625016",9.9255534,78.0878068,625016,Madurai,ANNAI,Chained
Annai Velankanni Nursing Home,"1/111 Somasinayanar Street, Murugankurichi, Palayamkottai",TAMIL NADU,avinfy@gmail.com,"1/111, Somasinayanar Street, Murugankurichi, Tirunelveli-2, Palayamkottai, Tirunelveli, Tamil Nadu 627002",8.7271848,77.7096475,627002,Tirunelveli,ANNAI,Chained
ANTO SPECIALITY CLINIC,PLOT NO 7 FIRST MAIN ROAD VAISHNAVI NAGAR MEDAVAKKAM CHENNAI,TAMIL NADU,antospecialityclinic@gmail.com,"Plot No 7, 1st Main Rd, Munusamy Nagar, vaishnavi Nagar, Medavakkam, Chennai, Tamil Nadu 600100",12.916228,80.1695513,600100,Chennai,ANTO,Independent
ANU FERTILITY CENTER,"PRG Hospital,No,85,Sakkarapuram,Thiruvannamalai high road,Gingee",TAMIL NADU,drjarumai73@gmail.com,"No 85 , ThiruvannaMalai High Road , Opposite to State bank of India, opposite to ICICI Bank, Gingee, Tamil Nadu 604202",12.2528892,79.3932954,604202,Viluppuram,ANU,Independent
Apollo Fertility - Annanagar,"No 75, 6th avenue, O No 7, S Block, Annanagar, Chennai",TAMIL NADU,kingsly.edward@apollofertility.com,"75, 6th Ave, Old No:7, S Block, Anna Nagar, Chennai, Tamil Nadu 600040",13.0923635,80.1913401,600040,Chennai,APOLLO,Chained
Apollo Fertility - Karapakkam,"a Unit of Apollo Specialty Hospitals, N0:2/319, OMR Service Road, Karapakkam",TAMIL NADU,vijaya_m@apollohospitals.com,"OMR Landmark, Aravind theatre, OMR Service Rd, Karapakkam, Chennai, Tamil Nadu 600097",12.915091,80.2092085,600097,Chennai,APOLLO,Chained
Apollo Medical Centre,"VCT Building, 36/2, opposite A M M MATRICULATION HIGHER SECONDARY SCHOOL, beside Alliance Group, Chitra Nagar, Kotturpuram, Chennai, Tamil Nadu 600085",TAMIL NADU,sabari2828@gmail.com,"VCT Building, 36/2, opposite A M M MATRICULATION HIGHER SECONDARY SCHOOL, beside Alliance Group, Chitra Nagar, Kotturpuram, Chennai, Tamil Nadu 600085",13.0184941,80.2203711,600085,Chennai,APOLLO,Chained
Apollo Women's Hospital,"No.16, Shafee Mohammed Road, Thousand Lights, Chennai",TAMIL NADU,ramasubramanian_k@apollohospitals.com,"16/7, Shafee Mohammed Rd, Thousand Lights West, Thousand Lights, Chennai, Tamil Nadu 600006",13.0601839,80.2317058,600006,Chennai,APOLLO,Chained
APS Maternity & surgical centre,"101-9 Arumuga mudaliar garden, Cuddalore main road,South extension,Ammapet,Salem",TAMIL NADU,abarnasaravanan@email.com,"101-9, Arumuga Mudaliar St, south extension, Ammapet, Salem, Tamil Nadu 636003",11.659574,78.1712291,636003,Salem,APS,Independent
AR HOSPITAL AND FERTILITY CENTRE,"NO. 46/6, MADURAI ROAD, RAMANATHAPURAM",TAMIL NADU,arhospitalramnad@yahoo.com,"46, 9R79+VWF, 6, Madurai - Rameswaram Hwy, near ISHWARYA HOSPITAL, Davendrar Nagar, Chalai Bazar, Ramanathapuram, Tamil Nadu 623502",9.3619009,78.7877702,623502,Ramanathapuram,AR,Independent
ARAVIND HOSPITAL,"55-B,GANDHI SALAI, RASIPURAM.",TAMIL NADU,aravindhospitalrsp@gmail.com,"Pattanam Rd, Housing Board, Rasipuram, Tamil Nadu 637408",11.4644907,78.1719465,637408,Namakkal,ARAVIND,Chained
ARC INTERNATIONAL FERTILITY AND RESEARCH CENTRE  PVT LTD,NO 4622CASA MAJAOR ROAD EGMORE CHENNAI 08,TAMIL NADU,art_egmorenew@arcfertility.in,"19, CASA Major Rd, Sulaiman Zackria Avenue, Egmore, Chennai, Tamil Nadu 600008",13.0701158,80.2340629,600008,Chennai,ARC,Chained
ARC INTERNATIONAL FERTILITY AND RESEARCH CENTRE PRIVATE LIMITED,"No. 13, 13 A, GST ROAD, IRUMBULIYUR, WEST TAMBARAM",TAMIL NADU,art_Tambaram@arcfertility.in,"13, Grand Southern Trunk Rd, West Tambaram, Irumbuliyur, Chennai, Tamil Nadu 600045",12.918745,80.0883453,600045,Chennai,ARC,Chained
ARC INTERNATIONAL FERTILITY AND RESEARCH CENTRE PRIVATE LIMITED,"NO.22/2, &22/3, ESI HOSPITALROAD, PERAVALLUR,, CHENNAI-11, Tamil Nadu, India,",TAMIL NADU,sathya@arcfertility.in,"22/2, ESI Hospital Road, Junction, near Peravallur, Peravallur, Perambur, Chennai, Tamil Nadu 600011",13.1160493,80.2121949,600011,Chennai,ARC,Chained
Arc International Fertility and Research Centre Pvt Ltd,"21/5c, Sivagangai main road, opp to aavin office, Madurai",TAMIL NADU,art_Madurai@arcfertility.in,"SNP Towers, 21/5C, Sivagangai Main Rd, opposite to Aavin Milk Project, Managiri, Madurai, Tamil Nadu 625020",9.9263281,78.1421737,625020,Madurai,ARC,Chained
Arc International Fertility and Research Centre Pvt Ltd,"644/4,Avinashi road, P.N.Palayam(Lakshmi mills junction)",TAMIL NADU,art_Coimbatore@arcfertility.in,"Lakshmi Mills Junction, 644/4, Avinashi Rd, Pappanaickenpalayam, Coimbatore, Tamil Nadu 641037",11.0723034,76.4998498,641037,Coimbatore,ARC,Chained
Arc International Fertility and Research Centre Pvt Ltd,"11/91,NVGB Hall Road,EB Colony,Nagal nagar, Dindigul",TAMIL NADU,art_Dindigul@arcfertility.in,"Landmark (Inside Bharathi Mission Hospital, 11/91, NVGB Hall Rd, EB Colony, Nagal Nagar, Tamil Nadu 624003",10.3554247,77.958377,624003,Dindigul,ARC,Chained
Arc International Fertility and Research Centre Pvt Ltd,"No:8A,Almighty Tower, Ground floor,Vadasery,Nagercoil.",TAMIL NADU,art_Nagercoil@arcfertility.in,"Ground Floor, 8A, Almighty Towers, Vadasery Rd, near Bus Stand, Nagercoil, Tamil Nadu 629001",8.1921633,77.4265891,629001,Kanyakumari,ARC,Chained
Arc International Fertility and Research Centre Pvt Ltd,"2nd floor Door no 52/10 3/5 Jagirammapalayam Near Global Medical centre (147.00 km),",TAMIL NADU,art_Salem@arcfertility.in,"1, Ethiraj Salai, next to Raddison Blu, Ethirajsamy Salai, Egmore, Chennai, Tamil Nadu 600008",12.9928238,80.1772888,600008,Chennai,ARC,Chained
Arc International Fertility and Research Centre Pvt Ltd,"Door.No.147/6,Second floor, Railway Feeder road. Ramanathapuram",TAMIL NADU,art_Ramnad@arcfertility.in,"Second floor, Landmark-Inside Gani hospital, 147/6, Railway Feeder Rd, Ganthi Nagar, Ramanathapuram, Tamil Nadu 623504",9.3586369,78.8175544,623504,Ramanathapuram,ARC,Chained
Arc International Fertility and Research Centre Pvt Ltd,"14A/1,South Bypass road, Melapalayam, Tirunelveli",TAMIL NADU,art_Tirunelveli@arcfertility.in,"14A/1, S Bypass Rd, near Saravana Selvarathinam Stores, Melapalayam, Tirunelveli, Tamil Nadu 627005",8.7109009,77.6991593,627005,Tirunelveli,ARC,Chained
Arc International Fertility and Research Centre Pvt Ltd,"102/283,New katpadi road, opp to new bus stand, Vellore",TAMIL NADU,art_Vellore@arcfertility.in,"102/283, Opp to New bus stand, New Bridge Rd, next to Hotel Saravana Bhavan, Vevekanandar Nagar, Thottapalayam, Vellore, Tamil Nadu 632004",12.9326951,79.1318439,632004,Vellore,ARC,Chained
Arc International Fertility and Research Centre Pvt Ltd,"1533,A.Kanji road, Vengikkal near Vengikkal arch, Thiruvannamalai,Tamilnadu",TAMIL NADU,art_Thiruvannamalai@arcfertility.in,"1540 A, Kanji - Tiruvannamalai Rd, near Vengikkal, Thendral Nagar, Vengikkal, arch, Annamalai R.F., Tamil Nadu 606604",12.2497806,79.050215,606604,Tiruvannamalai,ARC,Chained
Arc International Fertility and Research Centre Pvt Ltd,"No:D-22,First floor, Room.No.001, M.T.H Road,Ambattur industrial estate,Ambattur",TAMIL NADU,art_Ambattur@arcfertility.in,"D-22, Madras Thiruvallur High Rd, Old Ambattur, Sai Nagar, Ambattur Industrial Estate, Ambattur, Chennai, Tamil Nadu 600053",13.1013412,80.1398887,600053,Chennai,ARC,Chained
ARC International Fertility And Research Centre Pvt. Ltd.,"No.162, 3rd Floor Corporate Block,  Saveetha Medical College Hospital, Poonamalee High Rd, Kuthampakkam",TAMIL NADU,art_saveethanew@arcfertility.in,"Block, 162, Poonamallee High Rd, Karayanchavadi, Thiruverkadu, Chennai, Tamil Nadu 600056",13.0469709,80.0900658,600056,Chennai,ARC,Chained
ARKAH FERTILITY CENTRE AND WOMENS HOSPITAL,4A FIRST FLOOR MEDAVAKKAM MAIN ROAD MADIPAKKAM CHENNAI,TAMIL NADU,ARKAHFERTILITYCENTRE@GMAIL.COM,"4A, First Floor, Plot, Medavakkam Main Rd, Madipakkam, Chennai, St.Thomas Mount-cum-Pallavaram, Tamil Nadu 600091",12.96594,80.1677147,600091,Chennai,ARKAH,Independent
AROKIA MMADHA IUI CENTRE,AROKIA MADHA NIYALAYAM HOSPITAL GANGAVALLI,TAMIL NADU,arokiamadhaiui@gmail.com,"tk. dt, near union office, Gangavalli, Tamil Nadu 636105",11.5052674,78.6227169,636105,Salem,AROKIA,Independent
AROKYA HOSPITAL,"12/22-B,SURAMANGALAM MAIN ROAD,3 ROAD,",TAMIL NADU,arokyacare@outlook.com,"12, Three Roads, 22B, Suramangalam Main Rd, Meyyanur, Salem, Tamil Nadu 636009",11.2585408,77.0013531,636009,Salem,AROKYA,Independent
ART  Clinic,NO. 1 CHAIRMAN CIDHAMBARAM STREET WEST SHANMUGAPURAM,TAMIL NADU,devakihospital2013@gmail.com,"Ground Floor, Tower B 84, Bascon Maeru Towers, Kodambakkam High Rd, Nungambakkam, Chennai, Tamil Nadu 600034",13.053077,80.2225785,600034,Chennai,ART,Chained
ART clinic,"vamsam fertility research centre No.12,13 Sarojini street Ranipet District,Arakkonam,",TAMIL NADU,arakkonamvamsam@gmail.com,"No.12, 13 Sarojini street Ranipet, District, Arakkonam, Tamil Nadu 631001",13.0863263,79.6617482,631001,Ranipet,ART,Chained
ART Clinic,"VIJAYA MULTI SPECIALITY HOSPITAL NO:4/486-A, PENNAGARAM MAIN ROAD, DHARMAPURI",TAMIL NADU,vijayahospitalpro@gmail.com,"4/486-A, Pennagaram Main Road, near Vijay Vidhyalaya Boys School, Dharmapuri, Annai Sathya Nagar, Tamil Nadu 636701",12.1596137,78.1279433,636701,Salem,ART,Chained
ART CLINIC,"RAM MEDICAL CENTRE,BEHIND GURUAMUDHAS,SATHY ROAD,SARAVANAMPATTI",TAMIL NADU,suganvenkatesh@gmail.com,"95/1C, Sathy Rd, behind Hotel Guru Amadhas, Saravanampatti, Coimbatore, Tamil Nadu 641035",11.0735283,76.9809455,641035,Coimbatore,ART,Chained
ART clinic,"224, Sathyamoorthy road, Ramnagar",TAMIL NADU,esjaycraftivf@gmail.com,"224, Sathyamurthy Rd, Peranaidu Layout, Ram Nagar, Coimbatore, Tamil Nadu 641009",11.0238943,76.9365871,641009,Coimbatore,ART,Chained
ART Clinic,"24/5,Lavanya enclave,srp nagar,saibaba colony,coimbatore",TAMIL NADU,meyaivf@gmail.com,"24-5, Second Floor, Lavanya Enclave, SRP Nagar, Saibaba Colony, Coimbatore, Tamil Nadu 641011",11.993981,73.2917122,641011,Coimbatore,ART,Chained
ART CLINIC,"NO.11A, CHITHRA TOWER, KAMALAPURAM COLONY (NEAR SAIBABA TEMPLE) REDHILLS ROAD, AMBATTUR CHENNAI",TAMIL NADU,swathi.fertilitycentre@gmail.com,"520/3, MTH Road, Ambattur OT, near SHAH Electronics, West Krishnapuram, Chennai, Tamil Nadu 600053",12.9944065,79.9314249,600053,Chennai,ART,Chained
ART CLINIC,187 /2 SUGUNAA HOSPITAL BANGALOW STREET ERODE ROAD  THIRUCHENGODU,TAMIL NADU,abilab2010@gmail.com,"9VHR+797, Attur - Rasipuram - Erode Rd, Mahadhavapuram, Tiruchengode, Tamil Nadu 637211",11.375365,77.8755522,637211,Namakkal,ART,Chained
ART clinic,"Swathi hospital,no 6 thennamarasalai, thiruvizhanthur, Mayiladuthurai",TAMIL NADU,baskaranvanaja4@gmail.com,"6, THANNAMARA STREET, Mayiladuthurai, Thiruindalur, Tamil Nadu 609001",11.0789254,79.4566628,609001,Mayiladuthurai,ART,Chained
ART clinic,Madurai medical college OG department,TAMIL NADU,oggrhmadurai@gmail.com,"W4HP+CP6, Panagal Rd, Alwarpuram, Madurai, Tamil Nadu 625020",9.9285912,78.1161792,625020,Madurai,ART,Chained
ART CLINIC,"NO 28, FIRST AVENUE INDIRA NAGAR ADYAR",TAMIL NADU,pphhospitalart@gmail.com,"No 86, Thiag apartments, 1st Ave, Indira Nagar, Adyar, Chennai, Tamil Nadu 600020",12.9939799,80.243273,600020,Chennai,ART,Chained
ARUL HOSPITAL,6 THIRU VI KA NAGAR PUTHUR TRICHIRAPPALLI,TAMIL NADU,arulhospital@gmail.com,"6, T.V.K. Nagar, Opp Maruthi Hospital Vannarapettai, Puthur, Tiruchirappalli, Tamil Nadu 620017",10.8100378,78.6587457,620017,Trichy,ARUL,Independent
Arun Hospital,"No.15,Thiyagarajapuram, Vellore",TAMIL NADU,arunhospital2005@yahoo.co.in,"No-15, Thiyagarajapuram Rd, Sasthri Nagar, Veerasamy Nagar, Vellore, Tamil Nadu 632001",12.9031265,79.1128342,632001,Vellore,ARUN,Chained
Arun Hospital,"Opp BUs stand, Bodi",TAMIL NADU,dramuthabodi@gmail.com,"Bharathi Nagar, Tharamani, Chennai, Tamil Nadu 600113",12.9942215,80.0990604,600113,Chennai,ARUN,Chained
ARUN HOSPITAL PVT LTD,"185-186 MUNICHALAI ROAD, MADURAI",TAMIL NADU,arunhospitalpvtltd@gmail.com,"185-186, Munichalai Rd, Madurai, Tamil Nadu 625001",9.9211438,78.1232041,625001,Madurai,ARUN,Chained
ASHWIN FED SPECIALITY HOSPITAL,"29,KURUVIKARAN SALAI,ANNA NAGAR,MADURAI",TAMIL NADU,ashwinspecialityhospital@gmail.com,"&, 29/64, 1st Cross St, Kuruvikaran Salai, Gandhi Nagar, Shenoy Nagar, Madurai, Tamil Nadu 625020",9.9228474,78.1375947,625020,Madurai,ASHWIN,Independent
ASHWIN MODULAR TEST TUBE BABY CENTRE,545 SKC ROAD SURAMPATTI NALL ROAD ERODE,TAMIL NADU,ashwinchitrathangavel@gmail.com,"545, SKC Road, Kaikolar Thottam, Erode, Tamil Nadu 638001",11.3441846,77.6968039,638001,Erode,ASHWIN,Independent
ASHWINI FERTILITY CENTRE,"4/17-2 IYERBUNGALOW ROAD , MOONDRUMAVADI,K.PUDUR .MADURAI",TAMIL NADU,ashwinimsh2012@gmail.com,"4-17/2, Iyer Bungalow Rd, K.Pudur, Madurai, Tamil Nadu 625007",9.9547887,78.1475181,625007,Madurai,ASHWINI,Independent
Asirvatham Speciality Hospital,"No:22, Rajaji Street, Gandhi Nagar,Madurai",TAMIL NADU,asirvathamhospital@gmail.com,"22, Rajaji St, Gandhi Nagar, Shenoy Nagar, Madurai, Tamil Nadu 625020",9.9230611,78.1357704,625020,Madurai,ASIRVATHAM,Independent
"Assisted Reproduction and Research Centre, G.Kuppuswamy Naidu Memorial Hospital","Post Box No : 6327, Nethaji Road, Pappanaikenpalayam",TAMIL NADU,art@gknmh.org,"Netaji Rd, Pappanaickenpalayam, Coimbatore, Tamil Nadu 641037",11.0124346,76.9772735,641037,Coimbatore,ASSISTED,Independent
ATHVEKA MULTISPECIALITY CLINIC ( OPC ) PRIVATE LIMITED,"NO 45B, ALAGESAN NAGAR,B BLOCK,CHENGALPATTU,KANCHIPURAM",TAMIL NADU,sasikalaog@gmail.com,"45 B, opp. Government Hospital, Alagesan Nagar, Chengalpattu, Tamil Nadu 603001",12.6793975,79.9584795,603001,Chengalpattu,ATHVEKA,Independent
AVM HOSPITAL,135 PALAYAMKOTTAI ROAD THOOTHUKUDI,TAMIL NADU,quality@avmh.in,"135, Palayamkottai Rd, Toovipuram, Thoothukudi, Tamil Nadu 628001",8.8015625,78.1167803,628001,Thoothukudi,AVM,Independent
AYSHA FERTILITY CENTRE,"SEVALAI ROAD, THIRUKOVILUR",TAMIL NADU,ayshafertilitycentre@gmail.com,"173/243, Trichy Main Rd, Highways Nagar, Viluppuram, Tamil Nadu 605602",11.9513395,78.6833577,605602,Viluppuram,AYSHA,Independent
BABUS MATERNITY HOSPITAL,"7, DURAISAMY REDDY STREET, WEST TAMBARAM",TAMIL NADU,babusmaternityhospital@gmail.com,"2nd Floor, 7, Duraiswamy Reddy St, West Tambaram, Tambaram, Chennai, Tamil Nadu 600045",12.9296236,80.0989041,600045,Chennai,BABU,Independent
BABY IVF CENTRE,"NO.71B,Narimedu main road,Narimedu,Madurai.",TAMIL NADU,babyivfcentremadurai@gmail.com,"STAR HOSPITAL, Narimedu Main Rd, Narimedu, Madurai, Tamil Nadu 625002",9.9424607,77.9628034,625002,Madurai,BABY,Independent
BABY STEPS FERTILITY CENTRE,"25, Mettukuppam main road Chokanathar Nagar Maduravoyal",TAMIL NADU,manjula2000srmc@gmail.com,"25, Mettukuppam Rd, Pallavan Nagar, Maduravoyal, Chennai, Tamil Nadu 600095",13.0630925,80.1541149,600095,Chennai,BABY,Independent
Bala clinic,"51 A ,Ganamalar complex ,old post office odai street",TAMIL NADU,priyasakthi.c@yahoo.com,"1, 1st Avenue, 20, Indira Nagar, Adyar, Chennai, Tamil Nadu 600020",12.9927025,80.2376969,600020,Chennai,BALA,Independent
BGR FRTILITY CENTRE,"No: 268/1, VELLAIGOUNDANPALAIYAM VILLAGE",TAMIL NADU,bgrhospital@gmail.com,"13, Gandhi Nagar 1st Main Rd, Kasturba Nagar, Adyar, Chennai, Tamil Nadu 600020",12.9938902,80.1784684,600020,Chennai,BGR,Independent
Bhagyaa test tube baby center,"H18,J J nagar,sendurai road,kurumanchavadi, Ariyalur",TAMIL NADU,bhagyaa.ivf.ariyalur@gmail.com,"Subramaniya Nagar, Ariyalur, Tamil Nadu 621713",11.1438528,79.0581819,621713,Trichy,BHAGYAA,Independent
Bhanu hospital,"157,third cross street,Sankar Nagar,pammal,Chennai",TAMIL NADU,drramyaerode@gmail.com,"157, 3rd Cross St, Easwari Nagar, Shankar Nagar, Pammal, Chennai, Tamil Nadu 600075",12.9661574,80.1051674,600075,Chennai,BHANU,Independent
Bharani Hospital,"3300/1A1, Shanthi Nagar, Thanjavur",TAMIL NADU,bharanihospitaltnj@gmail.com,"3300, 1A1, Yagappa Nagar Main Rd, Shanthi Nagar, Parisutham Nagar, Thanjavur, Tamil Nadu 613006",10.762737,79.1369844,613006,Thanjavur,BHARANI,Independent
BHARATH HOSPITAL,"NO.72,1ST MAIN RAOD, NANGANALLUR,CHENNAI",TAMIL NADU,bhofficead@yahoo.in,"72, 1st Main Rd, Ram Nagar, Nanganallur, Chennai, Tamil Nadu 600061",12.9826445,80.1865781,600061,Chennai,BHARATH,Independent
BHARATH IVF,BHARATH SPECIALTY HOSPITAL,TAMIL NADU,bshospitalao@gmail.com,"Pari Towers, 7, 1st Main Rd, Macmillan Colony, Nanganallur, Chennai, Tamil Nadu 600061",12.9829323,80.169009,600061,Chennai,BHARATH,Independent
Bharathi Advanced Fertility and Womenâ€™s Centre,"Bharathi Hospital,115, Alagar koil Road , K Pudur , Madurai",TAMIL NADU,bharathifertility@gmail.com,"115, Alagar Kovil Main Rd, K.Pudur, Madurai, Tamil Nadu 625007",9.9452098,78.1288425,625007,Madurai,BHARATHI,Independent
BHARATI FERTILITY & WOMEN CENTER,"NO : 22-B OLD TOWNSHIP ROAD, AMBATTUR",TAMIL NADU,ushaviswanathan820@gmail.com,"First floor, 22B, Old Twp Rd, Venkatapuram, Vijayalakshmi Puram, Ambattur, Chennai, Tamil Nadu 600053",13.123373,80.1295816,600053,Chennai,BHARATI,Chained
BHARATI FERTILITY CENTER,"NO.206A,GST ROAD,URAPAKKAM,CHENNAI",TAMIL NADU,BFCURAPAKKAM2023@GMAIL.COM,"206-A, near GST Road, Bharathi Nagar, Urapakkam, Chennai, Tamil Nadu 603210",12.863639,80.0531387,603210,Chengalpattu,BHARATI,Chained
BHARATI FERTILITY CENTER,"New no-49, old no-21, venkatakrishna road, mandaiveli,chennai",TAMIL NADU,dr@bharatifertility.com,"New no: 49, Old no: 21, Venkatakrishna Rd, opp. to bank of baroda, Perumal Koil Thottam, Ramakrishna Nagar, Mandaveli, Chennai, Tamil Nadu 600028",13.0265904,80.2414014,600028,Chennai,BHARATI,Chained
Bhavya Fertility Centre,"5(1), Thennampalayam main road, Tirupur.",TAMIL NADU,poongodiselvaraj@gmail.com,"38QW+2VF, Thennampalayam, Tiruppur, Tamil Nadu 641604",11.087557,77.3445952,641604,Coimbatore,BHAVYA,Independent
Bhoga Andrology and Fertility Centre,"58/2, H Block, Vedam Ambuja Apartments, 2nd Street, Anna Nagar East, Chennai",TAMIL NADU,bhogafertility@yahoo.com,"Ground Floor, Vedam Ambujam Apartments, H 58/2, H Block, Agathiyar Nagar Extension 2nd St, Annanagar East, Chennai, Tamil Nadu 600102",13.089193,80.1983919,600102,Chennai,BHOGA,Independent
BloomLife Hospital,"No-32, Tharamani Link road, Velachery, Chennai, Tamilnadu",TAMIL NADU,admin@bloomhealthcare.in,"BloomLife Hospital 32, Taramani Link Rd, VGP Seetapathi Street, Baby Nagar, Velachery, Chennai, Tamil Nadu 600042",12.979663,80.2071064,600042,Chennai,BLOOMLIFE,Independent
BOOMANURSING HOME,"22,GOKHALE ROAD,CHINNA CHOKKIKULAM,MADURAI",TAMIL NADU,boomanursinghome@gmail.com,"22, Gokhale Rd, Chinna Chokikulam, Madurai, Tamil Nadu 625002",9.9357056,78.1318653,625002,Madurai,BOOMANURSING,Independent
C.M.HOSPITAL,"1 , 47th street, NANGANALLUR",TAMIL NADU,drkrithikamanimaran@gmail.com,"Opposite to Nehru Government School 1, 47th Street, 5th Main Rd, Nanganallur, Chennai, Tamil Nadu 600061",13.0138436,80.171698,600061,Chennai,CMHOSPITAL,Independent
CARE CENTRE  LAKSHMI HOSPITAL,40 BASHYAM STREET MANJAKUPPAM CUDDALORE,TAMIL NADU,ARUNDKIRUBA@GMAIL.COM,"40, Bashyam St, North Venugopalapuram, Allpettai, Manjakuppam, Cuddalore, Tamil Nadu 607001",11.761291,79.7421628,607001,Cuddalore,CARE,Independent
Caroline John Fertility,Caroline John Hospital,TAMIL NADU,joekaushik007@gmail.com,"Asaripallam Road, Nesamony Nagar, Nagercoil, Tamil Nadu 629001",8.1763931,77.3888029,629001,Kanyakumari,CAROLINE,Independent
Cayal fertility and women's centre,"No.3/148, First floor, Solai apartment, Mount Poonamalle Road, Manapakkam - Porur, Chennai - 600 125",TAMIL NADU,Cayalfertility@gmail.com,"173, 1st Floor, Mount Poonamallee Rd, Ramapuram, Adithi Colony, Porur, Chennai, Tamil Nadu 600116",13.0289633,80.1495638,600116,Chennai,CAYAL,Independent
"Centre for Reproductive Medicine  & Fertility Department , M/s. PSG Hospitals","Post Box No.1674, Off Avanashi Road, Peelamedu.",TAMIL NADU,crmivfclinic@psgimsr.ac.in,"Avinashi Rd, Peelamedu, Coimbatore, Tamil Nadu 641004",11.0186258,76.9862153,641004,Coimbatore,CENTRE,Independent
chandra fertility research center,"chandra nursing home,48/104,fort main road,namakkal",TAMIL NADU,chandraivf@gmail.com,"48, Kottai Rd, Thillaipuram, Namakkal, Tamil Nadu 637001",11.2242044,78.1440163,637001,Namakkal,CHANDRA,Independent
Chella fertility centre,"3, sambasivam pillai  street , Ariyalur",TAMIL NADU,spkrpk@gmail.com,"3, Sambasivam Pillai St, Ethraj Nagar, Ariyalur, Tamil Nadu 621704",11.137836,79.052782,621704,Trichy,CHELLA,Independent
CHENNAI FERTILITY CENTER AND RESEARCH INSTITUTE,"79/129, NELSON MANICKAM ROAD, AMINJIKARAI, CHENNAI, TAMIL NADU",TAMIL NADU,thomasivf@gmail.com,"No: 79/129, Nelson Manickam Rd, Rajaram Mehta Nagar, Aminjikarai, Chennai, Tamil Nadu 600030",13.0691786,80.2051351,600030,Chennai,CHENNAI,Independent
Cherish Hospital,"12 Cholambedu Road, Thirumullaivoyal Chennai-600062",TAMIL NADU,cherishhospital@gmail.com,"12, Cholambedu Rd, near Golden Super Market, Venugopal Nagar, Thirumullaivoyal, Chennai, Tamil Nadu 600062",13.1299156,80.1108727,600062,Chennai,CHERISH,Independent
cherub fertility clinic,c4 saraswathynagar first street rajakilpakkam chennai,TAMIL NADU,josephsonraj@gmail.com,"C4, VGP Saraswathy Nagar , First Street, Rajakilpakkam , Tambaram East, Chennai, Tamil Nadu 600073",12.9154493,80.1366228,600073,Chennai,CHERUB,Independent
CIMAR  COIMBATORE -MANU HOSPITAL,"NO-1,PAARI NAGAR,SUNGAM BYPASS ROAD,COIMBATORE",TAMIL NADU,manunabh@gmail.com,"XXVM+G7P, Paari Nagar, Sungam Bye-pass Road,, Coimbatore, Tamil Nadu 641045",10.9938754,76.9625954,641045,Coimbatore,CIMAR,Independent
CK FERTILITY CENTRE,"41, BALASUBBARAYALU STREET",TAMIL NADU,fertility@ckmh.in,"41, Balasubbarayalu St, Surampattivalasu, Erode, Tamil Nadu 638001",11.3349835,77.6989029,638001,Erode,CK,Independent
CS MULTISPECIALITY HOSPITAL AND AMALA FERTILITY CENTRE,"111, MAHATHMA GANDHI ROAD, SOODAMANIPURAM, KARAIKUDI",TAMIL NADU,csmultispecialityhospital7@gmail.com,"Mahathma Gandhi Road, Soodamanipuram, Ananda Nagar, Karaikudi, Tamil Nadu 630003",10.0708598,78.7640284,630003,Sivaganga,CS,Independent
Daara Testtube Baby Centre,"4/77,Chokkar Street, Theni, Tamilnadu.",TAMIL NADU,rajagopalandamodaran@yahoo.in,"76 Chokkar street, Madurai Main Rd, Theni, Tamil Nadu 625531",10.0097402,77.4586114,625531,Madurai,DAARA,Independent
Deepa Hospital,"No 6, Thiruverkadu Main Road,Ayapakkam",TAMIL NADU,drsashi@deepahospital.in,"6, Tiruverkadu Rd, Dharma Nagar, Ayappakkam, Chennai, Tamil Nadu 600077",13.0978821,80.1182569,600077,Chennai,DEEPA,Independent
DEEPAM TEST TUBE BABY CENTRE,"2/1 GANAPATHY NAGAR, CUDDALORE MAIN ROAD, VAZHAPADY(PO) (TK) SALEM(DT)",TAMIL NADU,deepamhosvpy@gmail.com,"MC44+WQG, 2/1 Ganapathy Nagar, Cuddalore Main Road, Attur Main Rd, Vazhapadi, Tamil Nadu 636115",11.6427803,77.9473844,636115,Salem,DEEPAM,Independent
Deepham Hospital,"No. 40, Gingee Road, Tindivanam, Villupuram District",TAMIL NADU,deephamhospital@gmail.com,"6JQX+34Q, 3, Othavadai St, Roshanai, Tindivanam, Tamil Nadu 604001",12.2378022,79.6272555,604001,Viluppuram,DEEPHAM,Independent
Department of Reproductive Medicine and Surgery,Christian Medical College,TAMIL NADU,rmu@cmcvellore.ac.in,"IDA Scudder Rd, Vellore, Tamil Nadu 632004",12.9047103,79.0212401,632004,Vellore,DEPARTMENT,Independent
DEVI HOSPITAL,FOUR ROADS ELAMBALUR PERAMBALUR DISTRICT,TAMIL NADU,dharmada2012@gmail.com,"Devi hospital four road, Tamil Nadu 621220",11.2433182,78.8728348,621220,Trichy,DEVI,Independent
DHANYA HOSPITALS,"589, TENKASI ROAD, RAJAPALAYAM.",TAMIL NADU,nivedhan2003@gmail.com,"Tenkasi Rd, near Chokkar Kovil, South Sammanthapuram, Rajapalayam, Vadakku Venganallur, Tamil Nadu 626117",9.4436121,77.5303795,626117,Virudhunagar,DHANYA,Independent
Dharan Womens Care Fertility Centre,"J4GW+242, Selva Nagar, Chinnusamy Nagar, Seelanaickenpatti, Salem, Tamil Nadu",TAMIL NADU,dwc@dharanhospital.com,"J4GW+242, Selva Nagar, Chinnusamy Nagar, Seelanaickenpatti, Salem, Tamil Nadu 636201",11.6250657,78.1246513,636201,Salem,DHARAN,Independent
Dharshan Fertility & Medical centre,"New No: 31, Old No: R-72, Maraimalai Adigal Street, MMDA Colony, Arumbakkam",TAMIL NADU,drsumathy.dharshan@gmail.com,"no R, New no 31,old, 72, Maraimalai Adigal St, MMDA Colony, Arumbakkam, Chennai, Tamil Nadu 600106",13.0682358,80.1957855,600106,Chennai,DHARSHAN,Independent
Diksha Fertility Center,"294, Alagarkovil road, Melur62",TAMIL NADU,gayagok@gmail.com,"301, Alagar Kovil Rd, Melur, Tamil Nadu 625106",10.0331116,78.3346233,625106,Madurai,DIKSHA,Independent
Divine Hospital,"131,Fairlands main road , New fairlands ,Salem",TAMIL NADU,divinehospital21@gmail.com,"63, New Fairlands Main Rd, New Fairlands, Alagapuram Periyaputhur, Salem, Tamil Nadu 636016",11.6783674,78.1189345,636016,Salem,DIVINE,Independent
diya fertility centre,no 5 e2 e2 road chinnachokkikulam madurai,TAMIL NADU,diyafertilitymadurai25@gmail.com,"Kennet Hospital road, Railway colony zone 1, 70, 70 Feet Rd, Vaithiyanathapuram, Madurai, Tamil Nadu 625016",11.429351,76.5284445,625016,Madurai,DIYA,Independent
DNV POLYCLINIC,"NO.7, RAJAGOPAL GOUNDER STREET, DHARMAPURI - 636 701",TAMIL NADU,dvmanimaran@gmail.com,"7, Rajagopal Gounder St, Dharmapuri, Tamil Nadu 636701",12.1240604,78.1471236,636701,Salem,DNV,Independent
Dr Aravind ivf,"no 30, 37 Guru Thoppu 4th street, phase 1 Sathuvachari, Vellore, Tamil nadu",TAMIL NADU,ivfvellore@outlook.com,"No. 30, 37, Guru Thoppu, 4th Street, Phase 1, Sathuvachari, Vellore, Tamil Nadu 632009",12.9371269,79.1419611,632009,Vellore,ARAVIND,Chained
DR ARAVINDS ISWARYA IVF,"Avinashi Main Rd, Anupparpalayam Pudur, Tiruppur, Tamil Nadu 641652",TAMIL NADU,TIRUPPUR@ISWARYAFERTILITY.IN,"Avinashi Main Rd, Anupparpalayam Pudur, Tiruppur, A.Thirumuruganpoondi, Tamil Nadu 641652",11.1431857,77.3151985,641652,Coimbatore,ARAVIND,Chained
DR ARAVINDS ISWARYA IVF,"189, Sathy Rd, Gopalakrishnapuram, Ganapathy, Coimbatore, Tamil Nadu",TAMIL NADU,CBR@ISWARYAFERTILITY.IN,"189, Sathy Rd, Gopalakrishnapuram, Ganapathy, Coimbatore, Tamil Nadu 641006",11.0465567,76.9662675,641006,Coimbatore,ARAVIND,Chained
DR ARAVINDS ISWARYA IVF,"Omalur Main Rd, Indirani Nagar, Narasothipatti, Salem, Tamil Nadu",TAMIL NADU,SALEM@ISWARYAFERTILITY.IN,"Omalur Main Rd, Indirani Nagar, Narasothipatti, Salem, Tamil Nadu 636004",11.6798992,78.108994,636004,Salem,ARAVIND,Chained
DR ARAVINDS ISWARYA IVF,"No 059, 55 A, Perundurai Rd, Pari Nagar, Kumalan Kuttai, Erode, Tamil Nadu 638011",TAMIL NADU,ERODE@ISWARYAFERTILITY.IN,"059/55 A, Perundurai Rd, Pari Nagar, Kumalan Kuttai, Erode, Tamil Nadu 638011",11.334085,77.6842903,638011,Erode,ARAVIND,Chained
DR ARAVINDS IVF,"133, THIRUKANCHI NAMBI STREET, KANCHIPURAM",TAMIL NADU,KANCHIPURAM@DRARAVINDSIVF.COM,"No 133, Ground floor, TK Nambi St, Tamil Nadu 631501",12.8229628,79.6916786,631501,Kanchipuram,ARAVIND,Chained
DR ARAVINDS IVF,"3224, TNHB Rd, Ma. Po. Si. Nagar, Thiruvallur, Tamil Nadu",TAMIL NADU,thiruvallur@draravindsivf.com,"3224, TNHB Rd, Ma. Po. Si. Nagar, Tiruvallur, Kakkalur, Tamil Nadu 602001",13.1371127,79.8908987,602001,Tiruvallur,ARAVIND,Chained
DR ARAVINDS IVF,"FIRST FLOOR, DOOR NO: 20/C113, FORT STATION ROAD, 5TH CROSS EAST, THILLAI NAGAR, TRICHY.",TAMIL NADU,trichy@draravindsivf.com,"NO 20, C113, 5th Cross, Fort Station Rd E, West Thillai Nagar, Thillai Nagar, Tiruchirappalli, Tamil Nadu 620018",10.8241089,78.6644395,620018,Trichy,ARAVIND,Chained
DR ARAVINDS IVF,"No 4/335, KVM Arcade, Bagalur Rd, Hosur, Tamil Nadu",TAMIL NADU,HOSUR@DRARAVINDSIVF.COM,"No 4/335, KVM Arcade, Bagalur Rd, Hosur, Tamil Nadu 635109",12.7473459,77.8130465,635109,Krishnagiri,ARAVIND,Chained
DR ARAVINDS IVF,"No 135/45, Medavakkam Main Road, Ullagaram, Tamil Nadu",TAMIL NADU,MADIPAKKAM@DRARAVINDSIVF.COM,"MSP Complex, Medavakkam Main Rd, Vigneshwar Nagar, Balaji Nagar, Vanuvampet, Madipakkam, Chennai, Tamil Nadu 600091",12.9720974,80.1705157,600091,Chennai,ARAVIND,Chained
DR ARAVINDS IVF,"2/343-A, Nethaji Nagar, Mobiripatti, Harur, Tamil Nadu",TAMIL NADU,harur@draravindsivf.in,"2/343-A, Nethaji Nagar, Mobiripatti, Harur, Tamil Nadu 636903",12.065936,78.451798,636903,Salem,ARAVIND,Chained
Dr Archana IVF & Women Centre - A Unit of VHPL,"NEW NO : 44, F block , 1st street, Anna Nagar East, Chennai",TAMIL NADU,profshivanraj@gmail.com,"new no: 12, J25, Agathiyar Nagar Extension 2nd St, J Block, Annanagar East, Chennai, Tamil Nadu 600102",13.0909862,80.1984121,600102,Chennai,ARCHANA,Independent
Dr Fatimaâ€™s Fertility & Womenâ€™s Clinic,"1587, 6th Avenue, Anna Nagar",TAMIL NADU,fatima971@gmail.com,"1587, 6th Ave, P Block, Vasantham Colony, Anna Nagar, Chennai, Tamil Nadu 600040",13.0928552,80.1863371,600040,Chennai,FATIMA,Independent
Dr Gopalapillais Hospital,2A KP Road Ramavarmapuram Nagercoil,TAMIL NADU,gph.indsure@gmail.com,"K, SP Office Rd, Simon Nagar, Ramavarmapuram, Nagercoil, Tamil Nadu 629001",8.1765099,77.406858,629001,Kanyakumari,GOPALAPILLAI,Independent
DR PAVI WOMENS HEALTH AND FERTILITY CENTRE,"PLOT NO.C1-B,TNHB PHASE-8,NEW ASTC HUDCO,100 FEET ROAD,HOSUR",TAMIL NADU,pavithrasn.gowda@gmail.com,"100 feet road 100 Feet Road, Hosur - Thally Rd, behind vailankanni school, New ASTC Hudco, Hosur, Tamil Nadu 635109",12.7343536,77.7954629,635109,Krishnagiri,PAVI,Independent
DR THANGAVELU FERTILITY CENTRE,SRI ADHIPARASAKTHI HOSPITAL 66 THONDI ROAD SIVAGANGA,TAMIL NADU,tamilkaangeyam@gmail.com,"CB Colony, Sivaganga, NH-230, Madurai Thondi Road, Sivaganga, Sivaganga, 630561",9.8486466,78.4771023,630561,Sivaganga,THANGAVELU,Independent
Dr.Jeyasekharan Medical Trust - THE GIFT,"253 G, K.P. Road, Nagercoil",TAMIL NADU,jeyasekharanmedicaltrust@gmail.com,"Kottar-Parvathipuram Rd, Weavers Colony, Nagercoil, Tamil Nadu 629003",8.1849992,77.3892491,629003,Kanyakumari,DRJEYASEKHARAN,Independent
Dr.Kumarasamy Hospital,"No 22,Poosari chennimalai Street 1",TAMIL NADU,drkumarasamyhospital@gmail.com,"22, Poosari Chennimalai St, Erode, Tamil Nadu 638009",11.3345272,77.6964218,638009,Erode,DRKUMARASAMY,Independent
Dr.M .Vijayaraghavan memorial hospital,19.a.n.kandigai 4th street  palanipet Arakkonam,TAMIL NADU,mythipras@gmail.com,"A.N, 19, Kandigai 4th street, Palanipet, Arakkonam, Tamil Nadu 631002",13.0791812,79.671944,631002,Kanchipuram,DRM,Independent
Dr.Sathars Hospital,"23/A, Second Street ,Kuruvikkaran Salai, Anna nagar, Madurai",TAMIL NADU,heeraayub@gmail.com,"2nd Street, Kuruvikaran Salai, Anna Nagar, 23-A, Gandhi St, Near Anna Bus Stand, Madurai, Tamil Nadu 625020",9.9227621,78.1365529,625020,Madurai,DRSATHAR,Independent
DR.SENGALIAPPAN NURSING HOME,"580,N.S.R ROAD SAIBABACOLONY,COIMBATORE",TAMIL NADU,drsnh1950@gmail.com,"580, NSR Rd, Saibaba Colony, Coimbatore, Tamil Nadu 641011",11.0272214,76.9296784,641011,Coimbatore,DRSENGALIAPPAN,Independent
DSF CLINIC,"No.35, 1st Street, 1st Floor, Phase-1, Guru Thoppu, Sathuvachari, Vellore",TAMIL NADU,drarivanban@gmail.com,"No.35, Ist Street, Phase 1, Guru Thoppu, Sathuvachari, Vellore, Tamil Nadu 632009",12.9367008,79.1420556,632009,Vellore,DSF,Independent
Easan Polyclinic,"500 - 1/1, Mahadevapuram, Velur Road, Tiruchengode, Namakal Tamilnadu",TAMIL NADU,sudhatgd2022@gmail.com,"500-1/1, Tiruchengode - Paramathi - Velur Rd, CHB Colony, Mahadhavapuram, Tiruchengode, Tamil Nadu 637211",11.3684934,77.8683025,637211,Namakkal,EASAN,Independent
Easvara Hospital,"1B, Old Post Office Road, Tallakulam, Madurai",TAMIL NADU,easvarahospital@gmail.com,"Ground, Near, Old Post Office Road, 1-B, Perumal Koil St, Madurai, Tamil Nadu 625002",9.9328697,78.1326791,625002,Madurai,EASVARA,Independent
Easy Mom Fertility and Maternity Care,"Plot 1A, Mambakkam Main road, Medavakkkam Chennai",TAMIL NADU,hosp5656@gmail.com,"Plot 1A, Mambakkam - Medavakkam Main Rd, opp. Sekar Stores, VGP Layout, Vengavasal, Chennai, Tamil Nadu 600100",12.9053645,80.1676914,600100,Chennai,EASY,Independent
EDISON HOSPITAL,"286, KULASAI ROAD, TIRUCHENDUR",TAMIL NADU,edisonhospitaltcr@gmail.com,"286, Kulasai Main Rd, Thiruchendur, Tamil Nadu 628215",8.4931914,78.0964474,628215,Thoothukudi,EDISON,Independent
EMMESS IVF CENTRE,"Emmess women care centre ,33-c , Hospital road, Kanchipuram-631502",TAMIL NADU,emmesshelp@gmail.com,"Hospital Rd, Nellukara st, Kanchipuram, Tamil Nadu 631502",12.8349282,79.6906071,631502,Kanchipuram,EMMES,Independent
ESI HOSPITAL AYANAVARAM,"No.37, Medavakkam Tank Road, Ayanavaram, Chennai â€“ 23",TAMIL NADU,superintendentesi@gmail.com,"53, Medavakkam Tank Rd, Thiruvalluvar Nagar, Dr Ambedkar Nagar, Sanyasipuram, Ayanavaram, Chennai, Tamil Nadu 600023",13.0948889,80.2187189,600023,Chennai,ESI,Independent
EVA IVF and WOMENS CARE,"no 65,Indira Nagar , 3rd Avenue ,Adyar , Chennai",TAMIL NADU,farazfn11@gmail.com,"65, 3rd Ave, Indira Nagar, Adyar, Chennai, Tamil Nadu 600020",12.9928618,80.2321584,600020,Chennai,EVA,Independent
Excella Gynecare,"28,Marvel Parambariyam, Kalapatti road, Sarvanampatty",TAMIL NADU,excellagynecare@gmail.com,"28, Kalapatti Main Rd, Marvel Parambariyam, Saravanampatti, Coimbatore, Tamil Nadu 641035",11.0751314,76.9864245,641035,Coimbatore,EXCELLA,Independent
Ezhil fertilityy centre,"Gopinathampatti kootroad,Parayapatty post,Pappireddypatti( Tk),Dharmapuri (DT))",TAMIL NADU,ezhilhospital14@gmail.com,"Gopinathampatti Koot Road, Pappireddipatti, Thaluka, Gobinathampatti, Tamil Nadu 636903",11.9966795,78.4408191,636903,Salem,EZHIL,Independent
Femelife Fertility Foundation Pvt Ltd,"Plot no 2/5, 41st street, 6th Avenue, Ashok Nagar",TAMIL NADU,fertility@femelife.com,"Plot No. 2/5, 41st Street, 6th Ave, Sarvamangala Colony, Ashok Nagar, Chennai, Tamil Nadu 600083",13.040137,80.1930108,600083,Chennai,FEMELIFE,Independent
FERTILITY AND RESEARCH CENTRE ( A UNIT OF KRISHNA HOSPITAL),"KRISHNA HOSPITAL NO : 377, MAIN ROAD, SATTUR, VIRUDHUNAGAR (DT)",TAMIL NADU,akhpltd1@gmail.com,"377, Main Rd, Sattur, Tamil Nadu 626203",9.354765,77.898597,626203,Virudhunagar,FERTILITY,Independent
FIMS FERTILITY & IVF,"NO 193/145, POLLACHI MAIN ROAD, SUNDARAPURAM,",TAMIL NADU,info@fimshospitals.com,"193 145, Pollachi Main Rd, Sundarapuram, Coimbatore, Kurichi, Tamil Nadu 641024",10.9578644,76.9517144,193145,Coimbatore,FIM,Independent
FIRM HOSPITALS,"NO.65, R BLOCK, 12TH STREET, ANNA NAGAR, CHENNAI",TAMIL NADU,drmalaraj@gmail.com,"No.65, R-Block, 12th Street, Block R, Anna Nagar, Chennai, Tamil Nadu 600040",13.091598,80.1933664,600040,Chennai,FIRM,Independent
G G HOSPITAL,"6E, NUNGAMBAKKAM HIGH ROAD, 1A DR.THIRUMURTHY NAGAR, NUNGAMBAKKAM",TAMIL NADU,drkamala@gghospital.in,"1A, Dr, 6-E, Nungambakkam High Rd, Thirumurthy Nagar, Tirumurthy Nagar, Nungambakkam, Chennai, Tamil Nadu 600034",13.0555339,80.2271424,600034,Chennai,G,Independent
GANESAMONI HOSPITAL,"NO6. Saraloor, Hindu College Road, Nagercoil",TAMIL NADU,dr.soundaryaraguram@gmail.com,"Ganesamoni Hospital, Hindu College Road, Nagercoil, Tamil Nadu 629002",8.1707786,77.4116052,629002,Kanyakumari,GANESAMONI,Independent
Garbba Rakshambigai Fertility Centre,"4,6th cross street, United India Colony, Kodambakkam",TAMIL NADU,gfcchennai2019@gmail.com,"4, 6th Cross St, United India Colony, Kodambakkam, Chennai, Tamil Nadu 600024",13.0528259,80.2036647,600024,Chennai,GARBBA,Independent
GBR FERTILITY CENTRE AND HOSPITALS,"VKS TOWERS, No.99/1, CHAIRMAN DURAISAMY ROAD, KRISHNAGIRI ROAD, TIRUPATTUR",TAMIL NADU,gbrtpt@gmail.com,"VKS Towers.99/1, Chairman Duraisamy Road, Krishnagiri Road, Tirupathur, Tamil Nadu 635601",12.4972565,78.5551192,635601,Krishnagiri,GBR,Independent
"GBR FERTILITY CENTRE AND HOSPITALS, MUGAPPAIR WEST, CHENNAI","HIG 1027 & 1028, 6TH MAIN ROAD, MUGAPPAIR ERI SCHEME, MUGAPPAIR WEST, CHENNAI",TAMIL NADU,lramesh@gbrclinic.com,"HIG - 1027 & 1028 , 6th Main Road, West, Mogappair Eri Scheme, Mogappair, Chennai, Tamil Nadu 600037",13.0781357,80.1629688,600037,Chennai,GBR,Independent
GEETHASREE HOSPITALS,"103 POONTHOTTAM NAGAR, SARAVANAMPATTY",TAMIL NADU,geethasreehospitals@gmail.com,"103, Sathy Rd, near Kalapatti Pirivu, behind ICICI Bank, Poonthottam Nagar, Ramanandha Nagar, Saravanampatti, Coimbatore, Tamil Nadu 641035",11.0719207,76.9818833,641035,Coimbatore,GEETHASREE,Independent
GENESIS IVF - KOVAI,"17A, COWLEY BROWN ROAD, R.S.PURAM, COIMBATORE",TAMIL NADU,genesisivfkovai01@gmail.com,"17- A, Cowley Brown Rd, R.S. Puram, Coimbatore, Tamil Nadu 641002",11.0151965,76.9318338,641002,Coimbatore,GENESI,Chained
GENESIS IVF - RR,"RR HOSPITAL,NO 121,MUTHALIAR STREET,SUNDARAPURAM,COIMBATORE",TAMIL NADU,genesisivfrr07@gmail.com,"XX5H+P8C, No.121, Mudaliar St, Sundarapuram, Loganathapuram, Podanur, Coimbatore, Tamil Nadu 641023",10.9589063,76.9573782,641023,Coimbatore,GENESI,Chained
GENESIS IVF ADVANCED FERTILITY CLINIC,"PRIYAM SPECIALITY HOSPITALS, 247, BANGALORE BYPASS ROAD, KONDALAMPATTY, SALEM",TAMIL NADU,Priyamgenesis01@gmail.com,"No.247, Bypass Rd, AH43, Kondalampatti, Bengaluru, Salem, Tamil Nadu 636010",11.6347092,78.1035089,636010,Salem,GENESI,Chained
GENESIS IVF Advanced Fertility Clinic,"564,Perundurai Road, Erode-11",TAMIL NADU,dr.sadasivam@gmail.com,"Maaruthi Medical Centre and Hospital, 564, Perundurai Rd, Edayankattuvalasu, Erode, Tamil Nadu 638011",11.338189,77.6924785,638011,Erode,GENESI,Chained
GENESIS IVF ADVANCED FERTILITY CLINIC AND MAARUTHI MEDICAL CENTRE AND HOSPITALS,"NO 1152/30, EVR PERIYAR SALAI , KOYAMBEDU, CHENNAI",TAMIL NADU,dr.karthiksadasivam@gmail.com,"1153/30, Poonamallee High Rd, Virrugambakkam, Koyambedu, Chennai, Tamil Nadu 600107",13.0754609,80.1766956,600107,Chennai,GENESI,Chained
Genesis Royal Infirmary Pvt Ltd,"No 59-62,Puliyakulam Main Road",TAMIL NADU,genesiswcc@gmail.com,"59, Puliakulam Rd, Dhamu Nagar, Puliakulam, Coimbatore, Tamil Nadu 641045",11.0069551,76.9711076,641045,Coimbatore,GENESI,Chained
GHEETH IVF,"GHEETH HOSPITAL, ANNEXRE BUILDING, KOZHIVILAI JUNCTION, KALIYAKKAVILAI",TAMIL NADU,gheethivf@gmail.com,"4/80/A Kozhivilai Junction, P.O, Kaliyakkavilai, Tamil Nadu 629153",8.3315762,77.1483181,629153,Kanyakumari,GHEETH,Independent
Gleneagles Global Health City,"439, Cheran Nagar, Perumbakkam, Chennai 100",TAMIL NADU,ceo.chennai@globalhospitalsindia.com,"439, Cheran Nagar, Sholinganallur, Perumbakkam, Chennai, Tamil Nadu 600100",12.8979986,80.1854618,600100,Chennai,GLENEAGLE,Independent
GOLDEN BUTTERFLY FERTILITY AND WOMEN'S CLINIC,"Plot no- 47, Hemanth properties, Flat C1(first floor), Mount Poonamallee Road, Kattupakkam",TAMIL NADU,goldenbutterflyclinic57@gmail.com,"flat-C1, Hemanth properties, Plot-47, Mount Poonamallee Rd, Kattupakkam, Chennai, Tamil Nadu 600056",13.043502,80.1017467,600056,Chennai,GOLDEN,Independent
Gomathi Speciality Hospital,"52 ,South Street ,Aruppukottai",TAMIL NADU,gsh.apk@gmail.com,"52, South St, Aruppukkottai, Tamil Nadu 626101",9.5073489,78.0720795,626101,Virudhunagar,GOMATHI,Independent
GOODLIFE CLINICS,"7/4 NKPM Layout, Kamarajar Road , Red Fields, Coimbatore, Tamil Nadu",TAMIL NADU,saradhajaganathan@gmail.com,"7/4, NKPM, Kamaraj Rd, Red Fields, NKKPM Layout, Gopalapuram, Coimbatore, Tamil Nadu 641018",11.0029766,76.9640935,641018,Coimbatore,GOODLIFE,Independent
Guhan Hospital and Infertility Centre,"41/168,Mahadhana street,Mayiladuthurai",TAMIL NADU,svguhan.hos@gmail.com,"41, 168, Mahadhana St, near V.R.S marriage hall, Kamarajar Salai, Mayiladuthurai, Tamil Nadu 609001",11.0988527,79.6335971,609001,Mayiladuthurai,GUHAN,Independent
Gunam super speciality hospital,"No.35,denkanikota road, opp.government hospital,hosur",TAMIL NADU,administrator@gunamhospital.com,"survey No: 120, 35, Tank street, 2B2, Denkanikottai Rd, opp. to Government Hospital, Hosur, Tamil Nadu 635109",12.7247338,77.7958147,635109,Krishnagiri,GUNAM,Independent
Gunasekaran Specialities Hospital,"#28/6,Mylai Ranganathan Street, T.Nagar, Chennai",TAMIL NADU,drmanulakshmi@gmail.com,"No. 1, Crescent Park St, T. Nagar, Chennai, Tamil Nadu 600017",13.0376451,80.2183198,600017,Chennai,GUNASEKARAN,Independent
GURU HOSPITAL,4/120F PANDI KOVIL RING ROAD,TAMIL NADU,info@guruhospitals.com,"120-F, 4, Pandi Kovil Ring Rd, near Mattuthavani, Madurai, Tamil Nadu 625107",9.9435922,78.1623458,625107,Madurai,GURU,Independent
Gurunath Hospital,"67, west colony, kumarapalayam",TAMIL NADU,gowridhans@gmail.com,"Vijaya Thottam, Komarapalayam, Tamil Nadu 638183",11.4389345,77.6755107,638183,Erode,GURUNATH,Independent
Hare Diagnostic Centre and fertility lab,1/41 Thiruvalluvar Nagar main road Keelkattalai chennai,TAMIL NADU,harekrishna.raj@gmail.com,"1/41, Thiruvalluvar Nagar Main Rd, Arulmurugan Nagar Extention, Thiruvalluvar Nagar, Keelkattalai, Chennai, Tamil Nadu 600117",12.957129,80.1661414,600117,Chennai,HARE,Independent
hari fertility centre,"4/A,Salai Street, vannarpettai,",TAMIL NADU,harifertilitycentre@gmail.com,"PPH9+XRH, Puthumaipithan Veethi, Kailash Nagar, Vannarpettai, Tirunelveli, Tamil Nadu 627003",8.7299745,77.6989954,627003,Tirunelveli,HARI,Independent
HARLEY RRAM HOSPITAL,"43A, KRISHNA RAO TANK STREET MADURAI",TAMIL NADU,harleyram.nh.tn@gmail.com,"43 A, Krishnarayar Tank Rd, near GEORGE OAKES TRACTOR FACTORY, Madurai Main, Madurai, Poondhotam, Tamil Nadu 625001",9.9255615,78.1120539,625001,Madurai,HARLEY,Independent
Hema medical centre,490 KKnagar Madurai,TAMIL NADU,dr.hemaanand5@gmail.com,"PLOT-490, 4th Cross St, opposite District Court, Mellur, Madurai, Tamil Nadu 625020",9.933887,78.1389912,625020,Madurai,HEMA,Independent
Her care clinics,"no 4/442-d2 , nggo colony ,bagalur road ,Hosur",TAMIL NADU,hercarecbe@gmail.com,"4/442-D2, Bagalur Rd, NGGO's Colony, Hosur, Avalapalli Hudco, Tamil Nadu 635109",12.7335279,77.8092055,635109,Krishnagiri,HER,Independent
HERA REPRO CENTRE,"HERA HOSPITAL, NO 1 SORNAMBIGAI NAGAR MAIN ROAD, VIRUGAMBAKKAM, CHENNAI",TAMIL NADU,hera.hospital123@gmail.com,"Paavendar Salai, Phase 1, Swarnambigai Nagar, Virugambakkam, Chennai, Tamil Nadu 600092",13.0509848,80.1716511,600092,Chennai,HERA,Independent
INDIAN IVF Fertility centre,"M.MALAR HOSPITAL, 5590, 6th Street,santhanathapuram,",TAMIL NADU,albertlincy444@gmail.com,"5590, S 4th St, Kadukkakadu, Pudukkottai, Tamil Nadu 622001",10.3801167,78.7986641,622001,Pudukkottai,INDIAN,Independent
INDIGO WOMENS CENTER,"NO:995B,H BLOCK,2ND AVENUE ,ANNA NAGAR WEST",TAMIL NADU,iwchari7@gmail.com,"No. 995, B - H, 2nd Ave, Anna Nagar, Ranganathan Garden, Anna Nagar, Chennai, Tamil Nadu 600040",13.0854649,80.1848793,600040,Chennai,INDIGO,Independent
INDIRA IVF HOSPITAL PRIVATE LIMITED,"17, Moores road, Commercial Tax Office (Rear Gate), Thousand Light East, Nungambakkam, Chennai",TAMIL NADU,centerhead.chennai@indiraivf.in,"Office, Indira IVF Hospital Ltd, Moores Rd, opposite COMMERCIAL TAXES, Thousand Lights East, Nungambakkam, Chennai, Tamil Nadu 600006",13.0658307,80.2337699,600006,Chennai,INDIRA,Independent
"INSTITUTE OF REPRODUCTIVE MEDICINE, DR. REL INSTITUTE &MEDICAL CENTRE.","NO 7, CLC WORKS ROARD, CHROMEPET,CHENNAI",TAMIL NADU,irm@relainstitute.com,"DR. RELA INSTITUTE & MEDICAL CENTER, 7, CLC Works Rd, Nagappa Nagar, Chromepet, Chennai, Tamil Nadu 600044",12.9548991,80.132234,600044,Chennai,INSTITUTE,Independent
ISA fertility and Womens Clinic,"5A, KKR Nagar, Madhavaram, Chennai, Tamil Nadu",TAMIL NADU,isafertility@gmail.com,"5A, KKR Nagar, Madhavaram, Chennai, Tamil Nadu 600060",13.1346663,80.218067,600060,Chennai,ISA,Independent
ISHA FERTILITY CENTRE,"1/A, DHARKAN SAHIB STREET, SORKALPET, CUDDALORE",TAMIL NADU,newlifehospital7@gmail.com,"PQ59+XX8, Muthu Subethar St, Manjakuppam, Cuddalore Old Town, Tamil Nadu 607003",11.7099221,79.7673701,607003,Cuddalore,ISHA,Independent
ISWARYA FERTILITY CENTRE,"24, mannar serfoji nagar, near New bus stand, tanjore,Tamil Nadu 613005",TAMIL NADU,iswaryatanjore@gmail.com,"24, mannar serfoji nagar, near New Bus Stand Road, Lakshmi Nagar, New Housing Unit, Thanjavur, Tamil Nadu 613005",10.7484885,79.1104266,613005,Thanjavur,ISWARYA,Chained
ISWARYA FERTILITY CENTRE,"119, New Avadi Rd, Alagappa Nagar, Kilpauk, Chennai, Tamil Nadu 600010",TAMIL NADU,iswaryakilpauk@gmail.com,"119, New Avadi Rd, Alagappa Nagar, Kilpauk, Chennai, Tamil Nadu 600010",13.0771934,80.213233,600010,Chennai,ISWARYA,Chained
ISWARYA FERTILITY CENTRE,"16/01, Thiruvalluvar Salai, Spencer Compound, Dindigul, Tamil Nadu 624001",TAMIL NADU,dindigul@iswarya.in,"16/01, Thiruvalluvar Salai, Spencer Compound, Dindigul, Tamil Nadu 624003",10.3616616,77.9581919,624003,Dindigul,ISWARYA,Chained
ISWARYA FERTILITY CENTRE,"9/1, Karur Bypass Rd, Annamalai Nagar, Tiruchirappalli, Tamil Nadu 620003",TAMIL NADU,iswaryatrichy@gmail.com,"9/1, Karur Bypass Rd, Annamalai Nagar, Tiruchirappalli, Tamil Nadu 620018",10.8316773,78.664734,620018,Trichy,ISWARYA,Chained
ISWARYA FERTILITY SERVICES PRIVATE LIMITED,"238, Avaram Palayam Rd, opp. Womens Polytechnic Gandhipuram, New Siddhapudur, coimbatoreTamil Nadu 641044",TAMIL NADU,cbeivf999@gmail.com,"238, Avaram Palayam Road, New Siddhapudur, opp. Womens Polytechnic, Gandhipuram, Tamil Nadu 641044",11.017436,76.9566822,641044,Coimbatore,ISWARYA,Chained
ISWARYA FERTILITY SERVICES PRIVATE LIMITED,"72-B, Dindigul Rd, Laxmipuram, Palani, Tamil Nadu 624601",TAMIL NADU,iswaryaivfpalani63@gmail.com,"72-B, Dindigul Rd, Laxmipuram, Palani, Tamil Nadu 624601",10.4486137,77.5040322,624601,Dindigul,ISWARYA,Chained
ISWARYA FERTILITY SERVICES PRIVATE LIMITED,"BHARAT SANCHAR NIGAM LIMITED, 3/57-A ,MEYYANUR MAIN ROAD,SALEM - 636004",TAMIL NADU,iswaryaivfsalem63@gmail.com,"3/57-A, Telephone Bhavan Building, Meyyanur Main Rd, Salem, Tamil Nadu 636004",11.6733314,78.1127068,636004,Salem,ISWARYA,Chained
ISWARYA FERTILITY SERVICES PRIVATE LIMITED,"34,1st floor, old Mahabalipuram road, Egattur, Navalur, Chennai, Tamil Nadu 600130",TAMIL NADU,iswarya.navalur@gmail.com,"Plot no. 41/42, Sathyadev Ave, MRC Nagar, Raja Annamalaipuram, Chennai, Tamil Nadu 600028",13.017697,80.2535245,600028,Chennai,ISWARYA,Chained
ISWARYA FERTILITY SERVICES PRIVATE LIMITED,"LION Grandeur, 489, Trivandrum Road, Opposite New Bus Stand, Tirunelveli, Tamil Nadu â€“ 627007.",TAMIL NADU,iswaryaivfnellai@gmail.com,"489,Lion Grandeur, opp. to new bus stand, Vasanth Nagar, Tirunelveli, Tamil Nadu 627007",8.7040716,77.7094629,627007,Tirunelveli,ISWARYA,Chained
ISWARYA FERTILITY SERVICES PRIVATE LIMITED,"173, Velachery Rd, Camp Road Junction, Ezhil Nagar, Selaiyur, Chennai, Tamil Nadu 600073",TAMIL NADU,tambaramiswarya2018@gmail.com,"173, Velachery Rd, Camp Road Junction, Ezhil Nagar, Selaiyur, Chennai, Tamil Nadu 600073",12.9220969,80.1236126,600073,Chennai,ISWARYA,Chained
ISWARYA FERTILITY SERVICES PRIVATE LIMITED,"79, Arcot Rd, Phase 2, Sathuvachari, Vellore, Tamil Nadu 632009",TAMIL NADU,velloreivf@gmail.com,"79, Arcot Rd, Phase 2, Sathuvachari, Vellore, Tamil Nadu 632009",12.9355461,79.1356163,632009,Vellore,ISWARYA,Chained
ISWARYA FERTILITY SERVICES PRIVATE LIMITED,"77, 233/77 233, 1, Madras Thiruvallur High Rd, Venkatapuram, Ram Nagar, Ambattur, Chennai, Tamil Nadu 600053",TAMIL NADU,ambatturiswarya2022@gmail.com,"77, 233/77 233, 1, Madras Thiruvallur High Rd, Venkatapuram, Ram Nagar, Ambattur, Chennai, Tamil Nadu 600053",13.1218762,80.1276401,600053,Chennai,ISWARYA,Chained
ISWARYA HEALTH PRIVATE LIMITED,"2nd floor, TS square, Nethaji Bypass, opp Govt Dharmapuri medical college & hospital , Dharmapuri, Tamil Nadu 636701",TAMIL NADU,dharmapuri19iswarya.in@gmail.com,"2nd floor, TS square, Nethaji Bypass, near Sri Vaari Scans & Medhealth Diagnostics, Indhira Nagar, Dharmapuri, Tamil Nadu 636701",12.1239048,78.1379935,636701,Salem,ISWARYA,Chained
ISWARYA HEALTH PRIVATE LIMITED,"No -845,846 ,CUMBUM ROAD,THENI-625531",TAMIL NADU,theni@iswarya.in,"845, Old bus stand, No-845A, 846, Cumbum Rd, Theni, Tamil Nadu 625531",10.0098636,77.4562023,625531,Madurai,ISWARYA,Chained
ISWARYA HEALTH PRIVATE LIMITED,"No: 46, Inner Ring Road junction,Retteri,Kolathur, Chennai, Tamil Nadu 600099",TAMIL NADU,kolathur@iswarya.in,"No: 46, Madhavaram Village, Inner Ring Road, Taluk, Madhavaram, Chennai, Tamil Nadu 600099",13.1320325,80.1937303,600099,Chennai,ISWARYA,Chained
ISWARYA HEALTH PRIVATE LIMITED,"NO. 2 Ground Floor, Ramnagar, 1st Main Road, Peravallur, Chennai â€“ 600082.",TAMIL NADU,perambur@iswarya.in,"2, Ram Nagar 1st Main Rd, Chelliamman Colony, Peravallur, Perambur, Chennai, Tamil Nadu 600082",13.1182958,80.2068006,600082,Chennai,ISWARYA,Chained
ISWARYA HOSPITAL ( a unit of ISWARYA HEALTH PRIVATE LIMITED ),"110 A ,Rajiv gandhi salai,OMR,kottivakkam,chennai",TAMIL NADU,omrhr@iswarya.in,"110, Rajiv Gandhi Salai, OMR, Tharamani, Chennai, Tamil Nadu 600041",12.9793448,80.2322545,600041,Chennai,ISWARYA,Chained
"IVF Access, Coimbatore a unit of PN IVF Access Private Limited","609, 2nd Floor, Avinashi Rd, above Pazhamudir Plus, Peelamedu, Coimbatore, Tamil Nadu",TAMIL NADU,cmb.art@ivfaccess.com,"Fortune Building, 1056/2, Avinashi Rd, Anna Salai, Coimbatore, Tamil Nadu 641018",11.007915,76.9672323,641018,Coimbatore,IVF,Independent
"IVF CENTRE , MANJARIE HOSPITAL","MANJARIE HOSPITAL , R270 D, GST ROAD, THIRUNAGAR 2ND STOP, MADURAI.",TAMIL NADU,manjariehospital@gmail.com,"Second Stop, R270D, GST Main Rd, Thiru Nagar, Tamil Nadu 625006",9.8811419,77.9810878,625006,Madurai,IVF,Independent
J.K Medical Centre,"14/45, L.G.G.S colony , Near Bus stand , Kangayam",TAMIL NADU,doctorarul@gmail.com,"Kangeyam, Tamil Nadu 638701",11.0042576,77.5574946,638701,Erode,JK,Independent
J.P.FERTILITY AND WOMEN'S CARE,"SAKTHI POLY CLINIC CAMPUS,NO.93,NEW SCHEME ROAD,POLLACHI",TAMIL NADU,kaladevi111987@gmail.com,"Sakthi Hospital Campus, 93-B, New Scheme Rd, Pollachi, Tamil Nadu 642001",10.6630168,76.9900833,642001,Coimbatore,JPFERTILITY,Independent
JANANAM FERTILITY CENTER,"22/10, KAZURA GARDEN 1st STREET, NEELANKARAI",TAMIL NADU,info@jananamfertility.com,"22/10, Jananam Fertility Centre, 11, 1st St, Kazura Garden, Neelankarai, Chennai, Tamil Nadu 600115",12.9569787,80.2306093,600115,Chennai,JANANAM,Independent
JANANAM FERTILITY CLINIC,"ADHITHYA COMPLEX, FIRST FLOOR, OLD MAHALINGAPURAM ROAD, KANNAGAPATTU,THIRIPORUR",TAMIL NADU,OPERATIONS@JANANAMFERTILITY.COM,"1st Floor, Adhithyaa Complex, Old Mamallapuram Rd, Kannagapattu, Thiruporur, Tamil Nadu 603110",12.7330882,80.1686867,603110,Chengalpattu,JANANAM,Independent
Janani ART clinic,"Ponnusamy hospital,7f/3,sundhara vinayagar kovil street ,kallakurichi, tamilnadu",TAMIL NADU,123janu@gmail.com,"7f/3, sundhara vinayagar kovil street, Raja Nagar, Kallakurichi, Tamil Nadu 606202",11.7381219,78.945231,606202,Kallakurichi,JANANI,Chained
JANANI FERTILITY CENTRE,"1ST FLOOR, EVER GOLD TOWERS, CHINNAIAH STREET, PATTUKOTTAI",TAMIL NADU,jananifertilitypattukottai@gmail.com,"1st Floor, WD-15, 46, Pillaiyar Koil St, Mainckam Colony, Pattukkottai, Tamil Nadu 614601",10.4270826,79.2956114,614601,Thanjavur,JANANI,Chained
JANANI HOSPITAL,"7,Amman street Ramapuram main road Nesapakkam Chennai",TAMIL NADU,hospitaljanani@gmail.com,"No. 7, Amman Street, Ramapuram Main Road, Nehru Nagar, Nesapakkam, Chennai, Tamil Nadu 600078",13.0313816,80.1704726,600078,Chennai,JANANI,Chained
JANANI TRICHY FERTILITY CENTRE,"C 28, 1FIRST FLOOR, 11TH CROSS, THILLAI NAGAR, TRICHY -18",TAMIL NADU,jananifertilitycentre@gmail.com,"11th Cross West Road, 11th Cross E Rd, Tiruchirappalli, Tamil Nadu 620018",10.8194375,78.6612129,620018,Trichy,JANANI,Chained
JANET FERTILITY CENTRE,"18,HARVEY NAGAR 1ST STREET,ARASARADI,MADURAI",TAMIL NADU,aneethjegaraj50@gmail.com,"EB Office 18 1st Street, 2, Harvey Nagar 1st St, behind Arasaradi, Arappalayam, Harvey Nagar, Tamil Nadu 625016",9.9293044,78.0970268,625016,Madurai,JANET,Independent
JANET FERTILITY CENTRE,"20,A,B,C RENGANATHAPURAM, PUTHUR, TRICHY",TAMIL NADU,vicjohn2011@gmail.com,"21B, Officers Colony Road, opp. Fish Market, Venganadapuram, Puthur, Tennur, Tiruchirappalli, Tamil Nadu 620017",10.810522,78.6687373,620017,Trichy,JANET,Independent
JAYADEVA FERTILITY CENTER AND WOMENS HEALTH CARE,"PLOT NO.6 & 7 ,SRIVIDHYA AVENUE,OKKIYUM THORAIPAKKAM",TAMIL NADU,drsharmila5577@gmail.com,"Plot No. 6 & 7, Sri Vidhya Ave, Okkiyum Thoraipakkam, OMR, Chennai, Tamil Nadu 600097",12.9349464,80.2123007,600097,Chennai,JAYADEVA,Independent
JAYAM NURSING HOME,"NO 53, THANDAVARAYAN STREET, OLD WASHERMENPET, CHENNAI",TAMIL NADU,jayamnursinghome.jc@gmail.com,"Sanjeevarayanpet, Tondiarpet, Chennai, Tamil Nadu 600021",13.1223044,80.2689182,600021,Chennai,JAYAM,Independent
Jayapal Nursing Home & Jegan Critical Care Centre,"63, Bagabath Agraharam, Manamadurai",TAMIL NADU,ajafertilitycentre@gmail.com,"20, R.C Street, Manamadurai Town Rd, Manamadurai, Tamil Nadu 630606",9.6921976,78.4318446,630606,Sivaganga,JAYAPAL,Independent
Jeevan Mithra fertility and women care centre,"10/33, Jai Nagar, 13th street, 1st Main Road, Arumbakkam, Chennai",TAMIL NADU,jeevanmithraivf@gmail.com,"10, 1st Main Rd, opp. to Koyambedu Bustand, Jai Nagar, Arumbakkam, Chennai, Tamil Nadu 600106",13.0714581,80.1873804,600106,Chennai,JEEVAN,Independent
JEEVAN WOMEN CARE CLINIC,"122,KAMARAJAR SALAI, ALWARTHIRUNAGAR",TAMIL NADU,jeevanwomencareclinic@gmail.com,"122, Kamarajar Salai, Alwartirunagar, Valasaravakkam, Chennai, Tamil Nadu 600087",13.047672,80.1632154,600087,Chennai,JEEVAN,Independent
JEYAM FERTILITY CENTRE,"no-7 Tajmahal salai karur bypass road annamalai nagar, Trichy, Tamilnadu",TAMIL NADU,nccmani@gmail.com,"83/3, Karur Bypass Rd, Annamalai Nagar, Woraiyur, Tiruchirappalli, Tamil Nadu 620018",10.8331756,78.6819463,620018,Trichy,JEYAM,Independent
jeyam hospital,4/174-2 veerapandian nagar.muthiapuram.thoothukudi,TAMIL NADU,indrajeyamhospital@gmail.com,"P4VC+6GP, திருச்செந்தூர் சாலை, Veppalodai, Thoothukudi, Tamil Nadu 628005",8.7431379,78.1007144,628005,Thoothukudi,JEYAM,Independent
JM Hospital,"4A 2, A5, Main road, Thittagudi",TAMIL NADU,crm.karthikeyan@gmail.com,"SH 141, Tittakudi, Tamil Nadu 606106",11.4018113,79.11983,606106,Tiruvannamalai,JM,Independent
JOSEPH HOSPITALS,NEW NO. 23 ( OLD NO. 10A) DR GURUSWAMY ROAD CHETPET,TAMIL NADU,josephnursinghome@gmail.com,"10A, Dr Gurusamy Rd, Chetpet, Chennai, Tamil Nadu 600031",13.0740128,80.2150894,600031,Chennai,JOSEPH,Independent
Joseph Speciality Hospital and Fertility Center,"40, Perumalpatti 2nd East Street, Madurai Road, Srivilliputtur",TAMIL NADU,mgraceivf@gmail.com,"Ramakrishnapuram, Mangapuram, Srivilliputhur, Tamil Nadu 626125",9.5179897,77.6110839,626125,Virudhunagar,JOSEPH,Independent
K G M HOSPITAL PVT LTD,"1/1, AVINASHI ROAD",TAMIL NADU,kgmhospital@gmail.com,"1, 1, Avinashi Rd, Chinniyampalayam, Coimbatore, Tamil Nadu 641048",11.0570166,77.0466848,641048,Coimbatore,K,Chained
K G Nursing Home,"K G Nursing Home, 47-Mettur Road ,Erode-638011",TAMIL NADU,kgerode@gmail.com,"Abirami Theater, Bus Stand, 47, Mettur Rd, opposite to Shri Sakthi Cinemas, near Erode Main Road, Road, Erode Fort, Erode, Tamil Nadu 638011",11.3456306,77.6982215,638011,Erode,K,Chained
K R NURSING HOME,"28, NADIMUTHU NAGAR, PATTUKKOTTAI",TAMIL NADU,krnh2001@gmail.com,"Park Rd, Nadimuthu Nagar, Pattukkottai, Tamil Nadu 614602",10.4202881,79.2995834,614602,Thanjavur,K,Chained
K.J,"20,manaveli street,kuttalam",TAMIL NADU,drrashirashy@gmail.com,"3HF5+23X, Kuthalam, Tamil Nadu 609801",11.0726903,79.5371348,609801,Mayiladuthurai,KJ,Independent
K.M.HOSPITALS,"114/14/1 PALAGHAT ROAD, POLLACHI",TAMIL NADU,dr.kala87@yahoo.in,"M273+392, Palaghat Rd, Palaghat, Pollachi, Tamil Nadu 642001",10.662686,76.9827824,642001,Coimbatore,KMHOSPITAL,Independent
K.M.IVF Centre,"64, Medavakkam Tank Road, Kipauk, Chennai 600010",TAMIL NADU,kmivfcentrekilpauk@gmail.com,"64, Medavakkam Tank Rd, Secretariat Colony, Kilpauk, Chennai, Tamil Nadu 600012",13.088569,80.2215304,600012,Chennai,KMIVF,Independent
KANAA CENTER FOR ASSISTED REPRODUCTION (A UNIT OF K.M.SPECIALITY HOSPITAL),"No.67(40) Dr.Radhakrishnan Salai, Mylaproe Chennai",TAMIL NADU,kanaakm2018@gmail.com,"40, Dr Radha Krishnan Salai, Jagadambal Colony, Sullivan Garden, Mylapore, Chennai, Tamil Nadu 600004",13.0444752,80.245507,600004,Chennai,KANAA,Independent
KANAA CENTRE FOR ASSISTED REPRODUCTION (A unit of K.M.SPECIALITY HOSPITAL),No.453 & 454 R.K SHANMUGAM SALAI KK NAGAR,TAMIL NADU,karna.serviceprovider@gmail.com,"No. 453, 454, RK Shanmugam Salai, Sector 6, K. K. Nagar, Chennai, Tamil Nadu 600078",13.0380313,80.1807187,600078,Chennai,KANAA,Independent
KANGAROO FERTILITY CENTRE-PADMA HOSPITAL,"6/115,PADMA HOSPITAL,MAIN ROAD,KOVILPATTI",TAMIL NADU,kfckovilpatti@gmail.com,"1st floor, Padma Hospital, 6/115, Main Road, Thirumangai Nagar, Kovilpatti, Tamil Nadu 628501",9.1667192,77.8530037,628501,Thoothukudi,KANGAROO,Independent
KANNA HOSPITAL & ANNAI VELANKANNI FERTILITY CENTRE,"13-D, AARTHY THEATRE ROAD, Y.M.R PATTY, DINDIGUL",TAMIL NADU,kannahospital10@gmail.com,"13-D, Aarthi Theatre Rd, Y.M.R. Patty, East, Anna Nagar, Tamil Nadu 624001",10.361867,77.9695732,624001,Dindigul,KANNA,Independent
KAUVERY FERTILITY CENTRE,"NO: 35, SHANTHI NAGAR, OPP CSI CHURCH, HOSUR",TAMIL NADU,operationsmanager.hosur@kauveryhospital.com,"35, Shanthi Nagar, Opp. CSI Church, Hosur, Tamil Nadu 635109",12.728532,77.8038935,635109,Krishnagiri,KAUVERY,Chained
Kauvery Fertility Centre,"Kauvery Hospital, No. 23/1, Arcot road, Vadapalani",TAMIL NADU,obgivf.kvp@kauveryhospital.com,"225A, 23/1, Arcot Rd, Ottagapalayam, Kannika Puram, Vadapalani, Chennai, Tamil Nadu 600026",13.0477443,80.1836115,600026,Chennai,KAUVERY,Chained
Kauvery Hospital,"9/50,Trichy Main Road, M.G.R Nager, Seelananickenpatti, Salem.",TAMIL NADU,deputymedicaladmin.salem@kauveryhospital.com,"9/50, Trichy Main Rd, Opp.to Chandra Mahal, M G R Nagar, Seelanaickenpatti, Salem, Tamil Nadu 636201",11.6292075,78.1280693,636201,Salem,KAUVERY,Chained
KAVIN CLINIC,"23, DINDIGUL-KARUR ROAD, POLICE STATION OPPOSITE, S.PUDUR, ERIYODU, DINDIGUL",TAMIL NADU,kavinhospitaldgl@gmail.com,"23, POLICE STATION, opposite S.PUDUR, Eriodu, Tamil Nadu 624702",10.4362176,77.8542652,624702,Dindigul,KAVIN,Independent
KAVYA SHANKAR FERTILITY &RESEARCH CENTRE,"178,EAST CAR STREET,DINDIGUL.",TAMIL NADU,sarathaahospital@gmail.com,"178, E Car St, Begambur, Tamil Nadu 624001",10.3638496,77.9515538,624001,Dindigul,KAVYA,Independent
Keerthi Hospitals,"2/1, DSP Nagar,By pass road,Madurai",TAMIL NADU,keerthihospitals.mdu@gmail.com,"Dinamalar Ave, Chokkalinga Nagar, Ponmeni, Madurai, Tamil Nadu 625016",9.9258573,78.0715758,625016,Madurai,KEERTHI,Independent
Kgclinic,126 Vakkil street,TAMIL NADU,lavanyagowrishankar@gmail.com,"No 8A, 18th St, Tansi Nagar, Velachery, Chennai, Tamil Nadu 600042",12.9942215,80.0990604,600042,Chennai,KGCLINIC,Independent
KHM FERTILITY CENTER,"AB-14,6 TH MAIN ROAD,ANNA NAGAR",TAMIL NADU,khmfertility@gmail.com,"AB-14, 6th Main Rd, AC Block, Anna Nagar, Chennai, Tamil Nadu 600040",13.0846364,80.1924096,600040,Chennai,KHM,Independent
KIDS CLINIC INDIA LIMITED CLOUDNINE FERTILITY,"No.54, Opposite Hyatt Regency, Vijaya Raghava Road, T Nagar, Chennai, Tamil Nadu 600017",TAMIL NADU,mrdchn@cloudninecare.com,"54, Vijaya Raghav Road, Vijayaraghava Rd, near Hyatt Regency, T. Nagar, Chennai, Tamil Nadu 600017",13.043417,80.2256163,600017,Chennai,KID,Independent
KIDS CLINIC INDIA LIMITED CLOUDNINE FERTILITY,"No.148, Rajiv Gandhi Salai, Old Mahabalipuram Road, Okkiyam Thoraipakkam, Chennai, Tamil Nadu - 600097",TAMIL NADU,mrdomr@cloudninecare.com,"148, Old, 2nd St, Thoraipakkam, Chennai, Tamil Nadu 600097",12.9426421,80.216206,600097,Chennai,KID,Independent
KIMS IVF FERTILITY CENTER PVT LTD,"no,75,North east extension road",TAMIL NADU,drrajatrichy@gmail.com,"1-8-31/1, Minister Rd, Krishna Nagar Colony, Begumpet, Secunderabad, Hyderabad, Telangana 500003",16.8564288,76.7981461,500003,District Not Found,KIM,Independent
Kiran Infertility Centre,No 32 Ambika Complex 2nd Floor Arcot Road Trustpuram Kodambakkam Chennai,TAMIL NADU,info@kicchennai.com,"2nd FLOOR, Ambica Complex, NO:32, Arcot Rd, above MCRENNETT, Trustpuram, Kodambakkam, Chennai, Tamil Nadu 600024",13.0537525,80.2060329,600024,Chennai,KIRAN,Independent
KNH fertility centre,"3/1/7, Mudiarasan Salai, opp to new court, SM puram, Karaikudi",TAMIL NADU,kavithafertilitycenter@gmail.com,"3/1/7, Mudiarasan Salai, opp. New Court, South Ext, S.M Puram, Vairavapuram, Karaikudi, Tamil Nadu 630001",10.0764364,78.7592311,630001,Sivaganga,KNH,Independent
Kongunad Hospitals Pvt Ltd,"116,117, 11th Street, tatabad, Coimbatore, Tamil Nadu - 641012",TAMIL NADU,karthikdoc@gmail.com,"11th St, Tatabad, Coimbatore, Tamil Nadu 641012",11.0177678,76.9398548,641012,Coimbatore,KONGUNAD,Independent
KOVAI FERTILITY AND NEURO CENTER,"A-339/3,Vue Grande,first floor,new sidhapudur, Coimbatore",TAMIL NADU,dr_hemarajesh@yahoo.co.in,"First floor, Vue Grande, Balasundaram Layout, B.K.R Nagar Kovai fertility and neuro center A-339/3, New Siddhapudur, Tamil Nadu 641044",11.0215766,76.9576063,641044,Coimbatore,KOVAI,Independent
KREATE FERTILITY CENTRE,"Rajah hospital, 60, Gandhi street, BR puram,Peelamedu, Coimbatore",TAMIL NADU,jananiramanesh@gmail.com,"Jeeva St, Peelamedu, Coimbatore, Tamil Nadu 641004",11.0270937,76.9976094,641004,Coimbatore,KREATE,Independent
KRISHIKA FERTILITY CENTRE,"226, KATCHERY ROAD, KATTUMANNAR KOIL, 608301",TAMIL NADU,sharmila_13m@yahoo.co.in,"Dr Besant Rd, Anna Nagar, Kumbakonam, Tamil Nadu 612001",12.0050943,78.3481043,612001,Thanjavur,KRISHIKA,Independent
KRISHNA FERTILITY CENTRE,"KRISHNA HOSPITAL 100/1 VELUR ROAD, TIRUCHENGODE",TAMIL NADU,ssvanan66@yahoo.in,"Katcheri Street, 100/1, Tiruchengode - Paramathi - Velur Rd, Mahadhavapuram, Tiruchengode, Tamil Nadu 637211",11.3752984,77.8727643,637211,Namakkal,KRISHNA,Independent
Krithik Medical Centre,"Old No.9/3,New No.16,Rajalakshmi Nagar,Masakalipalayam road,Hope college, Peelamedu,Coimbatore.",TAMIL NADU,krithikmedicalcentre@gmail.com,"9/3 Rajalakshmi nagar, Masakalipalayam Rd, Peelamedu, Hope College, Coimbatore, Tamil Nadu 641004",11.0224604,76.9975233,641004,Coimbatore,KRITHIK,Independent
KRITIGA HOSPITAL,"15, MANGALAM ROAD, KARUVAMPALAYAM, TIRUPPUR",TAMIL NADU,anandaraj74@gmail.com,"38WP+9X9, Mangalam Road, Karuvampalayam, Kumaran Road, Mangalam Road, Tiruppur, Tamil Nadu 641604",11.0959599,77.3168825,641604,Coimbatore,KRITIGA,Independent
kumar Hospital,Thuckalay,TAMIL NADU,1990abi@gmail.com,"Trivandrum - Nagercoil Hwy, Manali, Tamil Nadu 629175",8.2528903,77.2909826,629175,Kanyakumari,KUMAR,Independent
kumaran clinic,mayuranathar keezha veedhi. mayiladuthurai,TAMIL NADU,paedssaravanan@gmail.com,"Keezha Veethi, Maayavaram, Mayiladuthurai, Tamil Nadu 609001",11.1025268,79.6541039,609001,Mayiladuthurai,KUMARAN,Independent
KUMARAVELU HOSPITAL,DVD COLONY KOTTAR NAGERCOIL,TAMIL NADU,docchitra@yahoo.co.in,"319-43/15A, DVD Colony, Chenthooran Nagar, Nagercoil, Tamil Nadu 629002",8.1741187,77.4143482,629002,Kanyakumari,KUMARAVELU,Independent
KVT HEALTH CENTRE,"NO.16, GNT ROAD, MOOLAKADAI",TAMIL NADU,venkateshit786@gmail.com,"16, Grand Northern Trunk Rd, Moolakadai, Kodungaiyur, Chennai, Tamil Nadu 600118",13.1282361,80.2216384,600118,Chennai,KVT,Independent
LAKSHMI ASSISTED REPRODUCTION AND FERTILITY CENTER,"27, Tank Street, Hosur",TAMIL NADU,vijirenga@gmail.com,"Tank Street, Hosur, Tamil Nadu 635109",12.7327785,77.8049565,635109,Krishnagiri,LAKSHMI,Chained
Lakshmi Fertility Centre,"No.5, Church 2nd street, T.T. Nagar, Karaikudi",TAMIL NADU,dr.jothiganesh@gmail.com,"Church 2nd St, TT Nagar, Sekkalai, Karaikudi, Tamil Nadu 630001",10.0748356,78.7548514,630001,Sivaganga,LAKSHMI,Chained
Lakshmi hospital,"Nellukkara street, kancheepuram",TAMIL NADU,drrajesh72@hotmail.com,"Plot No.46, Nellukara Street, Beside Kalyan Jewellers, Kanchipuram, Tamil Nadu 631502",12.8387538,79.6814043,631502,Kanchipuram,LAKSHMI,Chained
LAKSHMI HOSPITAL AND FERTILITY CENTER,"84,TRICHY MAIN ROAD , SANJEEVARAYANPET ,",TAMIL NADU,lakshmifertility@gmail.com,"84, Trichy Main Rd, opp. to State bank of India, Sanjeeverayanpettai, M G R Nagar, Seelanaickenpatti, Salem, Tamil Nadu 636006",11.6369417,78.1303207,636006,Salem,LAKSHMI,Chained
Lakshmi Madhavan Hospital Fertility Center,"4A, South Bypass Road, Vannarpettai, Tirunelveli",TAMIL NADU,padma95lakshmi@gmail.com,"S Bypass Rd, Vannarpettai, Tirunelveli, Tamil Nadu 627003",8.7263237,77.7006443,627003,Tirunelveli,LAKSHMI,Chained
Lakshmi Maternity Hospital Assisted Reproduction Centre,"Lakshmi Maternity Hospital, No 20, 3rd Avenue, Indira Nagar, Adyar,",TAMIL NADU,lathas145@gmail.com,"20, 3rd Ave, Indira Nagar, Adyar, Chennai, Tamil Nadu 600020",12.9939811,80.2321847,600020,Chennai,LAKSHMI,Chained
lakshmi test tube baby centre,"7A/44 - 1 D MADHANAGOPALAPURAM,PERAMBALUR(PO),PERAMBALUR(TK),PERAMBALUR(DT)",TAMIL NADU,lakshmiivf2017@gmail.com,"TELC Complex, No: 7A/44-1D, MG Puram, Rover School Road, Rover School Rd, Sungu Pettai, Perambalur, Tamil Nadu 621212",11.3901089,77.2952887,621212,Perambalur,LAKSHMI,Chained
LAKSHMI TEST TUBE BABY CENTRE,"LAKSHMI HOSPITAL, 29,P.S.R.ROAD, SIVAKASI",TAMIL NADU,lakshmihospitalsivakasi@gmail.com,"29, PSR Rd, Parasakthi Colony, Sivakasi, Tamil Nadu 626123",9.4512311,77.7731194,626123,Virudhunagar,LAKSHMI,Chained
Lakshya Fertility Centre,18 Vyasar street East Tambaram,TAMIL NADU,lakshyaivfcentre@gmail.com,"18, Vyasar St, East Tambaram, Tambaram, Chennai, Tamil Nadu 600059",12.9258061,80.1070376,600059,Chennai,LAKSHYA,Independent
LALITHAMBIGAI FERTILITY CENTRE,"83, Adayalampattu Village, Chennai",TAMIL NADU,ivf@slmch.ac.in,"85, Vanagaram, Chennai, Tamil Nadu 600095",13.065114,80.1397626,600095,Chennai,LALITHAMBIGAI,Independent
LISTER HOSPITALS,"Main road , , Marthandam , Lister Hospital",TAMIL NADU,listerhospitals@gmail.com,"Main Rd, near CSI Church, Marthandam, Tamil Nadu 629165",8.3062017,77.2024004,629165,Kanyakumari,LISTER,Independent
LIVF FERTILITY AND WOMENS HEALTH CARE HOSPITAL,NO 23 GROUND FLOOR 1ST CROSS STREET RAMAPPA NAGAR PERUNGUDI CHENNAI,TAMIL NADU,info@livffertility.com,"Ground floor, 23, 1st Cross St, Ramappa Nagar, Kandhanchavadi, Perungudi, Chennai, Tamil Nadu 600096",12.9629897,80.2217306,600096,Chennai,LIVF,Independent
Logidasans hospital,"14,rajaji street,manavala nagar,Thiruvalur",TAMIL NADU,logidasanhospital@gmail.com,"14, Rajaji St, Manavalanagar, Tamil Nadu 602002",13.1099942,79.8907766,602002,Tiruvallur,LOGIDASAN,Independent
London Medical center and fertility care,"109 Parisal Thurai Road, Kaikaatti,musiri",TAMIL NADU,dr.akilapillai@gmail.com,"109, Parisal Thurai Rd, Musiri, Tamil Nadu 621211",10.9508459,78.4213365,621211,Trichy,LONDON,Independent
Lotus Fertility centre,"NTC Hospitals ,Kizhavaithiyanathapuram,Thathaneri main road.Madurai",TAMIL NADU,lakmisubburaj@gmail.com,"No: 187, Thathaneri Main Rd, near ESI Hospital, Vaithiyanathapuram, Madurai, Tamil Nadu 625018",10.4528512,74.9180932,625018,Madurai,LOTU,Chained
Lotus Hospitals and Research Centre Limited,"90, Thayumanava Sundaram Street, Poondurai Main Road, Kollampalayam, Erode.",TAMIL NADU,shruthieks@gmail.com,"90, Thayumanava Sundaram Street, Poondurai, Main, Road, Kollampalayam, Tamil Nadu 638002",11.3282599,77.7180592,638002,Erode,LOTU,Chained
Lotus IVF fertility and womens centre,"Ponniah hospital 232 tv Samy road, RS Puram Coimbatore",TAMIL NADU,ponniahhospital@yahoo.in,"Ponnaiah Hospital Campus, R.S., Thiruvenkatasamy Rd W, R.S. Puram, Coimbatore, Tamil Nadu 641002",11.0108026,76.9323954,641002,Coimbatore,LOTU,Chained
M.S.THARIKADEVI CLINIC,"NO/28 SANNATHI STREET,VANDAVASI",TAMIL NADU,jesuslovesmunu@gmail.com,"50B, Sannathi St, Vandavasi, Tamil Nadu 604408",12.5022249,79.5831284,604408,Viluppuram,MSTHARIKADEVI,Independent
MAA Kauvery Fertility Center (A Unit of KMC Speciality Hospitals India Limited),"No 27, Alexandria Road, Cantonment, Tiruchirappalli West Taluk, Tiruchirappalli District - 620 001.",TAMIL NADU,dhasa.cst@kauveryhospital.com,"6, Royal Rd, Cantonment, Tiruchirappalli, Tamil Nadu 620001",10.809519,78.676141,620001,Trichy,MAA,Independent
Maanasa Women and Fertility Clinic,"1/35A, Malayappa Mudali Street, Kelambakkam, Chennai",TAMIL NADU,maanasa.clinic@gmail.com,"1/35 A, Malayappa Mudali street, Old Mamallapuram Rd, near Karur Vysya Bank, Kelambakkam, Tamil Nadu 603103",12.7878593,80.2005652,603103,Chengalpattu,MAANASA,Independent
Madhu Hospital,"17/16, Agasthiyar Street, East Tambaram, Chennai",TAMIL NADU,madhuhospitals2019@gmail.com,"Madhu hospital, No: 17/16, 17/16, Agasthiyar St, East Tambaram, Chennai, Tamil Nadu 600059",12.925321,80.1064969,600059,Chennai,MADHU,Independent
MAGIL IVF CENTRE,"3/756 First Cross, Surveyor Colony",TAMIL NADU,info@magilivf.com,"3/756, 1st Cross St, Surveyor Colony, Madurai, Tamil Nadu 625007",9.9577867,78.1327328,625007,Madurai,MAGIL,Independent
Maha Fertility & Women Centre,"No: 15, Virudhachalam Main Road, (Opp to KVB Bank), Ulundurpet, Kallakurichi District, Tamilnadu State",TAMIL NADU,mahafertilitycentre2@gmail.com,"15D, Virudhachalam - Cuddalore Rd, Ulundurpet, Viluppuram, Tamil Nadu 606001",11.5158455,79.3092319,606001,Tiruvannamalai,MAHA,Independent
Maha Fertility Centre,"Mahalakshmi Hospital, No. 6, Jubilee Road, (Near Bus stand), Ulundurpet, Kallakurichi District, PIN- 606107",TAMIL NADU,mahafertilitycentre@gmail.com,"No.15, viruthachalam main road, opposite Kvb, Ulundurpet, Tamil Nadu 606107",11.6895141,79.2673996,606107,Tiruvannamalai,MAHA,Independent
Mahalakshmi Clinic,"No.4, Kalathi Annamalai st, Arni.",TAMIL NADU,mahalakshmifertilityclinic@gmail.com,"Kalathi Annamalai Street, Sharaf Bazaar St, Arani, Tamil Nadu 632301",12.6714481,79.2670212,632301,Vellore,MAHALAKSHMI,Independent
MALAR FERTILITY AND RESEARCH CENTRE,"NO. 5, BEMESWARAN KOIL STREET, MULLAI NAGAR WEST TAMBARAM",TAMIL NADU,malarfertility@gmail.com,"5, Beemeswaran Koil Street, West, Mullai Nagar, Tambaram, Chennai, Tamil Nadu 600045",12.9264661,80.0820372,600045,Chennai,MALAR,Independent
MANGALAM HOSPITAL(ART CLINIC),"1,JCN STREET,POONAMALLEE",TAMIL NADU,vaccinemangalam@gmail.com,"1, JCN STREET, MG Nagar, Poonamallee, Chennai, Tamil Nadu 600056",13.0506007,80.075521,600056,Chennai,MANGALAM,Independent
MANIMEKALAI IVF CENTER,"253, SALEM MAIN ROAD, NEAR MEENAKSHI MAHAL, KRISHNAGIRI",TAMIL NADU,MANIMEKALAILOKESH@GMAIL.COM,"253, Salem Main Rd, near Meenakshi mahal, New Pet, Krishnagiri, Tamil Nadu 635002",12.5149477,78.2095584,635002,Krishnagiri,MANIMEKALAI,Independent
Manohar General Hospital,"28, Railway road, kanchipuram",TAMIL NADU,drpriyajj@yahoo.co.in,"Manohar Hospital, Railway Rd, Kanchipuram, Tamil Nadu 631502",12.8360462,79.6911904,631502,Kanchipuram,MANOHAR,Independent
Manushree Nursing Home,"5 & 6A, Sankarar street, Srinivasa Nagar, peerkankaranai, Chennai",TAMIL NADU,Manushreemedicalcenter@gmail.com,"No.5, Sankaran St, opposite to HDFC bank, Srinivasa Nagar, New Perungalathur, Perungalathur, Tamil Nadu 600063",12.9063195,80.0739626,600063,Chennai,MANUSHREE,Independent
Maruthi Test tube baby centre,"743-E, salem Road, Namakkal",TAMIL NADU,maruthihospital.nkl@gmail.com,"743/E, Salem - Namakkal Rd, Swamy Nagar, Namakkal, Tamil Nadu 637001",11.2456921,78.1450942,637001,Namakkal,MARUTHI,Independent
MARUTI TEST TUBE BABY AND FERTILITY CENTRE,"2/145-1,NEW  NATHAM ROAD, IYER BUNGALOW, MADURAI",TAMIL NADU,ponnimitra1982@gmail.com,"No-2/145, 1, Natham Rd, Iyer Bungalow, Madurai, Tamil Nadu 625014",9.9675548,78.1346409,625014,Madurai,MARUTI,Independent
MATHA TEST TUBE BABY RAJESH TILAK HOSPITAL,107J 79 50G PC ROAD WEST MILLERPURAM TUTICORIN,TAMIL NADU,rajeshtilakhospital@gmail.com,"2, 3, R42J+9CH, 107J/79/53/1, P.C Road, TMB Colony, West,, Millerpuram, Sinnamani Nagar, Thoothukudi, Tamil Nadu 628008",8.7989588,78.105593,628008,Thoothukudi,MATHA,Independent
MATHI HOSPITAL PVT LTD,NO 55/2A FCI ROAD GANDHIMAA NAGAR GANAPATHI,TAMIL NADU,mathihospitalart@gmail.com,"FCI road extension ,Ganapathi, 35, Gandhimaa Nagar to FCI Godown Rd, Near ganapathy fire station, Coimbatore, Tamil Nadu 641004",11.0393601,76.9766305,641004,Coimbatore,MATHI,Independent
Meenakshi Fertility Centre,"N0.103, Valluvarkottam High Road, Nungambakkam",TAMIL NADU,raji.ezhilarasan@gmail.com,"103, Valluvar Kottam High Rd, Ponnangipuram, Nungambakkam, Chennai, Tamil Nadu 600034",13.0587527,80.2222441,600034,Chennai,MEENAKSHI,Independent
MEENAKSHI MISSION HOSPITAL AND RESEARCH CENTRE,"LAKE AREA,MELUR ROAD,MADURAI",TAMIL NADU,ivf@mmhrc.com,"Lake Area, Melur Main Rd, Madurai, Tamil Nadu 625107",9.9479215,78.1599642,625107,Madurai,MEENAKSHI,Independent
MELUR MEDICAL CENTRE,"712, Trichy Main Road, MELUR",TAMIL NADU,drvbmmc@gmail.com,"712, Trichy Main Rd, Melur, Tamil Nadu 625106",10.0304023,78.3151952,625106,Madurai,MELUR,Independent
MENAKA HOSPITAL,"367 & 367/1,THIRUTHANGAL ROAD, SIVAKASI",TAMIL NADU,jeganprasad@rediffmail.com,"367, Thiruthangal Rd, near TNEB tamilnadu electricity board, Parasakthi Colony, Sivakasi, Tamil Nadu 626123",9.4577393,77.7784524,626123,Virudhunagar,MENAKA,Independent
MERCY FERTILITY CENTER,"4 A,BY-PASS ROAD,OPP.LAKSHMI BHAVAN HOTEL,PONMENI,MADURAI",TAMIL NADU,mercyfertilitycentre@gmail.com,"4/A, Bypass Rd, near HDFC BANK, Ponmeni, Madurai, Tamil Nadu 625016",9.9207112,78.0801267,625016,Madurai,MERCY,Independent
Meridian Hospital,"46D, Jawaharlal Nehru Road, 200 Feet Road, Kolathur, Chennai, Tamil Nadu",TAMIL NADU,reachus@meridian-hospital.com,"46D, Jawaharlal Nehru Road, 200 Feet Ring Rd, Kolathur, Chennai, Tamil Nadu 600110",13.1363796,80.1953773,600110,Chennai,MERIDIAN,Independent
MGM Healthcare,"No 54, Old 72. Nelson Manickam Rd, Aminjikarai, Chennai",TAMIL NADU,varambymgm@mgmhealthcare.in,"No 54, Old, 72, Nelson Manickam Rd, Aminjikarai, Chennai, Tamil Nadu 600029",13.0709761,80.2190853,600029,Chennai,MGM,Independent
Mint Hospitals,"19/1,1st Avenue,Sastri Nagar,Adyar,Chennai",TAMIL NADU,dr.tsharanya@gmail.com,"19/1, 1st Ave, near by bsnl telephone exchange, Shastri Nagar, Adyar, Chennai, Tamil Nadu 600020",13.0013874,80.2367015,600020,Chennai,MINT,Independent
Miracle Advanced Reproductive Centre,"450, 2nd and 3rd floor,Poonamallee High Road,Kilpauk,Chennai",TAMIL NADU,psrdmurthy@yahoo.com,"2nd & 3rd floor, 450, Poonamallee High Rd, Opp Pachiyappas College, Kilpauk, Chennai, Tamil Nadu 600010",13.076207,80.2135193,600010,Chennai,MIRACLE,Independent
MM Hospital,"6/288, Trichy Main Road, Namakkal.",TAMIL NADU,mmhospitalnkl@gmail.com,"6/288, Trichy Rd, Andavar Nagar, Namakkal, Tamil Nadu 637001",11.2102523,78.1570752,637001,Namakkal,MM,Independent
Morpheus Abirami International IVF centre,"C/o Sree Abirami Hospitals , no 33 A madukkarai road sundarapuram coimbatore",TAMIL NADU,uma.periyaswamy@gmail.com,"33, Madukkarai Main Rd, Sundarapuram, Coimbatore, Kurichi, Tamil Nadu 641024",10.9526687,76.9524281,641024,Coimbatore,MORPHEU,Independent
MOTHERS CLINIC,"NO.7/476, 1st FLOOR, VELACHERY TAMBARAM MAIN ROAD,MEDAVAKKAM",TAMIL NADU,mothersclinicobg@gmail.com,"No 7, anjappar restaurant, 476, Velachery - Tambaram Main Rd, next to Anjappar hotel, United Colony, Ranganathapuram, Medavakkam, Chennai, Tamil Nadu 600100",12.9201827,80.1637644,600100,Chennai,MOTHER,Independent
MRS HOSPITAL,"NO 2,FIRST MAIN ROAD,MM NAGAR,VAYALUR ROAD,UKT MALAI, TRICHY",TAMIL NADU,drskiruthikavenkatesan@gmail.com,"MM Nagar, Tiruchirappalli, Sholanganallur, Tamil Nadu 620102",10.8793407,78.5438792,620102,Trichy,MRS,Independent
MVS HOSPITAL,"171 , Gandhi Nagar , Attur",TAMIL NADU,mvshealthcentre@gmail.com,"32, Gandhi Nagar, Tamil Nadu 636102",11.5966815,78.5699102,636102,Salem,MVS,Independent
MYTRA IVF CENTRE,"75C, AKM NURSING HOME BUILDING, 2ND FLOOR, AZHAGAPPA NAGAR 3RD CROSS, ARIYALUR",TAMIL NADU,mytraivfariyalur@gmail.com,"No. 75-A, 3nd Cross Rd, Alagappa Nagar, Vila Ngara, Ariyalur, Tamil Nadu 621704",11.1401669,79.0550729,621704,Trichy,MYTRA,Independent
N P HOSPITAL,"400/10, NEAR E.B OFFICE,DHARAPURAM ROAD, ERODE",TAMIL NADU,nphospitals2009@gmail.com,"8PM9+HCR, Erode-Dharapuram Rd, Nggo Colony, Erode, Tamil Nadu 638009",10.9231484,77.3617074,638009,Erode,N,Independent
Nagamani Hospital,"116 G. A . Road, Chennai",TAMIL NADU,nagahosp@gmail.com,"118, Rajarathnam Salai, 116, Gollavar Agraharam Rd, Washermanpet, Chennai, Tamil Nadu 600021",13.117371,80.2689639,600021,Chennai,NAGAMANI,Independent
Nakshatra Men Women & Fertility Clinic,"5/336, Santhome Avenue Main Road, Okkiyampettai, OMR",TAMIL NADU,nakshatrafertility@gmail.com,"#5/336, Santham Avenue main road, Okkiyam pettai, Old Mahabalipuram Road landmark - next to Indian oil petrol bunk, Chennai, Tamil Nadu 600097",12.9269195,80.2106305,600097,Chennai,NAKSHATRA,Independent
NALAM HOSPITAL,158 HIGHWAYS COLONY,TAMIL NADU,nalamhospital.trichy@yahoo.com,"158, Highways Colony Main Rd, Sundarraj Nagar, Subramaniyapuram, Sangillyandapuram, Tiruchirappalli, Tamil Nadu 620020",10.7835619,78.6826119,620020,Trichy,NALAM,Independent
NALINI FERTILITY CENTRE,"3/31,MTP ROAD, K.VADAMADURAI.",TAMIL NADU,drdasarathanmemorialhospital@gmail.com,"3/31, Mettupalayam Rd, Ganesh Nagar, K. Vadamadurai, Coimbatore, Kurudampalayam, Tamil Nadu 641017",11.0887161,76.9178451,641017,Coimbatore,NALINI,Independent
NANDHINI-PEARL HOSPITAL LLP,"40-B, 7TH STREET, TANSI NAGAR, TARAMANI LINK ROAD, VELACHERY, CHENNAI",TAMIL NADU,jayashree@nandhini-pearl.in,"40 -B, 7th St, near Vijayanagar bus stand, Tansi Nagar, Velachery, Chennai, Tamil Nadu 600042",12.9783515,80.2040123,600042,Chennai,NANDHINIPEARL,Independent
NANDITA S FERTILITY AND RESEARCH CENTRE,"21/2, MC NICHOLS ROAD, CHETPET, CHENNAI.",TAMIL NADU,NANDITAFERTILITY@GMAIL.COM,"21/2, Mc Nichols Road 3rd Ln, Chetpet, Chennai, Tamil Nadu 600031",13.07171,80.2206529,600031,Chennai,NANDITA,Independent
Narmatha Hospital,"411-A, viswanatham Road, Sivakasi",TAMIL NADU,narmathahospitals@gmail.com,"bus stop, 411-A, Viswanatham Rd, near Mani Nagar, Parapatti, Sivakasi, Tamil Nadu 626123",9.4432826,77.7798016,626123,Virudhunagar,NARMATHA,Independent
NEW LIFE FERTILITY AND IVF CENTRE,"B.M.HOSPITAL , 36 , 5th MAIN ROAD , THILLAI GANGA NAGAR , NANAGNALLUR , CHENNAI",TAMIL NADU,dr.vasundra@bmhospitals.com,"36, Fifth Main Rd, Thillaiganga Nagar, Nanganallur, Chennai, Tamil Nadu 600061",12.9888655,80.1695517,600061,Chennai,LIFE,Independent
New life fertility centre,No.6.skc road Erode,TAMIL NADU,lathanewlife@gmail.com,"17, Kulanthu Poonai Colony Rd, Periyar Nagar, Erode, Tamil Nadu 638001",11.3340319,77.7054182,638001,Erode,LIFE,Independent
Nirmala hospital,No.276 Salem main road komarapalayam,TAMIL NADU,nirucool123@gmail.com,"Salem Main Rd, Komarapalayam, Tamil Nadu 638183",11.4426743,77.6799147,638183,Erode,NIRMALA,Independent
NIRMALA TEST TUBE BABY CENTRE.,"NIRMALA NURSING HOME,9-D/12,EAST RAMAKRISHNA PURAM,KARUR",TAMIL NADU,drjdeepa@gmail.com,"X37H+RQ9, Ramkrishnapuram, Karur, Tamil Nadu 639001",10.9645344,78.0769032,639001,Karur,NIRMALA,Independent
NIRVI ASSISTED REPRODUCTION INSTITUTE (VIJAYA HOSPITAL),"434, NSK SALAI, VADAPALANI, CHENNAI",TAMIL NADU,narivijayaivf@gmail.com,"No:434, Arcot Rd, Vadapalani, Chennai, Tamil Nadu 600026",13.0491738,80.1878061,600026,Chennai,NIRVI,Independent
NISHANT HOSPITAL,"279, E.V.N. ROAD, ERODE",TAMIL NADU,mpadman279@gmail.com,"279, EVN Rd, opp. Power House, near Vasan Eye Care, Erode, Tamil Nadu 638001",11.3366447,77.6973843,638001,Erode,NISHANT,Independent
NITHILAA ADVANCED TEST TUBE CENTRE,"72, T.P.K. Road, (Opp. to Kumaragam Kovil), Pallaganatham,MADURAI",TAMIL NADU,nithilaanursing@gmail.com,"72, Tirupparankunram Rd, Thiruvalluvar Nagar, Palangantham, Madurai, Tamil Nadu 625003",9.901384,78.0917507,625003,Madurai,NITHILAA,Independent
NM HOSPITAL PVT.LIMITED,"#3275,1/A RAMAKRISHNAPURAM,OPP.TO MANIMANDABAM",TAMIL NADU,nmhospitalplit@gmail.com,"Plot No: 3275, 1/a-1, Ramakrishnapuram, opp. to Manimandabam, Thanjavur, Tamil Nadu 613007",10.7699721,79.1119249,613007,Thanjavur,NM,Independent
NN HOSPITAL,NEW NO 39 GANDHI ROAD WEST TAMBARAM CHENNAI,TAMIL NADU,subaam2001@yahoo.co.in,"W4J9+3F4, Marmalong Bridge, Irumbuliyur, Tambaram - Mudichur - Oragadam Rd, West Tambaram, Tambaram, Chennai, Tamil Nadu 600045",12.9275589,80.1052934,600045,Chennai,NN,Independent
Nova IVF Fertility,"SV Towers, First Floor, Shop No. 4, Rajiv Gandhi Salai, Kazhipattur, Padur Post, Chennai",TAMIL NADU,nova.padur@novaivffertility.com,"Door Number-344 to 349, 1st Floor, Tiruvallur District South, Taluk, Karayanchavadi, Poonamallee, Chennai, Tamil Nadu 600056",13.047101,79.9702093,600056,Chennai,NOVA,Chained
Nova IVF Fertility Annanagar,"As Towers, B-25, second avenue, Annanagar East, Chennai",TAMIL NADU,nova.annanagar@novaivffertility.com,"AS Towers, Plot no 103,, Door No.25, 2nd Ave, B Block, Annanagar East, Chennai, Tamil Nadu 600102",13.0844036,80.2012539,600102,Chennai,NOVA,Chained
Nova IVF Fertility Coimbatore,"LTL Building,Door No : 1334/3 ,1st & 4th floor, Avinashi Road,Peelamedu,Coimbatore, Tamil Nadu",TAMIL NADU,nova.coimbatore@novaivffertility.com,"D.No.1334/3, First Floor, LTL Building, Avinashi Rd, Peelamedu West, Coimbatore, Tamil Nadu 641004",12.0056288,73.3362735,641004,Coimbatore,NOVA,Chained
Nova IVF Fertility Madurai,"4/461 & 4/936 to 4/939, Vandiyur Main Road, Near to PTR Bridge, Anna Nagar, Madurai - 625020",TAMIL NADU,nova.madurai@novaivffertility.com,"Vandiyur Main Rd, near to PTR Bridge, Anna Nagar, Madurai, Tamil Nadu 625020",9.9167709,78.1464377,625020,Madurai,NOVA,Chained
Nova IVF Fertility Salem,"224/2,SHRI SHARADA ARCADE â€“ NITHYAM, 1ST FLOOR, MEYYANUR MAIN RD, SALEM, TAMIL NADU 636004",TAMIL NADU,nova.salem@novaivffertility.com,"224/2,Shri Sharada Arcade – Nithyam, 1st Floor, Meyyanur Main Rd, Salem, Tamil Nadu 636004",11.6685603,78.1117574,636004,Salem,NOVA,Chained
Nova IVF Fertility Tambaram,"NO.465/155, VELACHERY ROAD, SELAIYUR VILLAGE, EAST TAMBARAM, CHENNAI-600059",TAMIL NADU,nova.tambaram@novaivffertility.com,"No.465/155, Door, Velachery Main Rd, East Tambaram, Selaiyur, Chennai, Tamil Nadu 600059",12.9230694,80.1077889,600059,Chennai,NOVA,Chained
Nova IVF Fertility Vadapalani,"Shop-1, First Floor, Doshi Garden, 174, NSK Salai, Vadapalani, Chennai",TAMIL NADU,nova.vadapalani@novaivffertility.com,"1, First Floor, Doshi Garden, Old No.174, New No.321, Arcot Road, NSK Salai Rd, Vadapalani, Chennai, Tamil Nadu 600026",13.0486821,80.1865637,600026,Chennai,NOVA,Chained
NOVA PULSE IVF CLINIC PRIVATE LIMITED,"New Door No 4 & 5 ( Old Door No 6A/7 & 6A/7A) , Sudharsana Hospital Building Campus, First Main Road, Ramalinga Nagar, Woraiyur, TiruchirappalliÂ -Â 620Â 003",TAMIL NADU,customercare.trichy@novaivffertility.com,"6A, First Main Rd, Ramlinga Nagar, Woraiyur, Tiruchirappalli, Tamil Nadu 620003",10.8210526,78.6556619,620003,Trichy,NOVA,Chained
Nova Pulse IVF Clinic Pvt Ltd,"D.No.87/55, 1st Floor, Dunlop Building, P N Road, Neavalar Colony, Thottipalyam, Tirppur, Tamilnadu,641602",TAMIL NADU,ajithkumar@novaivffertility.com,"Nova Door No : 87/55, 1st Floor, Dunlop Building, PN Rd, above Karnataka Bank, Thirumalai Nagar, Nesavalar Colony, Tiruppur, Chettipalayam, Tamil Nadu 641602",11.1276759,77.3389084,641602,Coimbatore,NOVA,Chained
NS kumudham hospital,"42-A,Dr Varadharajulu st,Jothi nagar,Attur,Salem-",TAMIL NADU,drkumudham@gmail.com,"42, Dr.Varadharajulu street, Pungavadi Puthur, Attur, Tamil Nadu 636102",11.5962806,78.5789442,636102,Salem,NS,Independent
Olympia Hospital and Research Centre,"47,47A Puthur High Road, Puthur",TAMIL NADU,olympiahospital@gmail.com,"47, 47-A, Puthur High Rd, Puthur, Tiruchirappalli, Tamil Nadu 620017",10.8162839,78.6573127,620017,Trichy,OLYMPIA,Independent
Om Fertility Center,"No. 106, Patel Road, Perambur,",TAMIL NADU,admin@srinivaspriyahospital.com,"NO.106, Patel Road, Perambur, Chennai, Tamil Nadu 600011",13.1093667,80.2279485,600011,Chennai,OM,Independent
OM SAKTHI TEST TUBE BABY CENTRER,"OM SAKTHI HOSPITAL , 1/3,VINAYAGAR KOVIL STREET,POONDHURAI MAIN ROAD ,ERODE",TAMIL NADU,omsakthihospitalerode@gmail.com,"No 1/3, NGGO Nagar Main Rd, near Am Mahal, State Bank Nagar, Chettipalayam, Erode, Tamil Nadu 638002",11.3109848,77.7055469,638002,Erode,OM,Independent
OMEGA FERTILITY & TEST TUBE BABY CENTRE,"SUNDARAM ARULRHAJ HOSPITALS, 145/5B, JEYARAJ ROAD",TAMIL NADU,omegafertilitycentre@gmail.com,"Sundaram Arulraj Hospitals, 145/5B, Jeyaraj Rd, Meenakshipuram, Thoothukudi, Tamil Nadu 628002",8.8082195,78.119504,628002,Thoothukudi,OMEGA,Independent
"OVIYA FERTILITY CENTRE, G. S. HOSPITAL","15/9 RAMNAD ROAD, IRAVATHANALLUR, MADURAI",TAMIL NADU,insurancegshospital13@gmail.com,"New Ramnad Rd, Iravadanallur, Madurai, Tamil Nadu 625009",9.9093676,78.1507856,625009,Madurai,OVIYA,Independent
PALANI BALAJI FERTILITY CENTER,"78,SURVEYAR COLONY,AZHAGAR KOVIL ROAD,MADUARI",TAMIL NADU,contactpbfc@yahoo.com,"78, Alagar Kovil Main Rd, Surveyor Colony, Madurai, Tamil Nadu 625007",9.957925,78.1523928,625007,Madurai,PALANI,Chained
PALANI BALAJI FERTILITY CENTER,4/12A ANNA NAGAR PALANI,TAMIL NADU,dshospitalpvtltd@gmail.com,"4/12A, Anna Nagar, Palani, Tamil Nadu 624601",10.4510608,77.4987003,624601,Dindigul,PALANI,Chained
PALANI BALAJI FERTILITY CENTER,"84/115, VELACHERY ROAD, LITTLE MOUNT, SAIDAPET, CHENNAI",TAMIL NADU,contactpbfch@gmail.com,"84, 115, Velachery Main Rd, Venkatapuram, Little Mount, Saidapet, Chennai, Tamil Nadu 600015",13.0123415,80.2028535,600015,Chennai,PALANI,Chained
Panimalar Fertility Centre,"Panimalar Medical college Hospital, Outer ring Road, Varadharajapuram, Poonamallee, Chennai",TAMIL NADU,obgpmchri@gmail.com,"Varadharajapuram, Chennai Outer Ring Rd, Poonamallee, Chennai, Banaveduthottam, Tamil Nadu 600123",13.0572113,80.0717091,600123,Chennai,PANIMALAR,Independent
PARAMPARA FERTILTY&GYNAECCENTRE,"NO-72,Ormes road,Kilpauk",TAMIL NADU,info@paramparafertility.com,"1st Floor, No, 72, Ormes Rd, Kilpauk, Chennai, Tamil Nadu 600010",13.0825667,80.2219178,600010,Chennai,PARAMPARA,Independent
Parvathy Ayyavoo Fertility Centre,"Aditi Nursing Home; 5,Usman Ali Street; TVS Tolgate",TAMIL NADU,dr.charmila@gmail.com,"5, Usman Ali St, Hanifa Colony, TVS Tolgate, Tiruchirappalli, Tamil Nadu 620020",10.7898891,78.6762169,620020,Trichy,PARVATHY,Independent
Peacock fertility center,4/120 JN road Old ICICI complex Nearby IDBI Bank,TAMIL NADU,nirmalajay1006@gmail.com,"Sai Ashirwad, No.51-B, Vijayanagar, 4th Cross Street, Near Flyover, Baby Nagar, Velachery, Chennai, Tamil Nadu 600042",12.9811113,80.2085836,600042,Chennai,PEACOCK,Independent
PEACOCK FERTILITY CENTRE,"PEACOCK HOSPITALS, NO.5 ARAKKONAM ROAD ,TIRUTTANI",TAMIL NADU,msreekiran99@yahoo.com,"5, Arakkonam Rd, JJ Nagar, Nethaji Nagar, Thiruttani, Tamil Nadu 631209",13.1671387,79.5946737,631209,Kanchipuram,PEACOCK,Independent
PEARL SINGAPORE FERTILITY CENTRE & RESEARCH INSTITUTE  LLP,"Plot 5/3, Vinayagam Avenue, OkkiamPettai, OMR, Thuraipakkam, Chennai",TAMIL NADU,chitra.shankar@outlook.com,"Nehru Nagar, Sri Sowdeswari Nagar, Thoraipakkam, VINAYAGAM AVENUE, OKKIYIAMPETAI THURAIPAKKAM, Chennai, Tamil Nadu 600097",12.9143578,80.2167673,600097,Chennai,PEARL,Independent
Pearl speciality and fertility clinic,No.220 B.V Puram CTH road avadi,TAMIL NADU,drpavi_84@yahoo.com,"4, Nagarathinam Street, Gandhi Nagar, Vasantham Nagar, Avadi, Chennai, Tamil Nadu 600054",13.119971,80.0808904,600054,Chennai,PEARL,Independent
Pink Lines Fertility Clinic & Women's Centre,"Victory Tower, Ground Floor, 486(724/725), Periyar EVR Salai, Shenoy Nagar, Chennai",TAMIL NADU,pinklinesivf@gmail.com,"No. 724/725 Victory Tower, Periyar EVR Salai, Poonamallee High Rd, Aminjikarai, Chennai, Tamil Nadu 600030",13.0746377,80.209024,600030,Chennai,PINK,Independent
PONNI HOSPITAL,"42,PACHAPALAYAM.TRICHY MAIN ROAD PALLADAM",TAMIL NADU,ponnihospitalpalladam@gmail.com,"No. 42, Trichy Rd, Pachapalayam, Palladam, Tamil Nadu 641664",11.0603635,77.2290334,641664,Coimbatore,PONNI,Independent
PONNI HOSPITAL AND FERTILITY CENTRE,"2/408,PILLAIYAR KOVIL STREET ,NARAYANAPURAM,MADURAI",TAMIL NADU,maduraiponnihospitals@gmail.com,"Bus Stop, 2/408, Pillayar Kovil Street Bank Colony, Narayanapuram, Madurai, Tamil Nadu 625014",9.9598756,78.1128618,625014,Madurai,PONNI,Independent
PPK FERTILITY CENTRE,"PPKHOSPITAL CAMPUS, MAIN ROAD MARTHANDAM",TAMIL NADU,ppkfertility1@gmail.com,"864C+8X3 PPK Hospital, NH 47, NH 47, opp. to C.S.I Church, Backside, Marthandam, Tamil Nadu 629165",8.3066284,77.201932,629165,Kanyakumari,PPK,Independent
PRASANNA IVF CENTRE,"NO 30 - A ,NORTH CAR STREET ,SRIVILLIPUTTUR",TAMIL NADU,drradhalakshmi@gmail.com,"31, N Car St, Mangapuram, Srivilliputhur, Tamil Nadu 626125",9.5115259,77.6091204,626125,Virudhunagar,PRASANNA,Independent
PRASHANTH FERTILITY AND WOMENTS CENTRE,"OLD NO: 171, NEW NO: 57, RED HILLS ROAD, BANU NAGAR, PUDHUR, AMBATTUR, CHENNAI",TAMIL NADU,pfrcambattur@gmail.com,"17, Red Hills Main Road banu Nagar, Pudur, Ambattur, Chennai, Tamil Nadu 600053",13.1310381,80.138825,600053,Chennai,PRASHANTH,Chained
Prashanth fertility research centre,"No 77 Harrington road, Chetpet, Chennai,",TAMIL NADU,haripriyageetha@gmail.com,"77, Harrington Rd, behind PACHAIYAPPAS COLLEGE, Chetpet, Chennai, Tamil Nadu 600031",13.0696038,80.2157197,600031,Chennai,PRASHANTH,Chained
PRASHANTH FERTILITY RESEARCH CENTRE,"36 & 36a VELACHERY MAIN ROAD, VELACHERY",TAMIL NADU,dr.kavithagovindaraj@gmail.com,"36 & 36A, Velachery Rd, Dhandeeswaram, Velachery, Chennai, Tamil Nadu 600042",12.9786007,80.2007507,600042,Chennai,PRASHANTH,Chained
Prashanth Fertility Research Centre,"Citi Hospital,26,Sardar Patel Road,Nethaji Colony,Kasturba Nagar ,Adyar",TAMIL NADU,cgayu12@gmail.com,"2nd Floor, 26, Sardar Patel Rd, Nethaji Colony, Kasturba Nagar, Adyar, Chennai, Tamil Nadu 600020",13.0063337,80.2324348,600020,Chennai,PRASHANTH,Chained
PREETHA NURSING HOME,"NO.1, PREETHA STREET,WEST KAMARAJAPURAM,MAHATMA GANDHI ROAD",TAMIL NADU,e.ravirajasekar@gmail.com,"1, Kamarajapuram, West, Covai Road, Kovai Main Rd, Karur, Tamil Nadu 639002",10.9636393,78.0493358,639002,Karur,PREETHA,Independent
"PREETHI HOSPITALS (P) LTD.,","NO 50, MELUR MAIN ROAD, UTHANGUDI, MADURAI",TAMIL NADU,admin@preethihospitals.com,"50, Melur Main Rd, Uthangudi, Tamil Nadu 625107",9.9517023,78.1645652,625107,Madurai,PREETHI,Independent
Preethika fertility centre,"16/211, Arthanari nagar first cross, new Bus stand salem",TAMIL NADU,preethikasris@gmail.com,"16/211, Arthanari St, Arthanari Nagar, Swarnapuri, Salem, Tamil Nadu 636004",11.6718171,78.1187217,636004,Salem,PREETHIKA,Independent
Pritem Endoscopy & Fertility centre,"1, Arul malar convent road ,KK nagar",TAMIL NADU,mangalakabali@yahoo.com,"Number 1, Arulmalar Convent Road, Managiri, KK Nagar, Madurai, Tamil Nadu 625020",9.9299908,78.1229447,625020,Madurai,PRITEM,Independent
PRIYA NURSING HOME,"27,VEPPAMARAM STREET,VELAPADI",TAMIL NADU,uroarun74@gmail.com,"NO-27, Veppamaram St, Velapadi, Vellore, Tamil Nadu 632001",12.9058178,79.11492,632001,Vellore,PRIYA,Independent
Priyas Clinic,56 Asoori street,TAMIL NADU,drdgeethapriyabalaji@gmail.com,"56 Assori Street, Theradi St, Ikkadu, Tamil Nadu 602001",13.1448952,79.8882881,602001,Tiruvallur,PRIYA,Independent
progeny fertility centre,"120/4 chinnayan towers,cherry road,Hasthampatti ,salem",TAMIL NADU,progenyfertilitysalem@gmail.com,"120/4, 3rd Floor, Chinnayyan Towers, Bus Stop, Cherry Rd, opp. Gandhi Road, Subbarayan Layout, Hasthampatti, Salem, Tamil Nadu 636007",11.6726736,78.1379368,636007,Salem,PROGENY,Independent
PROLIFE OG CENTRE,NO.1A 1ST STREET IAS/IPS COLONY RIVERVIEW AVENUE MANAPAKKAM CHENNAI,TAMIL NADU,thamarairam@gmail.com,"River View Enclave, No:1,1st Street, IAS, IPS Colony, Manapakkam, Chennai, Tamil Nadu 600125",13.0182019,80.1562994,600125,Chennai,PROLIFE,Independent
"Promise Fertility Center, Fertility Unit of Sri Kumaran A Speciality Hospital","3a 3b Kakkan Street, West Tambaram, Chennai",TAMIL NADU,promisefertility@gmail.com,"3a, 3b, Kakkan St, West Tambaram, Tambaram, Chennai, Tamil Nadu 600045",12.9279041,80.0913213,600045,Chennai,PROMISE,Independent
QUEENS FERTILITY CENTER,"60-A, TRIVANDRUM ROAD",TAMIL NADU,queensfertilitycenter@gmail.com,"60 A, Trivandrum Rd, Palayamkottai, Tirunelveli, Tamil Nadu 627002",8.7166628,77.7117894,627002,Tirunelveli,QUEEN,Independent
RAADHA RAJENDRAN HOSPITAL PRIVATE LIMITED,"7-10 VEMBULI AMMAN KOIL STREET, ALANDUR, CHENNAI",TAMIL NADU,rrmsh@outlook.com,"No. 7, 10, Vembuli Amman Koil St, Ramapuram, Mela Ilandaikulam, Alandur, Chennai, Tamil Nadu 600016",13.005858,80.1837236,600016,Chennai,RAADHA,Independent
RAHAVENDAR HOSPITAL,"36-E, KURUVIKARAN SALAI, SANTHAIPETTAI, MADURAI-625009.",TAMIL NADU,rahavendarhospital.ceo@gmail.com,"W48Q+JMF, 36-E, Kuruvikaran Salai, Kamarajar Salai, Madurai, Tamil Nadu 625009",9.9161565,78.1190493,625009,Madurai,RAHAVENDAR,Independent
RAINBOW CHILDREN'S MEDICARE LIMITED,"Survey No 230/7A part, Pillaiyar Koil Street, Thirumangalam, Anna Nagar West",TAMIL NADU,dr.karthikganesh@gmail.com,"Pillaiyar Koil St, Thirumangalam, Chennai, Tamil Nadu 600050",13.0793442,80.1773995,600050,Chennai,RAINBOW,Chained
RAINBOW CHILDREN'S MEDICARE LIMITED,"493, OMR - ECR Link road Toll 4A2B, Kalaignar Karunanidhi Salai, Sholinganallur, Chennai, Tamil Nadu 600119",TAMIL NADU,quality.snc@rainbowhospitals.in,"493, OMR - ECR Link road Toll 4A2B, Kalaignar Karunanidhi Salai, Sholinganallur, Chennai, Tamil Nadu 600119",12.9006835,80.2250608,600119,Chennai,RAINBOW,Chained
RAINBOW CHILDREN'S MEDICARE LIMITED GUINDY,"157, Anna Salai, near Little Mount, Little Mount, Guindy, Chennai, Tamil Nadu 600015",TAMIL NADU,ldrnursing.gdy@rainbowhospitals.in,"Metro Station, 157, Anna Salai, near Little Mount, Little Mount, Guindy, Chennai, Tamil Nadu 600015",13.0139664,80.2020304,600015,Chennai,RAINBOW,Chained
Rainbow hospital for women and children,"B 20 Rajaji Street,  swarnapuri",TAMIL NADU,jaykum1999@gmail.com,"No B, 20, Rajaji St, Swarnapuri, Salem, Tamil Nadu 636004",11.6724955,78.1172284,636004,Salem,RAINBOW,Chained
Raja Superspeciality Clinic,"Plot no 1,Nolambur Phase 1, VGN Nagar Phase 1,Nolambur,Ambattur industrial estate,Chennai ,Tamilnadu 600037",TAMIL NADU,rajasuperspecialityclinic@gmail.com,"Plot no 1, Nolambur Phase 1, VGN Nagar Phase 1, Nolambur, Ambattur Industrial Estate, Chennai, Tamil Nadu 600095",13.077425,80.1443313,600095,Chennai,RAJA,Independent
Rajeshwari Test Tube Baby Centre,16/153 NGR road rajeshwari nursing home palladam,TAMIL NADU,rajeshwarittbc@gmail.com,"Rajeshwari Nursing Home, N G R Salai Rd, behind Palladam Bus Stand, Mullai Nagar, Palladam, Tamil Nadu 641664",10.9953753,77.2815229,641664,Coimbatore,RAJESHWARI,Independent
Rajini Clinic,"Old no 2, New no 3, PT Rajan salai KK nagar Chennai",TAMIL NADU,usha_jipmer@yahoo.co.in,"Old no 2, New no 3, PT Rajan Rd, opposite to Lakshman Shruti signal, Sector 13, K. K. Nagar, Chennai, Tamil Nadu 600083",13.0442229,80.1914142,600083,Chennai,RAJINI,Independent
"RAMA PRASAD MULTISPECIALITY HOSPITALS, VERSHA TEST TUBE BABY CENTRE","No. 75, KALLIAMPUDUR, KUNNATHUR ROAD (MEDICAL COLLEGE ROAD), PERUNDURAI",TAMIL NADU,ramaprasadhospital@gmail.com,"75, Road, Medical College Road, Kalliampudur, Perundurai, Tamil Nadu 638052",11.2795777,77.5517141,638052,Erode,RAMA,Independent
RAMAKRISHNA HOSPITAL,"395,SAROJINI NAIDU STREET",TAMIL NADU,ivf1@sriramakrishnahospital.co.in,"395, Sarojini Naidu Rd, Siddhapudur, New Siddhapudur, Coimbatore, Tamil Nadu 641044",11.0232214,76.9571332,641044,Coimbatore,RAMAKRISHNA,Independent
Ramakrishna Medical Centre LLP,"19,20,21, Vivekananda Nagar, Woraiyur, Trichy",TAMIL NADU,rnhtrichy@gmail.com,"No: 20, Vivekananda Nagar, Woraiyur, Tiruchirappalli, Tamil Nadu 620003",10.821714,78.6542287,620003,Trichy,RAMAKRISHNA,Independent
Ramana hospital,"No 37 F Pollachi road,Dharapuram,Tirupur district",TAMIL NADU,drdivyaj@gmail.com,"37F, Pollachi Rd, RSP Nagar, Dharapuram, Tamil Nadu 638657",10.7352033,77.514582,638657,Erode,RAMANA,Independent
Ramyashree Fertility Centre,"No 27 Ulundurpet road , Vridhachalam",TAMIL NADU,trramyashree88@gmail.com,"Junction Rd, Virudhachalam, Tamil Nadu 606001",11.5237089,79.3215858,606001,Tiruvannamalai,RAMYASHREE,Independent
RANGA HOSPITAL,"1638, THADAGAM ROAD, VELANDIPALAYAM, COIMBATORE",TAMIL NADU,drvrathikacoimbatore@gmail.com,"2WHJ+HR4, Thadagam Main Rd, near Avila Convent School, Velandipalayam, Tamil Nadu 641025",11.0289372,76.9114836,641025,Coimbatore,RANGA,Independent
RANGA NURSING HOME,"NO:287,T.H.ROAD, OLD WASHERMENPET,CHENNAI",TAMIL NADU,dr.rvgkrishnan@gmail.com,"287, Thiruvottiyur High Rd, Chellapa Colony, New Washermenpet, Tiruvottiyur, Chennai, Tamil Nadu 600021",13.1192391,80.2650428,600021,Chennai,RANGA,Independent
Rao hospital,120 west periasamy road RS puram coimbatore,TAMIL NADU,director-admin@raohospital.com,"120, W Periasamy Rd, R.S. Puram, Coimbatore, Tamil Nadu 641002",11.0132254,76.9278341,641002,Coimbatore,RAO,Independent
Rathimed speciality Hospital,"Q-102, 3rd avenue , Anna nagar, chennai",TAMIL NADU,rathimedspecialityhospital@gmail.com,"Rathimed Speciality Hospital, 3rd Ave, Block Q, Anna Nagar, Chennai, Tamil Nadu 600040",13.0917265,80.197285,600040,Chennai,RATHIMED,Independent
Rathna Ferility Centre India Pvt Ltd,"12/208, Main Road, Swamiyarmadam",TAMIL NADU,rathnafertilitycentre.rfc@gmail.com,"Rathna Memorial Hospital, 11-208, Swamiyar Madam, Kattathurai, Tamil Nadu 629158",8.2873694,77.249943,629158,Kanyakumari,RATHNA,Chained
Rathna fertility centre,Annamalai chettiyar street.sekkalai 1st street.sekkalai,TAMIL NADU,dr.rathna2@gmail.com,"Rathnaa fertility centre, 244, Sekkalai Rd, Sekkalai, Karaikudi, Tamil Nadu 630002",10.0800531,78.7553888,630002,Sivaganga,RATHNA,Chained
RATHNA MEDICAL CENTRE (URO & IVF),NO: 9 KUMARAN NAGAR VAYALUR ROAD NEAR KVB,TAMIL NADU,babitajohn73@gmail.com,"No 68 Ramalinganagar south extension, Puthur, Tiruchirappalli, Tamil Nadu 620017",11.9246704,76.754232,620017,Trichy,RATHNA,Chained
Redeem fertility,"retteri kumaran hospital building, 1419/A, Jawaharlal nehru road, retteri junction, kolathur,",TAMIL NADU,redeemfertility@gmail.com,"46G6+JR9, 2/6, Inner Ring Road junction, Retteri, Kolathur, Chennai, Tamil Nadu 600099",13.131561,80.1934966,600099,Chennai,REDEEM,Independent
Retna Global Hospital Fertility Centre,"Retna global hospital, 95/1,Pattabiraman Street, Tennur,Trichy-17,Tamilnadu",TAMIL NADU,priya.vas15@gmail.com,"No 95, 1, Pattabiraman Salai, beside Maruti Hospital, Anna Nagar, Tennur, Tiruchirappalli, Tamil Nadu 620017",10.8100107,78.6596743,620017,Trichy,RETNA,Independent
Retnadhas hospital,Manapparai Trichy,TAMIL NADU,dhas.p@yahoo.com,"JC28+R3M, Vadagupatti, Tamil Nadu 621306",10.6021274,78.3945857,621306,Trichy,RETNADHA,Independent
Rhea Womenâ€™s Speciality hospital & Rhea IVF,"204/4A , Taj Towers , Durugam main road, Opposite to AKT engineering college gate, Kallakurichi , Kallakurichi district",TAMIL NADU,vadivuvenkat@hotmail.com,"Taj Towers, 204/4A, Durugam Main road, opposite to Akt Engineering college gate, Kallakurichi, Tamil Nadu 606202",11.7382434,78.9614375,606202,Kallakurichi,RHEA,Independent
RITHVIK SPECIALITY CLINIC - FERTILITY AND CANCER CENTER,"Shop. No. 1,2,3, NIRMALA COMPLEX, MRN NAGAR MAIN ROAD, MRN NAGAR, KALLAKURICHI",TAMIL NADU,viji8oct@gmail.com,"PXP9+QR5, MRN Rd, MRN Nagar, Raja Nagar, Kallakurichi, Tamil Nadu 606202",11.7369419,78.9490169,606202,Kallakurichi,RITHVIK,Independent
RK FERTILITY UNIT,"RK HOSPIALS FOR WOMEN AND CHILDREN,N07 FIRST STREET,VOC NAGAR,THANJAVUR",TAMIL NADU,RKIVFUNIT@GMAIL.COM,"1st Cross Rd, VOC Nagar, Parisutham Nagar, Thanjavur, Tamil Nadu 613007",10.7727822,79.1237718,613007,Thanjavur,RK,Independent
Roshini Arunaa IVF clinic,"32,ALC CAMPUS MANJAKUPPAM CUDDALORE",TAMIL NADU,ezhilrajan96@gmail.com,"No 44, QQ46+5HX ALC campus, No 32 ALC Campus, Manjakuppam, Cuddalore, Tamil Nadu 607001",11.755739,79.7587153,607001,Cuddalore,ROSHINI,Independent
Royal Care Super Speciality Hospital Ltd,"1/520, Neelambur, Sulur (TK).",TAMIL NADU,coo@royalcarehospitals.in,"L&T Toll Gate, Bye Pass 1 520, Salem - Kochi Hwy, Neelambur, Tamil Nadu 641062",11.0593054,77.0688943,641062,Coimbatore,CARE,Independent
ROYAL HOSPITAL,"67,D.D. ROAD,ARAPALAYAM,MADURAI",TAMIL NADU,royalhospital678@gmail.com,"67, DD Main Rd, Block Number 3, Arappalayam, Gnanavolivupuram, Madurai, Tamil Nadu 625016",9.9358908,78.0799176,625016,Madurai,HOSPITAL,Independent
Royal Hospital and Fertility Centre,"Royal Hospital, 1, Nehru Street, Alwarthirunagar, Chennai",TAMIL NADU,royalhospital87@gmail.com,"No -1, Royal Hospital Jawaharlal, Nehru St, Alwartirunagar, Tiruvallur, Chennai, Tamil Nadu 600087",13.0446695,80.1641388,600087,Chennai,HOSPITAL,Independent
RR Speciality Hospital,"No. 55, Sanjeevi Naidu Street, Thiruppapuliyur, Cuddalore",TAMIL NADU,rrshcud@gmail.com,"No. 55 Sanjeevi, Sankara Naidu St, Muthaiya Nagar, Thirupapuliyur, Cuddalore, Tamil Nadu 607002",11.747616,79.7250582,607002,Cuddalore,RR,Independent
RRHOSPITAL/THULIR FERTILITY CENTRE,"5470/5471,MARTHANDAPURAM FIRST STREET,PUDUKOTTAI",TAMIL NADU,malarvizhi51450@gmail.com,"9RHC+CMR, Marthandapuram, Pudukkottai, Tamil Nadu 622001",10.379382,78.7998583,622001,Pudukkottai,RRHOSPITALTHULIR,Independent
RUBHA MEDICAL CENTRE AND HOSPITAL PVT LTD,"189/3, ANNA PATHAI,PERUR MAIN ROAD,SELVAPURAM",TAMIL NADU,rubhamedicalcentre@yahoo.com,"anna Pathai,Perur Main Road, selvapuram, Coimbatore, Tamil Nadu 641026",10.9846909,76.9121747,641026,Coimbatore,RUBHA,Independent
rupikaas fertility centre,"202 nethaji main road, BB kulam , madurai",TAMIL NADU,indumeenatr@gmail.com,"202, Nethaji Main Rd, Viswanathapuram, B B Kulam, Madurai, Tamil Nadu 625002",9.9425636,78.1082147,625002,Madurai,RUPIKAA,Independent
S V Medical Center,"6/133-1/1 Pollachi main road, solavampalayam, kinathukadavu, Coimbatore",TAMIL NADU,drsredevism@gmail.com,"Pollachi Main Rd, Kinathukadavu, Tamil Nadu 642109",10.8325392,76.9974852,642109,Coimbatore,S,Independent
S.J.Speciality Clinic,"26 Pammal Main Road , Muthamizh Nagar , Pammal, Chennai",TAMIL NADU,sjspecialityclinic2012@gmail.com,"26, Pammal Main Rd, opposite ICICI BANK, Muthamizh Nagar, Pammal, Chennai, Tamil Nadu 600075",12.9719832,80.1202486,600075,Chennai,SJSPECIALITY,Independent
S.S. Hospital,"145, Nethaji Road, Marappalam Erode.",TAMIL NADU,ramachandranpalaniappan1951@gmail.com,"145, Nethaji Rd, Kalukadimedu, Surampattivalasu, Marapalam, Erode, Tamil Nadu 638001",11.3348699,77.711655,638001,Erode,SS,Chained
Saaral Fertility and Women's Health Centre,"73/1, Vasan Dental Complex, Next to Easybuy, Gandhi Nagar, Vellore Chittoor road, Vellore",TAMIL NADU,saaralfertilitycentre@gmail.com,"Vasan Dental Complex, 73/1, Vellore - Chittoor Rd, next to Easybuy, Suthanthira Ponvizha Nagar, Venkatraman Nagar, Katpadi, Vellore, Tamil Nadu 632006",12.9569016,79.1162722,632006,Vellore,SAARAL,Independent
SAFE Test Tube Baby Centre,"Ward - C , Block 52, Trichy Chennai Bypass , Thimmarayasamuthiram, Srirangam, Trichy",TAMIL NADU,ivfkspnh@gmail.com,"No. 17, Ramamoorthy Nagar, P-32, Karur Bypass Rd, Killa Chinthamani, Tiruchirappalli, Tamil Nadu 620002",10.8186878,78.6615123,620002,Trichy,SAFE,Independent
Sai Fertility Centre & Hospital,"No 43/21,devarajanar street,Vedhachalam Nagar,Chengalpattu",TAMIL NADU,indiraarumugam27@gmail.com,"New # 43, Old # 21, Devarajanar St, behind new bus stand, Vedachalam Nagar, Chengalpattu, Gokulapuram, Tamil Nadu 603001",12.6898953,79.9596033,603001,Chengalpattu,SAI,Chained
SAI MUHIL SPECIALITY CLINICS,"194/7 ASIAD COLONY ANNA NAGAR WEST EXTN., CHENNAI",TAMIL NADU,saimuhilspecialityclinics@gmail.com,"Rohini Flats, 211/2, E Main Rd, Bharathi Colony, Santam Colony, Anna Nagar West Extension, Chennai, Tamil Nadu 600101",13.089047,80.1767113,600101,Chennai,SAI,Chained
SAI NURSING HOME,"17, SRI KAMTACHI AMMAN NAGAR, MANGADU",TAMIL NADU,sainursinghomemangadu@gmail.com,"bus stop, 17, behind Gangai Amman Koil Street, Sri Kamatchiamman Nagar, Kamatchiamman Nagar, Mangadu, Chennai, Tamil Nadu 600122",13.0372438,80.0930883,600122,Chennai,SAI,Chained
SAI WOMENS CLINIC,"56/64, FIRST FLOOR, FIRST AVENUE, INDRA NAGAR ADYAR, CHENNAI",TAMIL NADU,saiwomensclinic@gmail.com,"No: 56/64, First Floor, 1st Ave, above CAFE COFFEE DAY, Indira Nagar, Adyar, Chennai, Tamil Nadu 600020",12.9996896,80.2313531,600020,Chennai,SAI,Chained
Sakthi Balaji Clinic,"4, Kumarasamy 2nd street, Thorapadi, Vellore 632002",TAMIL NADU,sakthibalajiclinic@gmail.com,"Thorapadi kumarasamy, 2nd St, Vellore, Tamil Nadu 632002",12.8930573,79.105124,632002,Vellore,SAKTHI,Independent
SakthiFertility,4/147 Nehru Street Udumalpet Tiruppur district,TAMIL NADU,savitha.rajalakshmi8@gmail.com,"4/147, Nehru Street, near Railway Station, Udumalaipettai, Tamil Nadu 642126",10.5807106,77.2472788,642126,Coimbatore,SAKTHIFERTILITY,Independent
"SALEM IVF CENTRE PVT LTD., (ARMC IVF FERTILITY CENTRE)","22/28A, SOUTH EAST LAYOUT, FAIRLANDS, OPP. TO BRINDAVAN ROAD, SALEM",TAMIL NADU,managerslm@armcivf.net,"Fairlands, Salem, Tamil Nadu 636016",11.6761003,78.1169793,636016,Salem,SALEM,Independent
SALEMPOLYCLINIC,"250, OMALUR MAIN ROAD",TAMIL NADU,salempolyclinic@ymail.com,"250, Omalur Main Rd, Salem, Tamil Nadu 636007",11.666225,78.1240634,636007,Salem,SALEMPOLYCLINIC,Independent
Samuel Hospital,"Opp.to Post Office, Thingal Nagar, Kanyakumari District",TAMIL NADU,samuelhospital2@gmail.com,"near Nagercoil, opp. Neyyoor Post Office, Thingal Nagar, Tamil Nadu 629802",8.2020566,77.2853095,629802,Kanyakumari,SAMUEL,Independent
sana fertility center,"8/132,veena hospital, perundurai road,nasiyanur,erode",TAMIL NADU,veenaahospital@gmail.com,"8JPP+MMH, Nasiyanur, Tamil Nadu 638107",11.3187852,77.3209039,638107,Erode,SANA,Independent
SANDHYA HOSPITAL,"565,PHASE 1, 16 TH CROSS, SATHUVACHARY, VELLORE",TAMIL NADU,babu.sandhya@ymail.com,"W5Q9+C9X, No.565,, Phase.I, Sathuvachary, Phase III, Sathuvachari, Vellore, Tamil Nadu 632009",12.9383598,79.1477502,632009,Vellore,SANDHYA,Independent
SANJEEVANI HOSPITAL,"69/2, KOVAI ROAD, ANNUR,COIMBATORE",TAMIL NADU,fertsanjeevani@gmail.com,"69/2, Covai Road, Annur, Tamil Nadu 641653",11.1566674,76.8873932,641653,Coimbatore,SANJEEVANI,Independent
Sanjeevini Nursing Home,"No.80, Kappal Polu Street, Old Washermenpet,Chennai",TAMIL NADU,sanjeevininursinghome@gmail.com,"80, Kappal Polu St, Sanjeevarayanpet, Washermanpet, Chennai, Tamil Nadu 600021",13.1168566,80.2679064,600021,Chennai,SANJEEVINI,Independent
Sanjiv Nursing Home,3/94D Trichy road Palladam,TAMIL NADU,snhpalladam@gmail.com,"Annanagar, WATER TANK, 3/94-D, Trichy Rd, Palladam, Tamil Nadu 641664",10.9981453,77.2702422,641664,Coimbatore,SANJIV,Independent
"SANTHI HOSPITAL, SANTHI JANANAM FERTILITY CENTRE","2/343, LAL STOP, BEHIND SBI, SIPCOT, HOSUR",TAMIL NADU,dr_ndeepa@yahoo.com,"SIPCOT, PRW3+RFM, behind SBI, opp. to Lal, Sipcot Staff Housing Colony, Hosur, Begepalli, Tamil Nadu 635126",12.7490221,77.7851247,635126,Krishnagiri,SANTHI,Independent
SARAVANA HOSPITAL,"47,GUNDUSALAI ROAD(NEAR NEW COLLECTOR OFFICE)CUDDALORE",TAMIL NADU,urologyatcuddalore@gmail.com,"47, Gundusalai Road, Pondy Bye-pass, Cuddalore, Tamil Nadu 607001",11.7725516,79.7570146,607001,Cuddalore,SARAVANA,Independent
Saravana hospital,"No.285,thenvadal new street,sattur",TAMIL NADU,drpsmrajesh87@yahoo.com,"285, thenvadal, S N New St, Sattur, Tamil Nadu 626203",9.3546516,77.8976694,626203,Virudhunagar,SARAVANA,Independent
Sathyam Fertility center,"536,MS road ,vetturnimadam junction ,Nagercoil",TAMIL NADU,acc.sathyamhospital@gmail.com,"Sathyam Hospital, 536, MS Rd, Vetturnimadam, Nagercoil, Tamil Nadu 629003",8.1872034,77.3525349,629003,Kanyakumari,SATHYAM,Independent
SB Fertility centre,"SB Hospital, Rajappa Nagar, Medical College Road, Thanjavur",TAMIL NADU,sbfertilitycentre@gmail.com,"Medical College Rd, Rajjappa Nagar, Thanjavur, Tamil Nadu 613007",10.7755889,79.1158885,613007,Thanjavur,SB,Independent
Selva virutcham Fertility Centre,"H1/C12 R.M colony main road ,  Dindigul-624001",TAMIL NADU,selvavirutcham2@gmail.com,"64/77, Municipal colony, Nehruji Nagar, Dindigul, Tamil Nadu 624001",10.3366923,77.8675327,624001,Dindigul,SELVA,Independent
Serene ART Clinic,"Kuzhanthai Sanjeevi Hospital,17 Jawahar Street,Ramavarmapuram,Nagercoil-1.",TAMIL NADU,sanjeevi04092002@gmail.com,"5CGG+3Q5, Simon Nagar, Nagercoil, Tamil Nadu 629001",8.1751898,77.4063834,629001,Kanyakumari,SERENE,Independent
SG HOSPITAL TEST TUBE BABY CENTRE,"1/1,80 feet road, karur",TAMIL NADU,sghuma@gmail.com,"80 Feet Rd, opp. kvr complex, Gandhi Puram, Karur, Tamil Nadu 639002",10.9610473,78.0509608,639002,Karur,SG,Independent
SHAI JEEVAN FERTILITY CENTRE,"TIRUNELVELI MAIN ROAD, THEREKALPUTHOOR",TAMIL NADU,drsrinivasahospitals@gmail.com,"Thirunelveli Main Road, National Highway, 47B, Therakalputhoor, Nagercoil, Tamil Nadu 629901",8.2014476,77.4345132,629901,Kanyakumari,SHAI,Independent
Shanmugam hospital,"Thevaram road,Bodinayakanur,Theni District",TAMIL NADU,suninth13@gmail.com,"284X+9HF, Amaravathi Nagar, Bodinayakanur, Tamil Nadu 625513",10.0059671,77.32831,625513,Madurai,SHANMUGAM,Independent
SHASHTHI  IVF  CENTRE,"IHK BUILDING ,MANDAKARAI",TAMIL NADU,shashthiivfcentre@gmail.com,"IHK Building, Mandhakarai, V. Marudur, Viluppuram, Tamil Nadu 605602",11.9475644,79.472955,605602,Viluppuram,SHASHTHI,Independent
SHEELA CLINIC,"117, EAST POWER HOUSE ROAD, COIMBATORE",TAMIL NADU,sheelahospital@gmail.com,"117, E Power House Rd, Tatabad, Coimbatore, Tamil Nadu 641012",11.0184768,76.9579813,641012,Coimbatore,SHEELA,Independent
Shenbagam Hospital,"No.2, Nadimuthu Nagar",TAMIL NADU,aeshikajobson0010@gmail.com,"363J+3GR, Manamelkudi, Tamil Nadu 614620",9.988326,77.3678518,614620,Thanjavur,SHENBAGAM,Independent
SHIVANI FERTILITY CENTRE,"THAMBIRAN MATERNITY & CHILDREN HOSPITAL,79/1,TALUK OFFICE ROAD,NEAR NEW BUS STAND,KARAIKUDI,",TAMIL NADU,tmch2012@gmail.com,"Taluk Office Rd, near Karaikudi New Bus Stand Road, Sekkalai, Karaikudi, Tamil Nadu 630001",10.0752922,78.7592202,630001,Sivaganga,SHIVANI,Independent
Sholai Medical Centre,"20,Perundurai Road ,Erode,Tamil Nadu.",TAMIL NADU,sholaimedicalcentreerode@gmail.com,"20, Perundurai Rd, opp. Sudha Hospital, V Chatram, Erode, Tamil Nadu 638011",11.3365882,77.6903039,638011,Erode,SHOLAI,Independent
SHRE  VENKTESWAR FERTILITY CENTRE  AND  ART  CLINIC,"SHRE  VENKTESWAR  HOSPITAL NO 16, KAMALALAYAM  WEST  BANK, THIRUVARUR",TAMIL NADU,svhtvr82@gmail.com,"Madappuram, Thiruvarur, Tamil Nadu 610001",10.7212837,79.2109518,610001,Thiruvarur,SHRE,Independent
Shree Chakra Clinic and Nursing Home,"New no 4 Old no 108, Ellaiamman Koil street, West Mambalam Chennai",TAMIL NADU,chakraclinic1985@gmail.com,"108, Ellaiamman Kovil St, Reddi Kuppam, West Mambalam, Chennai, Tamil Nadu 600033",13.0348903,80.2037849,600033,Chennai,SHREE,Chained
SHREE HOSPITAL,"718, PULIAKULAM MAIN ROAD, DAMU NAGAR,COIMBATORE",TAMIL NADU,gsivg@yahoo.co.in,"718, NH 181, Dhamu Nagar, Puliakulam, Coimbatore, Tamil Nadu 641045",11.0065461,76.9709108,641045,Coimbatore,SHREE,Chained
SHREE IVF CARE,"Plot No. 25 & 26 Pondy - Tindivanam Main Road Near Jipmer Check Post, Pattanur, Vanur T.K, Tamilnadu--605 111",TAMIL NADU,hemsesha@yahoo.com,"Navayuga Nagar, Mortandi, Pattanur, Tamil Nadu 605101",11.9728387,79.7704482,605101,Viluppuram,SHREE,Chained
shree kamatchi hospital,"300a,periyur road,near to govt head quarters hospial,usillampatti,madurai dt,tamilnadu",TAMIL NADU,drparimalammsog@gmail.com,"Peraiyur Road, near SBI ð, Usilampatti, Tamil Nadu 625532",9.9620504,77.767757,625532,Madurai,SHREE,Chained
SHRI BHARATHI NURSING HOME,NO 50 SHASTHRI NAGAR  ANNATHANAPATTI,TAMIL NADU,bharathimagaram@gmail.com,"50, Sankari Main Rd, Shastri Nagar, Annathanapatti, Salem, Tamil Nadu 636002",11.6420509,78.1218063,636002,Salem,SHRI,Chained
Shri Lakshmi Fertility center,"149/1A, PULLALAKOTTAI ROAD",TAMIL NADU,srilakshmifertilitycentre@gmail.com,"Chennai Tiruvallur High Rd, Hariram Nagar, Ma. Po. Si. Nagar, Kakkalur, Tamil Nadu 602001",11.2865866,76.2095364,602001,Tiruvallur,SHRI,Chained
SHRI RAM HOSPITAL,"54,GANDHI ROAD,SIVAKASI",TAMIL NADU,shriramhospitalsvks@gmail.com,"56 a, Gandhi Rd, Parapatti, Sivakasi, Tamil Nadu 626123",9.4458891,77.7808011,626123,Virudhunagar,SHRI,Chained
Shri Sai Speciality Clinic,"2/329, MAkoil street, MAnagar, Redhills, Chennai",TAMIL NADU,enquiries@shrisaispecialityclinic.com,"2/329, MA Koil street, M.A.Nagar, Chennai, Padianallur, Tamil Nadu 600052",13.2032561,80.1689796,600052,Chennai,SHRI,Chained
SIDDHARTH MATERNITY CENTRE,"46A, INDIRA NAGAR, METTUR",TAMIL NADU,smcmettur@gmail.com,"46A, Indira Nagar, Mettur, Tamil Nadu 636401",11.7873873,77.7804416,636401,Salem,SIDDHARTH,Independent
SIDHARAM MULTISPECIALITY CLINIC,"OLD.NO.2,NEW NO 4, GANDHI NAGAR, CANAL BANK ROAD,ADYAR,CHENNAI",TAMIL NADU,drramya99@yahoo.com,"2, Canal Bank Rd, Gandhi Nagar, Adyar, Chennai, Tamil Nadu 600020",13.0116623,80.228266,600020,Chennai,SIDHARAM,Independent
SIMS CHELLUM HOSPITAL,"31/3-C VIJAYARAGAVACHARI ROAD ,off.GANDHI ROAD ,SALEM",TAMIL NADU,simschellumhospital@gmail.com,"31/3c, Vijaya Raghavachary Road, off, Gandhi Rd, Salem, Tamil Nadu 636007",11.6698712,78.1352731,636007,Salem,SIM,Independent
SISU Hospital India Ltd,"3/303, SISU Hospital India Ltd, Kandhampatty Bye-Pass, Salem",TAMIL NADU,salemstarsisu@gmail.com,"3/303, Kandhampatty, By Pass, Salem, Tamil Nadu 636005",11.6506617,78.0998531,636005,Salem,SISU,Independent
SK HOSPITAL,"3/109-B NEHRU NAGAR,SELAM MAIN ROAD",TAMIL NADU,skhospitaldpi@gmail.com,"J5V4+R54, Sendarapatti, Gugai, Salem, Tamil Nadu 636006",11.6446725,78.0023793,636006,Salem,SK,Independent
SK HOSPITAL,"NEHRU NAGAR,SALEM MAIN ROAD,",TAMIL NADU,skhospitaldharmapuri@gmail.com,"36XJ+J55, Ayanavaram Road, United India Nagar, Tagore Nagar, Ayanavaram, Chennai, Tamil Nadu 600023",13.0990026,80.2278965,600023,Chennai,SK,Independent
Skanda Fertility and Womens Centre,2862/15 2nd floor Deen complex Marrys corner Thanjavur,TAMIL NADU,skandafertilitycentre@gmail.com,"2nd Floor, Marry's Corner, Railway Station, Deen Complex Building, Backside, Thanjavur, Tamil Nadu 613001",10.7762892,79.1381756,613001,Thanjavur,SKANDA,Independent
SKS womens centre and fertility foundation,"3rd floor, SKS lab building, 50/1 , Brindavan road, Fairlands, salem",TAMIL NADU,info@skswc.org,"50, 3rd Floor, SKS Towers, 1, Brindavan Rd, Salem, Tamil Nadu 636004",11.6708258,78.1233092,636004,Salem,SKS,Independent
SM SPECIALITY HOSPITAL,"6/2236 Kuttimani Nagar, Thiruvalluvar Avenue, No.1Tolgate",TAMIL NADU,smspecialityhospital@gmail.com,"6/2236 ,Kuttimani Nagar,Thiruvalluvar Avenue, Tiruchirapalli - Salem Main Rd, No 1 Tollgate, Tiruchirappalli, Tamil Nadu 621216",10.875861,78.6855701,621216,Trichy,SM,Independent
SM Test Tube Baby Center (A Unit Of Sm Hospital),"NO.3,Murugappa Layout, Mahalingapuram, Pollachi.",TAMIL NADU,smivfcenterpollachi@gmail.com,"No.3, Murugappa Layout Vijayaraghavan Street near Om Shakthi Temple Mahalingapuram, Pollachi, Tamil Nadu 642002",10.6642896,76.9985854,642002,Coimbatore,SM,Independent
SONIYAA FERTILITY CENTER,"NO:5 E2 E2 ROAD,OCPM 1ST STOP,CHINNA CHOKKIKULAM,MADURAI,TAMILNADU",TAMIL NADU,soniyaafertilitycentre@gmail.com,"7A, Kalpalam Rd, near Meenakshi College Road, Sellur, Goripalayam, Madurai, Tamil Nadu 625002",9.9278088,78.0455078,625002,Madurai,SONIYAA,Independent
Spring Fertility Fetocare Fetogene,"Tirunelveli Highroad, opp. Asirvadam petrol bunk, ozhuginasery, nagercoil",TAMIL NADU,springthecliniq@gmail.com,"Spring fertility centre, opp. Asirvadham Nadar Petrol Bunk, Therakalputhoor, Nagercoil, Tamil Nadu 629001",8.1959947,77.3525349,629001,Kanyakumari,SPRING,Independent
SREE ANDAL HOSPITAL,"39,BHARATHI NAGAR CHERANMAANAGAR,VILANKURICHI POST COIMBATORE",TAMIL NADU,dr.andal.suresh@gmail.com,"39, Bharathi Nagar, Vilankurichi Post, Cheran Maa Nagar, Coimbatore, Tamil Nadu 641051",11.0560221,76.9958229,641051,Coimbatore,ANDAL,Independent
Sree Mookambika Institute of Medical Sciences hospital,"V.P.M. Hospital Complex, Padanilam, Kulasekharam",TAMIL NADU,smimsmbbs@yahoo.co.in,"Padanilam, Kulasekharam, Tamil Nadu 629161",8.360608,77.2716627,629161,Kanyakumari,MOOKAMBIKA,Independent
"Sree Renga Fertility Centre, Unit of Sree Renga Hospital","No.12 Varada Reddy Street, Vedachala Nagar, Chengalpattu",TAMIL NADU,kppdr@yahoo.com,"No .12 Varada Reddy Street, Vedachalam Nagar, Chengalpattu, Tamil Nadu 603001",12.6896766,79.9586073,603001,Chengalpattu,RENGA,Independent
Sree Sai fertility clinic,"1B, Roja Nagar, Madhavaram, Chennai",TAMIL NADU,anitha.doc@gmail.com,"1st Floor, Mkdk Illam, Madavaram Red Hills Rd, Roja Nagar, Madhavaram, Chennai, Tamil Nadu 600060",13.1456846,80.2114188,600060,Chennai,SAI,Chained
SREE SARAN FERTILITY CENTER,"SREE SARAN MEDICAL CENTER, SF 259, POYAMPALAYAM PIRIVU, P.N ROAD, TIRUPUR",TAMIL NADU,admin@ssmchospital.com,"Bus Stop, 257, PN Rd, Raja Nagar, Poyampalayam, privu, Tiruppur, Tamil Nadu 641602",11.1489252,77.3442533,641602,Coimbatore,SARAN,Independent
SREEDEVI HOSPITAL AND FERTILITY CENTRE,"16/4,GANDHI ROAD, SRIRANGAM",TAMIL NADU,sdhandfc@yahoo.com,"No 16/4, 16 01, Gandhi Rd, Srirangam, Tiruchirappalli, Tamil Nadu 620006",10.8576059,78.6719472,620006,Trichy,SREEDEVI,Independent
Sri Annamalai Fertility and Endoscopic centre,"No-20, Sigil raja street, Kenikarai, Ramanathapuram, Tamilnadu-623501",TAMIL NADU,shivanihospital@gmail.com,"20, Sigil Raja Street, Kenikarai, Faisal Nagar, Ramanathapuram, Tamil Nadu 623504",9.36543,78.7987506,623504,Ramanathapuram,ANNAMALAI,Independent
SRI BALAJI HOSPITALS,"318/3B2, CHENNAI BY PASS SERVICE ROAD, NOLAMBUR, CHENNAI",TAMIL NADU,umathanmaran@gmail.com,"Nolambur Road, Nolambur, Ambattur Industrial Estate, Chennai, Tamil Nadu 600037",13.0776029,80.1410618,600037,Chennai,BALAJI,Chained
SRI BALAJI NURSING HOME,"427/138 KAMARAJ NAGAR, RAJAPALAYAM",TAMIL NADU,drdjp1946@gmail.com,"340, Bharathi Nagar, Rajapalayam, Tamil Nadu 626108",11.1973909,73.3058734,626108,Virudhunagar,BALAJI,Chained
SRI BALAJI NURSING HOME AND CLINIC,"107,TRICHY ROAD,MANAPARAI.",TAMIL NADU,drchinrasu@gmail.com,"Rd, vidathilampatty, Tamil Nadu 621306",10.6103007,78.4030426,621306,Trichy,BALAJI,Chained
Sri Chakra Fertility,"NO:4, Dr. Natesan Road, Ashok Nagar, Chennai",TAMIL NADU,srichakrafertility@gmail.com,"NO:4, Dr Natesan Salai, Raghavareddy Colony, Zaffarkhanpet, Ashok Nagar, Chennai, Tamil Nadu 600083",13.0370504,80.1911885,600083,Chennai,CHAKRA,Independent
SRI CHANDRA SEKARA HOSPITALS PVT LTD,SF 749 AVALAPALLI HOUSING BOARD BAGALUR ROAD HOSUR,TAMIL NADU,scshospitals@gmail.com,"Door No: 6/889, S.F. No: 691 & 692, Bagalur Rd, near IOC Petrol Bunk, NGGO's Colony, Hosur, Avalapalli Hudco, Tamil Nadu 635109",12.7463061,77.8131943,635109,Krishnagiri,CHANDRA,Independent
SRI GANESH FERTILITY CENTER,"451,on Avinashi Road,Near Fun Mall,Peelamedu",TAMIL NADU,ganeshfertility@gmail.com,"451, Avinashi Road, Opp.Tirupur Textiles, Masakalipalayam, Peelamedu, 451, Avinashi Rd, Opp Thirupur Textiles, Peelamedu, Coimbatore, Tamil Nadu 641004",11.0249562,76.9908696,641004,Coimbatore,GANESH,Independent
Sri Hari hospital,"plot no 11 ,13 th cross street, pkm Nagar, karuppayurani madurai 20",TAMIL NADU,jeyanthiprabha76@gmail.com,"W5GG+V93, Karuppayurani, Tamil Nadu 625020",9.9271833,78.1553254,625020,Madurai,HARI,Independent
Sri kanna hospital,"No: 4, Esakkiamman Kovil Street, chinthamani-Puliangudi-627855.",TAMIL NADU,srikannahospitaliui@gmail.com,"4, Essakiamman Kovil street , Chintamani, puliangudi, Puliyangudi, Tamil Nadu 627855",9.1848243,77.3824989,627855,Tirunelveli,KANNA,Independent
SRI KAUVERY MEDICAL CARE (INDIA) LTD,"NO 2/473 RADIAL ROAD, KOVILAMBAKKAM, CHENNAI",TAMIL NADU,maaivf.krr@kauveryhospital.com,"2/473, 200 Feet Radial Rd, Ganapathy Nagar, Kovilambakkam, Chennai, Tamil Nadu 600129",12.9483019,80.1690678,600129,Chennai,KAUVERY,Chained
SRI KUMARAN  HOSPITAL,2 MUNICIPAL COLONY 10 TH CROSS MEDICAL COLLEGE ROAD THANJAVUR,TAMIL NADU,srikumarangastro@gmail.com,"Municipal Colony, Eiswari Nagar, Thanjavur, Tamil Nadu 613007",10.767761,79.1087004,613007,Thanjavur,KUMARAN,Independent
SRI LINGAMMAL MEDICAL CENTRE,"32/173,SOLAIMALAI AYYANAR KOVIL 2 ND STREET,40FT SCHEME ROAD,THENI",TAMIL NADU,slmcmedicalcentre@gmail.com,"32/173, Sree Selva Ganapahy ave, 40 Feet Thittasalai, Solamalai Ayyanar Kovil Street, Theni, Tamil Nadu 625531, NRT Nagar, Theni, Tamil Nadu 625531",10.0056483,77.4639982,625531,Madurai,LINGAMMAL,Independent
SRI NARAYANA MEDICAL CENTRE,"524,MTH ROAD,AMBATTUR,CHENNAI",TAMIL NADU,srinarayanamedicalcentre@gmail.com,"524, Chennai - Tiruvallur High Rd, Lenin Nagar, Ambattur, Chennai, Tamil Nadu 600053",13.1239512,80.124224,600053,Chennai,NARAYANA,Independent
SRI NARAYANI HOSPITAL & RESEARCH CENTRE,"THIRUMALAIKODI, SRIPURAM, VELLORE",TAMIL NADU,ao@snhrc.org,"Azad Rd, Thirumalaikodi, Vellore, Tamil Nadu 632055",12.8705207,79.0693674,632055,Vellore,NARAYANI,Independent
Sri ragavendra fertility centre,"No 167,srinagar 1st street,medical college post",TAMIL NADU,sriragavendrafertilitycentretn@gmail.com,"167, Sri Nagar First Street, Medical College Rd, Thanjavur, Tamil Nadu 613004",11.912152,77.0368275,613004,Thanjavur,RAGAVENDRA,Independent
Sri Ramachandra Medical Centre for Assisted Reproductive Technology (SMART),"Sri Ramachandra Medical College and Research Centre 1, Sri Ramachandra Nagar, Porur, Chennai, Tamilnadu",TAMIL NADU,smartsrmc@gmail.com,"No.1, Ramachandra Nagar, Sri Ramachandra Nagar, Chennai, Tamil Nadu 600116",13.0391373,80.1384161,600116,Chennai,RAMACHANDRA,Independent
Sri Sai Speciality Clinic,"Old no 2, new no 5, Maharaja surya road, Alwarpet,Chennai",TAMIL NADU,sairam_subramanian@hotmail.com,"5-2, Maharaja Surya Rd, Vannia Teynampet, Venus Colony, Alwarpet, Chennai, Tamil Nadu 600018",13.039194,80.2335724,600018,Chennai,SAI,Chained
SRI SANJEEVI HOSPITAL,"52B 8/6 DURUGAM ROAD, KALLAKURICHI",TAMIL NADU,ssh200732@yahoo.com,"52 B, 8/6, Durugam Rd, Kottaimedu, Kallakurichi, Tamil Nadu 606202",11.7382829,78.9459479,606202,Kallakurichi,SANJEEVI,Independent
SRI SHAKTHY HOSPITAL,"NO,1,NEHRU NAGAR,POLICEQUARTERS ROAD,BHARATHI NAGAR,GANAPATHY,COIMBATORE",TAMIL NADU,sakthi.orbito@gmail.com,"Police Quarters Rd, Om Sakthi Nagar Extension, Bharathi Nagar, Raja Nagar, Ganapathy, Coimbatore, Tamil Nadu 641006",11.0475695,76.9724628,641006,Coimbatore,SHAKTHY,Independent
Sri shivanie fertility centre,Sri shivanie health care 36 thepperumanallur road sekkankanni Kumbakonam,TAMIL NADU,srishivaniehealthcare@gmail.com,"36 thepperumanallur road, Sekkanganni St, Kumbakonam, Tamil Nadu 612001",10.9607031,79.3816722,612001,Thanjavur,SHIVANIE,Independent
SRI SUBAM NURSING HOME,"23, MELA PONNAGARAM MAIN ROAD",TAMIL NADU,koothan05@gmail.com,"23, 23, Mela Ponnagaram Main Rd, Melaponnagaram, West Ponnagaram, Arappalayam, Madurai, Tamil Nadu 625016",9.931388,78.1035037,625016,Madurai,SUBAM,Independent
SRI VAISHNAVI NURSING HOME,"C57, 2ND MAIN ROAD, THIRUVENGADA NAGAR, AMBATTUR, CHENNAI",TAMIL NADU,umamaheswarisvnh@gmail.com,"C-57, 2nd Main Rd, Thiruvengada Nagar, Ambattur, Chennai, Tamil Nadu 600053",13.1165165,80.125434,600053,Chennai,VAISHNAVI,Independent
Sri Vignesh Medical Centre,"3,vasanth nagar, Trichy road , Singanallur, Coimbatore",TAMIL NADU,drsaravana615@gmail.com,"2, Trichy Rd, opposite to TNHB Housing Unit, Vasanth Nagar, Singanallur, Tamil Nadu 641005",10.9995223,77.0055736,641005,Coimbatore,VIGNESH,Chained
Sridhar fertility centre,"46 D north street, Tiruvarur",TAMIL NADU,sriivf15@gmail.com,"46 D, North St, near Bank of India, Madappuram, Thiruvarur, Tamil Nadu 610001",10.7780369,79.6119399,610001,Thiruvarur,SRIDHAR,Independent
SRIKAMATCHI MEDICAL CENTRE,NO 37 TRICHY MAIN ROAD NEAR SERFOJI COLLEGE,TAMIL NADU,info@smclife.in,"AVP Azhagammal Nagar, Thanjavur, Tamil Nadu 613005",10.7527038,79.1107684,613005,Thanjavur,SRIKAMATCHI,Independent
SRIMATHI PATTAMMAL MATERNITY AND CHILD WELFARE HOSPITAL,112-A North Street,TAMIL NADU,smtphos@gmail.com,"100, North Street, Thirukoilure, Tamil Nadu 605757",10.6178238,72.8697349,605757,Viluppuram,SRIMATHI,Independent
srinivasan hospital,no96/6 Attur road Thuraiyur,TAMIL NADU,drkumarsrinivasan@gmail.com,"SH 30, Thuraiyur, Tamil Nadu 621010",11.1535075,78.573842,621010,Trichy,SRINIVASAN,Independent
Srisai Subhramaniya Hospitals Private Limited,35 36 Masilamaneeswarar nagar Thirumullaivoyal,TAMIL NADU,srisaisubhramaniyahospitals@gmail.com,"35 36 Masilamaneeswarar Nagar, 2nd St, Ettiammai Nagar, Thirumullaivoyal, Chennai, Tamil Nadu 600062",13.1386424,80.1127901,600062,Chennai,SRISAI,Independent
SRISAINATHHOSPITAL AND RESEARCH INSTITUTE,OLD NO 11 NEW NO 9 MCNICHOLS ROAD 4TH LANE CHETPET,TAMIL NADU,srisainathhospitalri@gmail.com,"No 11, MC Nichols Road G7 4th Street police station, opposite to Chetpet, Chennai, Tamil Nadu 600031",13.0708532,80.2201418,600031,Chennai,SRISAINATHHOSPITAL,Independent
SRM Institutes for Medical Sciences,"No.1 Jawaharlal Nehru Road, Landmark:, next to Vadapalani Metro station",TAMIL NADU,obgyivf@simshospitals.com,"Vadapalani, Chennai, Tamil Nadu 600026",13.0519191,80.1905946,600026,Chennai,SRM,Independent
Sruthi Hospital,No 111/E Gandhi Road Near Bus stand Sivakasi,TAMIL NADU,sruthihospital@gmail.com,"Gandhi Rd, Parapatti, Sivakasi, Tamil Nadu 626123",9.4441507,77.7813247,626123,Virudhunagar,SRUTHI,Independent
ss fertility centre,"lakshmi sundaravadanan hospital, 134, poonamallee high road, chennai",TAMIL NADU,drsudhashivkumar@gmail.com,"134 950, Poonamallee High Rd, Egmore, Chennai, Tamil Nadu 600084",13.0793592,80.2352409,134950,Chennai,SS,Chained
SS MEDICAL CENTRE,"14-1, Arthanari Nagar, Opposite to New Bus Stand, Salem",TAMIL NADU,ssmedicalcentre.s@gmail.com,"14-1, New Bus Stand Rd, Arthanari Nagar, Swarnapuri, Salem, Tamil Nadu 636004",11.6714074,78.1191051,636004,Salem,SS,Chained
ST. MARYS HOSPITAL,"20C, NARASIMMA ACHARI STREET, DHARMAPURI",TAMIL NADU,maryhospital944@gmail.com,"Dharmapuri, Tamil Nadu 636701",12.1283677,78.1575558,636701,Salem,ST,Independent
ST.MARYS HOSPITAL,"No.11, MADURAI MAIN ROAD, CHINTHAMANI, PULIANGUDI",TAMIL NADU,stmaryshospitalpuliangudi@gmail.com,"5CP3+H4C, Chinthamani, Tamil Nadu 627855",9.186411,77.3819997,627855,Tirunelveli,STMARY,Independent
Subbu nursing home,"314,kamarajanor road.,Attur, tk Salem dt",TAMIL NADU,dr.pallavi87@yahoo.com,"314, Kamarajanar Rd, Pungavadi Puthur, Attur, Tamil Nadu 636102",11.5966775,78.5817057,636102,Salem,SUBBU,Independent
subham hospital,"opp.bus stand,kakapalayam main road,mottur,ellampillai,salem",TAMIL NADU,hospitalsubam@gmail.com,"op.Bus stand Kakapalayam Main Road Edanganasalai, Mottur, Elampillai, Tamil Nadu 637502",11.6069962,77.9836122,637502,Namakkal,SUBHAM,Independent
SUDHA HOSPITAL PRIVATE LIMITED,"75/6,BRINDAVAN ROAD,FAIRLANDS,SALEM",TAMIL NADU,sudhainfertilitysalem@gmail.com,"Fairlands, Salem, Tamil Nadu 636004",12.276856,76.5641904,636004,Salem,SUDHA,Chained
SUDHA HOSPITALS,"13A-1 WILLIAMS ROAD, CANTONMENT, (OPP) FEMINA HOTEL, TRICHY",TAMIL NADU,sudhainfertilitytrichy@gmail.com,"13/A1, Williams Rd, opposite to Femina Hotel, Cantonment, Tiruchirappalli, Tamil Nadu 620001",10.8113132,78.6733981,620001,Trichy,SUDHA,Chained
Sudha Hospitals Private limited,"Krishnammal Memorial Hospital, No. 293, Periyakulam - Cumbum Rd, near Fire Service, Allinagaram, Konduraja Line,",TAMIL NADU,sudhainfertilitytheni@gmail.com,"293, Periyakulam Main Rd, near Aravind Eye Hospital, Konduraja Line, Theni, Unjampatti, Tamil Nadu 625531",10.020454,77.4771516,625531,Madurai,SUDHA,Chained
SUDHA HOSPITALS PRIVATE LIMITED,"C/O AMC SUPER SPECIALITY HOSPITAL,141,KAMARAJ ROAD,PALLADAM MAIN ROAD,TIRUPUR",TAMIL NADU,sudhainfertilitytup@gmail.com,"141, Kamaraj Road, Palladam Main Rd, near Old Bus Stand, Tiruppur, Tamil Nadu 641604",11.0852088,77.3014679,641604,Coimbatore,SUDHA,Chained
SUDHA HOSPITALS PVT LTD,"No.24, 4th East Cross Road, Gandhi Nagar, Vellore",TAMIL NADU,sudhalabvellore@gmail.com,"X45R+C2X, 24, 4th East Cross Rd, Suthanthira Ponvizha Nagar, Gandhi Nagar, Vellore, Tamil Nadu 632006",12.9586666,79.1196777,632006,Vellore,SUDHA,Chained
"SUDHA HOSPITALS( WOMEN, CHILD CARE & FERTILITY CENTRE","410, BHARATHIYAR ROAD, NEW SIDDHA PUDUR, COIMBATORE",TAMIL NADU,sudhainfertilitycoimbatore@gmail.com,"410, Bharathiyar Rd, Siddhapudur, New Siddhapudur, Coimbatore, Tamil Nadu 641044",11.0168135,76.9548398,641044,Coimbatore,SUDHA,Chained
"Sudha hospitals, Women ,Child care and Fertility centre","No.940, EVR Periyar Salai,Poonamalli High Road, Purasaiwalkam,Chennai",TAMIL NADU,ao.chennai@sudhahospitals.com,"No.940, EVR Periyar Road, Poonamalli, High Road, opp. Old Dasprakash Hotel, Purasaiwakkam, Chennai, Tamil Nadu 600084",13.0791424,80.2336295,600084,Chennai,SUDHA,Chained
SUDHA MOTHER AND CHILD CARE,"151, PERUNDURAI ROAD ERODE",TAMIL NADU,coomcc2020@gmail.com,"Sudha Fertility Centre, 162, 181, Perundurai Rd, Edayankattuvalasu, Erode, Tamil Nadu 638011",11.3372076,77.6903137,638011,Erode,SUDHA,Chained
SUDHA SUNDAR HOSPITAL,"BALAMORE ROAD, MELAPUTHERY, NAGERCOIL",TAMIL NADU,SUDHASUNDARHOSPITAL@HOTMAIL.COM,"Balamore Road, Mela Putheri, Nagercoil, Putheri, Tamil Nadu 629001",8.2130189,77.4113359,629001,Kanyakumari,SUDHA,Chained
SUDHANUSHA QUINTESSENTIAL HEALTHCARE OPC (P) LTD,"174, VELACHERRY MAIN ROAD",TAMIL NADU,sudhanushaquintessential@gmail.com,"Lake, 7/14, 7th Cross Street, near Velachery, Rajalakshmi Nagar, Velachery, Chennai, Tamil Nadu 600042",12.9942215,80.0990604,600042,Chennai,SUDHANUSHA,Independent
Sugan hospital,"2/345a, Pandian salai, Neelankarai",TAMIL NADU,bhuvima1106@gmail.com,"2/345a, Pandian Salai, Saraswathi Nagar, Neelankarai, Chennai, Tamil Nadu 600115",12.9495595,80.2306825,600115,Chennai,SUGAN,Independent
SUHA WELL WOMEN AND FERTILITY CLINIC,"NO.3, SRIDEVI GARDEN MAIN ROAD, VALASARAVAKKAM, CHENNAI-87",TAMIL NADU,tamizpond@yahoo.co.in,"3, Shridevikuppam Main Rd, East Kamakoti Nagar, Valasaravakkam, Chennai, Tamil Nadu 600087",13.0423606,80.1550458,600087,Chennai,SUHA,Independent
SUMATHI FERTILITY CENTRE,334 - A  ANNA NAGAR MADURAI,TAMIL NADU,sumathihospital@gmail.com,"334-A, 1st East Main Rd, Anna Nagar, Madurai, Tamil Nadu 625020",9.9237497,78.1441315,625020,Madurai,SUMATHI,Independent
sundaram multi speciality hospital,"sadagopan street, North udayarpalayam, Attur",TAMIL NADU,smshospital@hotmail.com,"sadagopan street, 89, near Gandhi Statue, Udayarpalayam, Attur, Tamil Nadu 636102",11.6002939,78.5729618,636102,Salem,SUNDARAM,Independent
SUNRISEFERTILITYCENTRE,"17 d, T.P.K. ROAD, NEAR SAIBABA TEMPLE, GOWTHAM HOSPITEL UPSTAIR, ANDALPURAM,MADURAI",TAMIL NADU,sunrisefertilitycentre@gmail.com,"Door No 105, Plot 13, Neelagandan Street, Pasumpon Nagar, Palangantham, Madurai, Tamil Nadu 625003",9.9060865,78.0854723,625003,Madurai,SUNRISEFERTILITYCENTRE,Independent
SUPA HOSPITAL,"V.C.V PETTAI ,CSI  CHURCH OPPOSITE, METTUPALAYAM.",TAMIL NADU,supahospital@gmail.com,"299A, Nagapattinam - Coimbatore - Gundlupet Hwy, Mahadevapuram, Mettupalayam, Tamil Nadu 641301",11.3055278,76.915421,641301,Coimbatore,SUPA,Independent
SUPA HOSPITALS PRIVATE LIMITED,"37, SIDDHA VEERAPPA CHETTY STREET, DHARMAPURI",TAMIL NADU,drpsivaa@gmail.com,"37, Siddha Veerappachetty Street, near Bus Stand, Dharmapuri, Tamil Nadu 636701",12.132739,78.1419416,636701,Salem,SUPA,Independent
SURABHI FERTILITY & TEST TUBE BABY CENTER - CHANDRABAI HOSPITAL,"93/44, PARTHASARATHY STREET, S S COLONY, MADURAI",TAMIL NADU,p.rajeshprabhu@gmail.com,"CHANDRA BAI HOSPITAL, R, Parthasarathy St, near BUY, Somasundaram colony, Madurai, Tamil Nadu 625016",9.9210529,78.0581952,625016,Madurai,SURABHI,Independent
SURAJ HOSPITALS,"26, Ex-servicemen colony, 1st Street, Perumbakkam Main Road, Jalladampet, Chennai -600100",TAMIL NADU,surajhospitals2012@gmail.com,"W56W+FRP, Perumbakkam Main Road, 5th Main Rd, Pallavan Nagar, Green Court, Medavakkam, Chennai, Tamil Nadu 600100",12.9118056,80.1754164,600100,Chennai,SURAJ,Independent
suriya hospital,"10-10/A,Mettupalaym annur road,Mettupalayam",TAMIL NADU,suriyahospital@gmail.com,"10, 10/A, 10/A, Mettupalayam - Annur Rd, Mettupalayam, Tamil Nadu 641301",11.3019303,76.919445,641301,Coimbatore,SURIYA,Independent
Surya Fertility Centre,"Dr.Loganayaki Hsopital, 129, Pollachi Road, Dharapuram",TAMIL NADU,amsfhdpm@gmail.com,"129, Pollachi Rd, Anna Nagar, Dharapuram, Tamil Nadu 638656",10.7356,77.515806,638656,Erode,SURYA,Independent
Surya Hospital,"1343-A5, Sathy Road, Ganapathy, Coimbatore",TAMIL NADU,suryahospital1991@gmail.com,"1343-A5, Sathy Rd, Near Surya Hospital, Sri Lakshmi Nagar, Ganapathy, Coimbatore, Tamil Nadu 641006",11.0391674,76.958899,641006,Coimbatore,SURYA,Independent
Svasti fertility centre,"Asha Hospital Campus,16-1E Palace Road,  Thuckalay,  Kanyakumari district,",TAMIL NADU,jenkinsasha1@gmail.com,"No.16-1E, PALACE ROAD, Chakala, Thuckalay, Tamil Nadu 629175",8.2430843,77.2991171,629175,Kanyakumari,SVASTI,Independent
SVH SPECIALITY HOSPITAL,"No.34,7th cross, Thillainagar west ,Trichy",TAMIL NADU,svhspeciality@gmail.com,"NO.34, 7th Cross St W, West Thillai Nagar, Thillai Nagar, Tiruchirappalli, Tamil Nadu 620018",10.8226315,78.6623744,620018,Trichy,SVH,Independent
Syed Ammal Fertility center,"Syed Ammal Trust Hospital,127,Swami vivekanandar salai",TAMIL NADU,syedammalhealth@yahoo.in,"9R9M+J8J, No. 127, Swami Vivekananthar, Salai Street, Vandikkara St, Chalai Bazar, Ramanathapuram, Tamil Nadu 623504",9.3697004,78.8121275,623504,Ramanathapuram,SYED,Independent
Tamilnadu test tube centre,Tamilnadu hospital 185 natarajapillai street. Mannargudi.,TAMIL NADU,tamilnaduhospitals@gmail.com,"185, Natarajapillai St, Mannargudi, Tamil Nadu 614001",10.6632487,79.4218261,614001,Thanjavur,TAMILNADU,Independent
Thaaimai Fertility and Research Centre ( A Unit Of Thaaimai Womenâ€™s Clinic),"No 18, 1st Street, Gopalapuram, Chennai-86",TAMIL NADU,thaaimaifertility@gmail.com,"new door, Maven Clinic and Pharmacy ,Third floor Plot no 14 part, old door, 1, S Canal Bank Rd, Mandavelipakkam, Chennai, Tamil Nadu 600028",13.025258,80.2628406,600028,Chennai,THAAIMAI,Independent
THAIMAI FERTILITY CENTRE,"138 Edamal street ,Theni",TAMIL NADU,natesan03@gmail.com,"K.S.K.Hospital, 138, Edamal St, NRT Nagar, Theni, Tamil Nadu 625531",10.0116438,77.4573091,625531,Madurai,THAIMAI,Independent
Thaimai fertility centre,"Karpaga Vinayaga Institute of medical sciences and Rc, GST road, Chinnakolambakkam, Madhuranthagam",TAMIL NADU,kims.medical@yahoo.com,"P.O, GST Road, Chinna Kolambakkam, Palayanoor, Maduranthakam, Tamil Nadu 603308",12.820683,79.4246627,603308,Chengalpattu,THAIMAI,Independent
Thamarai Fertility Center,"Devi Hospital, 136/76, New Fairlands, Salem",TAMIL NADU,thamaraifertilitycentersalem@gmail.com,"New Fairlands, Alagapuram Pudur, Salem, Tamil Nadu 636016",12.0298399,73.3345568,636016,Salem,THAMARAI,Independent
Thamarai Fertility Solutions Exclusive,"39 H , 5th St, AnnaNagar East",TAMIL NADU,thamaraiexclusive@gmail.com,"39 H Block, 5th St, Brindhavan Colony, Block H, Annanagar East, Chennai, Tamil Nadu 600102",13.0896766,80.1985043,600102,Chennai,THAMARAI,Independent
THANGAM FERTILITY CLINIC,"54 DR.SANKARAN ROAD, NAMAKKAL.",TAMIL NADU,thangamfertility@gmail.com,"54, Dr.Sankaran Road, Trichy Rd, Namakkal, Tamil Nadu 637001",11.2150509,78.1513301,637001,Namakkal,THANGAM,Independent
The Fertility center,", KMCH Campus , 99 , Avinashi road ,Coimbatore",TAMIL NADU,tfccbe2001@gmail.com,"99, Avinashi Road, Peelamedu - Pudur Main Rd, Civil Aerodrome Post, Coimbatore, Tamil Nadu 641014",11.03004,76.8363705,641014,Coimbatore,FERTILITY,Independent
THE HIVE WOMEN AND FERTILITY CLINIC,"NO 21, EAST SPURTANK ROAD,CHETPET,CHENNAI",TAMIL NADU,princethehive@gmail.com,"No-25(12, CASA Major Rd, Egmore, Chennai, Tamil Nadu 600008",13.0707178,80.2341433,600008,Chennai,HIVE,Chained
THE NEXT GEN FERTILITY CENTRE,"155, Marimuthu Road, Attur, Salem Dt, Tamilnadu",TAMIL NADU,DrSuguna72@gmail.com,"NO 2, Dr.Varatharajalu street, Jothi Nagar, Pungavadi Puthur, Attur, Tamil Nadu 636102",11.5966328,78.5792306,636102,Salem,NEXT,Independent
THEEPA FERTILITY AND FETAL CLINIC,"26, THIRUVIDAIMURUDUR MAIN ROAD ,OPPO SRVS ,NAAL ROAD ,KUMBAKONAM,TAMILNADU",TAMIL NADU,pratheepapalani@gmail.com,"X98V+9H6, Thiruvidaimaruthur, main road, opposite Sri Rama Vilas Service Limited (SRVS), Kumbakonam, 612001",10.965913,79.3912983,612001,Thanjavur,THEEPA,Independent
THEHIVEFERTILITYCLINIC&WOMENSCENTREMYLAPORE,"DOOR NO:149/1, LUZ CHURCH ROAD,MYLAPORE",TAMIL NADU,goldenwomenandsurgical@gmail.com,"no-149 1, Luz Church Rd, Kapali Thottam, Mylapore, Chennai, Tamil Nadu 600004",13.0367302,80.2467154,600004,Chennai,HIVE,Chained
THEHIVEFERTILITYCLINICANDWOMENSCENTRE TAMBARAM,PLOT NO 3A AND 3B SELAIYUR CAMP ROAD JUNCTION,TAMIL NADU,thehivefertilitytambaram@gmail.com,"Camp Road Junction, Barathi Nagar, Ezhil Nagar, Selaiyur, Chennai, Tamil Nadu 600073",12.9223715,80.122425,600073,Chennai,HIVE,Chained
THEHIVEFERTILITYCLINICANDWOMENSCENTREKOLATHUR,NO-2 VELAVAN NAGAR MAIN ROAD PAPER MILLS ROAD KOLATHUR,TAMIL NADU,thehivekolathur@gmail.com,"First Floor, Plot No.2, Paper Mills Road, below Mega Mart, Velavan Nagar, Kolathur, Chennai, Tamil Nadu 600099",13.1238099,80.2020036,600099,Chennai,HIVE,Chained
THEHIVEFERTILITYCLINICANDWOMENSCENTREMADIPAKKAM,"NO:3/5,VIGNESHWARA NAGAR,3RD STREET,ULLAGARAM,MADIPAKKAM",TAMIL NADU,thehivemadipakkam@gmail.com,"3/5, Kannan Nagar 3rd Main Rd, Vigneshwar Nagar, Madipakkam, Chennai, Tamil Nadu 600061",12.9704289,80.1693949,600061,Chennai,HIVE,Chained
THEHIVEFERTILITYCLINICANDWOMENSCENTREREDHILLS,NO 2/55 BS COMPLEX MA KOIL STREET,TAMIL NADU,connect@thehivefertility.in,"55XH+HGR, M.A.Nagar, Padianallur, Tamil Nadu 600052",13.1989961,80.1087478,600052,Chennai,HIVE,Chained
THENI NATTATHI KSHATRIYAKULA HINDU NADAR URAVINMURAI CHARITY FUND HOSPITAL,"18/ 1 NRT Main Road, THENI Tamilnadu",TAMIL NADU,nnhtheni@gmail.com,"23, NRT Nagar, Theni, Tamil Nadu 625531",10.0108127,77.4734555,625531,Madurai,THENI,Independent
THULASI KRISHNA NURSING HOME - MY BABY FERTILITY CENTRE,5 FIRST STREET TAYLORS ESTATE KODAMBAKKAM,TAMIL NADU,drshantha22550@gmail.com,"5, Taylor Estate 1st St, Taylor Estate, Kodambakkam, Chennai, Tamil Nadu 600024",13.0516964,80.209288,600024,Chennai,THULASI,Independent
Trichy fetal medicine and fertility centre,17 d mrc complex 7 th cross thillai nagar east,TAMIL NADU,malathi_prasad@hotmail.com,"73C/9, Annamalai Nagar Main Rd, Tiruchirappalli, Tamil Nadu 620018",10.829462,78.6641181,620018,Trichy,TRICHY,Independent
UDAYA NURSING HOME,"Opposite to Arvind Eye Hospital, Periyakulam Road,Theni",TAMIL NADU,udayanursinghome@gmail.com,"Periyakulam Road, Sri Ram Nagar, opp. Aravind Eye Hospital Theni, Theni, Tamil Nadu 625531",10.0236186,77.4588316,625531,Madurai,UDAYA,Independent
uma fertility centre,No.20/40 kamatchi amman kovil street tindivanam,TAMIL NADU,amuthambigai1975@gmail.com,"4, 1, Kamachi Amman Kovil St, Tindivanam, Tamil Nadu 604001",12.233838,79.6478599,604001,Viluppuram,UMA,Independent
UMA HOSPITAL,"3D&E, RAJAVINAYAGAR KOVIL STREET, UDAYARPETTAI, KOMARAPALAYAM, NAMAKKAL DISTRICT.",TAMIL NADU,drkavithakpm@gmail.com,"CMVV+9R3, Komarapalayam - Idappadi Rd, Nadaraja Nagar, Komarapalayam, Tamil Nadu 638183",11.5802419,76.0292097,638183,Erode,UMA,Independent
UMARANI MULTISPECIALITY HOSPITAL,"1/136 A, ANNAI SAATHYA NAGAR NEAR LIC OFFICE SALEM ROAD KRISHNAGIRI",TAMIL NADU,umaranihospital@gmail.com,"No 1/136-A, Salem Bypass Road, behind LIC Building, Thiruvalluvar Nagar, Krishnagiri, Tamil Nadu 635001",12.5093011,78.2009745,635001,Krishnagiri,UMARANI,Independent
USHA FERTILITY CENTER,"8/54 F, Usha nursing home,Main road, Aralvaimozhi",TAMIL NADU,ushahospital99@gmail.com,"NH944, Aralvaimozhi, Tamil Nadu 629301",8.2514624,77.5030096,629301,Kanyakumari,USHA,Independent
V K HOSPITAL,"N0 33 KRISHNAMPALAYAM ROAD,KARUNGALPALAYAM,ERODE",TAMIL NADU,vkhospitalerode@gmail.com,"72/33, Krishnam Palayam Road, Thiru Nagar Colony, Erode, Tamil Nadu 638003",11.3515848,77.7107181,638003,Erode,V,Independent
VAANI FERTILITY KARE CENTRE,113 PANDHALKUDI ROAD ARUPPUKOTTAI,TAMIL NADU,vaanihospital@gmail.com,"289, Thiruchuli Rd, P.Puliampatti, Aruppukkottai, Tamil Nadu 626101",9.5074496,78.0762574,626101,Virudhunagar,VAANI,Independent
"VADAMALAYAN HOSPITALS PVT. LTD.,","649 A/2, CHETTINAIKKANPATTI VILLAGE ROAD, ANGU NAGAR, DINDIGUL",TAMIL NADU,info@vadamalayan.org,"649/ A2, Chettinaikanpatti village Road, Angu Bharathi Nagar, J.J. Nagar, Dindigul, Tamil Nadu 624004",10.3808206,77.9483425,624004,Dindigul,VADAMALAYAN,Independent
VAISHALI FERTILITY CENTRE,"(UNIT OF PILLS HOSPITAL) 70/53 BHARATHI ROAD, LIG COLONY-1, MAHALINGAPURAM, POLLACHI",TAMIL NADU,pillshospital@gmail.com,"Mahalingapuram, Tamil Nadu 642001",10.6642002,76.9898856,642001,Coimbatore,VAISHALI,Independent
VALAM FERTILITY CENTRE,"Haven Radhakrisna Enclave Apartment, 1741 Trichy Road, Ramanathapuram, Coimbatore",TAMIL NADU,dr.thiruvenisenthilvel444@gmail.com,"No61, Sathy Rd, Ganapathy, Athipalayam Pirivu, Coimbatore, Tamil Nadu 641006",11.0441066,76.9651475,641006,Coimbatore,VALAM,Independent
Vamsam Fertility Research centre,"South Bypass Road,Kurichi,Melapayam ,Tirunelveli- 627003",TAMIL NADU,vamsamtvl@gmail.com,"S Bypass Rd, Vannarpettai, Tirunelveli, Tamil Nadu 627005",8.711204,77.6997209,627005,Tirunelveli,VAMSAM,Independent
VAMSANGAL FERTILITY CENTRE,"IRENE HOSPITAL, ASARIPALLAM ROAD, NAGERCOIL",TAMIL NADU,ranjulasandeep@gmail.com,"Asaripallam Rd, Weavers Colony, Nagercoil, Tamil Nadu 629001",8.1872034,77.3498558,629001,Kanyakumari,VAMSANGAL,Independent
varamsuper speciality hospital,"120-20,opp GH,DENKANOKOTTAI ROAD",TAMIL NADU,dharshummc@gmail.com,"Denkanikottai Rd, opposite GOVERNMENT HOSPITAL, Tank Street, Shanthi Nagar West, Hosur, Tamil Nadu 635109",12.7293789,77.8040192,635109,Krishnagiri,VARAMSUPER,Independent
vasantha fertlity care & hospitals a unit of PGS hospital,"14,cowley brown road, opposite to central theater road,RS puram,coimbatore",TAMIL NADU,vithyaprabu@yahoo.co.in,"58,Krishnarayapuram street, PN Palayam Rd, Siddhapudur, Lakshmi Mills Colony, Pappanaickenpalayam, Coimbatore, Tamil Nadu 641044",11.0188679,76.9572937,641044,Coimbatore,VASANTHA,Chained
vasantha fertlity care & hospitals a unit of PGS Hospital,"271/1, Sarojini street, New sidhapudur, Coimbatore 641044",TAMIL NADU,hrpgshospital@gmail.com,"271/1, opposite to jeganadha perumal temple, near women's polytechnic, Siddhapudur, Avarampalayam, Siddhapudur, Coimbatore, Tamil Nadu 641044",11.0187535,76.9572801,641044,Coimbatore,VASANTHA,Chained
VASANTHA VAMSA VIRUTHI CENTEr,"39, chinna kadai street",TAMIL NADU,drkanishka@vasanthahospital.com,"15, Main Rd, Gandhi Nagar, Nehru Nagar, Tiruvottiyur, Chennai, Tamil Nadu 600019",12.9942215,80.0990604,600019,Chennai,VASANTHA,Chained
VASANTHAM HOSPITAL AND FERTILITY CENTRE,"12,WIGILE MEYER STREET,SORKKALPET,CUDDALORE",TAMIL NADU,gayathridr@hotmail.com,"12,wigilemeyer street,sorakalpattu, 607001",11.7536557,79.7577472,607001,Cuddalore,VASANTHAM,Independent
VAYUSHRI HOSPITALS PVT LTD,"No.203/9A2, 200 FEET ROAD, PALLAVARAM, CHENNAI",TAMIL NADU,vayushrihospitalivf@gmail.com,"203/9A2 203/9B2, 200 Feet Radial Rd, near TVS Emerald Apartment, Zamin Pallavaram, Nemilichery, Pallavaram, Chennai, Tamil Nadu 600044",12.9532839,80.1424273,600044,Chennai,VAYUSHRI,Independent
Veeramani hospital,1 B / 2 Perumal puram Thoothukudi,TAMIL NADU,veeramanihospital@yahoo.co.in,"1B/2, Perumalpuram Rd, Opp. Subbiah Vidyalayam school, Pudugramam, Thoothukudi, Tamil Nadu 628001",8.8012528,78.1182724,628001,Thoothukudi,VEERAMANI,Independent
VEL MULTI SPECIALITY HOSPITAL,"NO:11, GOUNDER ITTERY ROAD, VEL NAGAR, PALANI",TAMIL NADU,velhospital2013@gmail.com,"FG57+M8C, Itteri Rd, Vel Nagar, Sathya Nagar, Palani, Tamil Nadu 624601",10.4596741,77.4913289,624601,Dindigul,VEL,Independent
VELAMMAL MEDICAL COLLEGE HOSPITAL AND RESEARCH INSTITUTE,"VELAMMAL VILLAGE, MADURAI - TUTICORIN RING ROAD, ANUPPANADI, MADURAI - 625009",TAMIL NADU,veenacares@gmail.com,"Velammal Village, Madurai - Tuticorin, Airport-Mattuthavani Ring Rd, Chinthamani, Tamil Nadu 625009",9.8866799,78.1475206,625009,Madurai,VELAMMAL,Independent
VENKATESH NURSHING HOME,"NO 134, PATTAMANGALA STREET, MAYILADUTHURAI",TAMIL NADU,dhanamvijayan143@gmail.com,"134, Pattamangala St, Pasupathi Street, Koranad, Mayiladuthurai, Tamil Nadu 609001",11.1007289,79.6317129,609001,Mayiladuthurai,VENKATESH,Independent
venus fertility centre,"7A LAWSONS ROAD, Cantonment ,Trichy",TAMIL NADU,venusfertility@gmail.com,"7 A, Lawsons Rd, Cantonment, Tiruchirappalli, Tamil Nadu 620001",10.8049562,78.6587761,620001,Trichy,VENU,Independent
VIGNESH  HOSPITAL,NO  22   GANAPATHY   AGRAHARAM,TAMIL NADU,vnh2015@gmail.com,"Vengadeswara Nagar, Porur, 36, Poothapedu Main Rd, Ramapuram, Chennai, Tamil Nadu 600116",11.992826,76.4318661,600116,Chennai,VIGNESH,Chained
Vignesh hospital and guna fertility centre,"No-85-A, 48, 2nd cross, paramasivapuram, Lalgudi, Trichy - 621601",TAMIL NADU,vnh.lalgudi@gmail.com,"2nd Cross St, Paramasivapuram, Lalgudi, Tamil Nadu 621601",10.8744237,78.7962747,621601,Trichy,VIGNESH,Chained
Vijay hospital,"Vijay Hospital, 81, South Narasimapuram",TAMIL NADU,vijithra.t@gmail.com,"140, Gandhi Road, Karunabigai Colony, Velachery, Denkanikottai, Chennai, Tamil Nadu 600042",13.0182339,80.172482,600042,Chennai,VIJAY,Chained
Vijay Srishrti Fertility Center,"No:76-A, Old Bangalore Road, Hosur",TAMIL NADU,vijaysrishtifertilitycenter@gmail.com,"Vijay Srishti Fertility Center, 76R, Denkanikottai Rd, Hamumanthapuram, Hosur, Tamil Nadu 635109",12.7353441,77.8051834,635109,Krishnagiri,VIJAY,Chained
Vijay Srishti Fertility Center,"D/No: 102, First floor, Chairman duraisamy road, Krishnagiri main road, Tirupattur",TAMIL NADU,vijaysrishtitirupattur@gmail.com,"Krishnagiri Road, Tirupathur, Tamil Nadu 635601",12.4893971,78.5616224,635601,Krishnagiri,VIJAY,Chained
Vijay Srishti Fertility Center,"S. F. No:941, Ground floor, Plot No: 4 , Salem main road, Near meenakshi mahal, Boganapalli, Krishnagiri",TAMIL NADU,vsfc.kri@gmail.com,"Plot Number 4, Salem Main Rd, near Meenakshi mahal, New Pet, Krishnagiri, Tamil Nadu 635002",12.6875023,76.8332391,635002,Krishnagiri,VIJAY,Chained
vijaya assisted fertility centre,no.16.6th cross .arulanantha nagar.near rohinihospital.thanjavur.,TAMIL NADU,thanjavur_ivf@yahoo.co.in,"Q49J+9H3, Arulananda Nagar East Exstension, Parisutham Nagar, Thanjavur, Tamil Nadu 613007",10.7684352,79.1108329,613007,Thanjavur,VIJAYA,Chained
VIJAYA FERTILITY CENTRE,"63, RAJAJI ROAD, SALEM",TAMIL NADU,vijayahospitalsalem@gmail.com,"63, Rajaji Rd, Kumarasamipatti, Salem, Tamil Nadu 636007",11.6704958,78.101668,636007,Salem,VIJAYA,Chained
VIJAYA NURSING HOME,"58, THATTU METTU STREET",TAMIL NADU,vijayanursinghomesvks@gmail.com,"58, Thattu Mettu Street, AC Pettai, Sivakasi, Tamil Nadu 626123",11.2010203,73.7164494,626123,Virudhunagar,VIJAYA,Chained
VIKRAM HOSPITAL FERTILITY AND WOMENS CENTRE,"781, ANNA NAGAR, MADURAI",TAMIL NADU,vikramhospital123@gmail.com,"781, Anna Nagar Main Road, Anna Nagar, Sathamangalam, Madurai, Tamil Nadu 625020",9.9213508,78.1385952,625020,Madurai,VIKRAM,Independent
VIRUKSHAM FERTILITY CENTRE,"C/O SRINITHI NURSING HOME,#709 D, JUNCTION ROAD,VIRUDHACHALAM",TAMIL NADU,virukshamivf@gmail.com,"709 D, Junction Rd, Virudhachalam, Tamil Nadu 606001",11.5237504,79.3035661,606001,Tiruvannamalai,VIRUKSHAM,Independent
VIRUTCHAM FERTILITY CLINIC,"SRI VAIYAPURI NURSING HOME,1-BHARATHIYAR 4TH ST,SANKARANKOVIL",TAMIL NADU,preethi.t.srinivasan@gmail.com,"Lakshmiyapuram, Sankarankoil, Tamil Nadu 627756",9.1789472,77.5178939,627756,Tirunelveli,VIRUTCHAM,Independent
Vishnu Surya Hospital,"5/2A, LGB compound,  Dindigul",TAMIL NADU,kavithadr.v@gmail.com,"9X7J+4X3, Aarthi Theatre Rd, Mendonsa Colony, Dindigul, Tamil Nadu 624001",10.3628044,77.9618109,624001,Dindigul,VISHNU,Independent
Vishwaa Fertility Centre,"23/11, Chairman Chidhabaram Street, West Shanmugapuram, Villuputam",TAMIL NADU,vishwaafertilityvpm@gmail.com,"23/11, Chairman Chidambaram St, near SIGNAL, next to KVR GUEST HOUSE, Chairman Chidam, Viluppuram, Tamil Nadu 605602",11.9388969,79.4666786,605602,Viluppuram,VISHWAA,Independent
VJS VAIJEYANTHI SPECIALITY HOSPITAL,1ST CROSS CO-OPERATIVE COLONY,TAMIL NADU,vjshospitalkrishnagiri@gmail.com,"1st Cross St, Co-operative Colony, Thiruvalluvar Nagar, Krishnagiri, Tamil Nadu 635002",12.5179938,78.1985587,635002,Krishnagiri,VJS,Independent
Vriksham by SKS,"No 58, 8th cross, AVK Nagar, Brindhavan Road, Salem",TAMIL NADU,Vriksham@sksh.ac.in,"58, 8th Cross St, Brindavan Rd, AVK Nagar, Salem, Tamil Nadu 636007",11.6699413,78.1234737,636007,Salem,VRIKSHAM,Independent
VV Hospital,"No.54, Kazura Garden First Street, Tirukoilur",TAMIL NADU,venkatveena323@gmail.com,"kasura garden, Thirukoilure, Tamil Nadu 605757",11.9664435,79.1865527,605757,Viluppuram,VV,Independent
WOMEN & CHILD CARE,"PLOT NO: 92, DOOR NO:3, MURPHY DOSS STREET, DR. SEETHAPATHY NAGAR, VELACHERY, CHENNAI",TAMIL NADU,rameshkusha@yahoo.com,"92/3, Murphy Doss Rd, VGP Seetapathi Street, VGP Seethapathy Nagar, Velachery, Chennai, Tamil Nadu 600042",12.9814045,80.2086058,600042,Chennai,WOMEN,Independent
Womens Center and Hospitals Pvt Ltd,"146 B, Mettupalayam Road,Coimbatore",TAMIL NADU,info@womenscenterindia.com,"Bus Stop, 146B, Mettupalayam Rd, behind Eru Company, Raju Nagar, Kuppakonam Pudur, Coimbatore, Tamil Nadu 641043",11.033709,76.9310197,641043,Coimbatore,WOMEN,Independent
"Womens,s Health center","229,maruthamalai main road,perumal kovil bus stop,pn pudur",TAMIL NADU,whcwhc94@gmail.com,"Women's Health Centre, 299, Marudhamalai Rd, Perumal Kovil Bus Stop, Aishwarya Nagar, Coimbatore, Tamil Nadu 641041",11.0211455,76.8942708,641041,Coimbatore,WOMENS,Independent
Yokesh Fertility Womenâ€™s & Urology Hospital,"No. 2, 1 st street, Nethaji nagar,  North Red Hills road, Villvakkam",TAMIL NADU,yokeshfertilityclinic@gmail.com,"2, 1st Street, N Red Hills Rd, Netaji Nagar, Villivakkam, Chennai, Tamil Nadu 600049",13.1157061,80.1863975,600049,Chennai,YOKESH,Independent
